<?xml version="1.0" encoding="UTF-8"?>
<gpx creator="bike-reports-merge" version="1.1" xmlns="http://www.topografix.com/GPX/1/1">
 <trk>
  <name>Выборг - Флотский мыс - Санкт-Петербург</name>
  <trkseg>
   <trkpt lat="60.708868" lon="28.746367"><ele>5.4</ele></trkpt>
   <trkpt lat="60.708868" lon="28.746367"><ele>5.4</ele></trkpt>
   <trkpt lat="60.709196" lon="28.747519"><ele>6.0</ele></trkpt>
   <trkpt lat="60.707991" lon="28.749756"><ele>0.2</ele></trkpt>
   <trkpt lat="60.709518" lon="28.752949"><ele>10.2</ele></trkpt>
   <trkpt lat="60.711160" lon="28.757556"><ele>8.0</ele></trkpt>
   <trkpt lat="60.712018" lon="28.755240"><ele>5.8</ele></trkpt>
   <trkpt lat="60.709668" lon="28.753112"><ele>7.8</ele></trkpt>
   <trkpt lat="60.706807" lon="28.748634"><ele>3.2</ele></trkpt>
   <trkpt lat="60.704539" lon="28.749747"><ele>7.2</ele></trkpt>
   <trkpt lat="60.702379" lon="28.753843"><ele>13.4</ele></trkpt>
   <trkpt lat="60.700638" lon="28.754518"><ele>14.6</ele></trkpt>
   <trkpt lat="60.698259" lon="28.753979"><ele>11.4</ele></trkpt>
   <trkpt lat="60.695036" lon="28.759243"><ele>8.0</ele></trkpt>
   <trkpt lat="60.693015" lon="28.761826"><ele>5.6</ele></trkpt>
   <trkpt lat="60.690597" lon="28.759073"><ele>5.6</ele></trkpt>
   <trkpt lat="60.689172" lon="28.752823"><ele>2.6</ele></trkpt>
   <trkpt lat="60.688787" lon="28.745464"><ele>-0.2</ele></trkpt>
   <trkpt lat="60.687303" lon="28.739423"><ele>12.8</ele></trkpt>
   <trkpt lat="60.685232" lon="28.735556"><ele>23.2</ele></trkpt>
   <trkpt lat="60.681003" lon="28.735156"><ele>24.0</ele></trkpt>
   <trkpt lat="60.676743" lon="28.737837"><ele>24.0</ele></trkpt>
   <trkpt lat="60.671898" lon="28.742659"><ele>11.2</ele></trkpt>
   <trkpt lat="60.666730" lon="28.746218"><ele>4.4</ele></trkpt>
   <trkpt lat="60.663584" lon="28.752106"><ele>5.4</ele></trkpt>
   <trkpt lat="60.660719" lon="28.751104"><ele>20.4</ele></trkpt>
   <trkpt lat="60.656680" lon="28.747746"><ele>8.6</ele></trkpt>
   <trkpt lat="60.652183" lon="28.744691"><ele>1.8</ele></trkpt>
   <trkpt lat="60.648297" lon="28.749359"><ele>2.4</ele></trkpt>
   <trkpt lat="60.645463" lon="28.745831"><ele>9.8</ele></trkpt>
   <trkpt lat="60.641084" lon="28.740463"><ele>5.8</ele></trkpt>
   <trkpt lat="60.637035" lon="28.735949"><ele>2.4</ele></trkpt>
   <trkpt lat="60.633469" lon="28.736507"><ele>13.8</ele></trkpt>
   <trkpt lat="60.630383" lon="28.738956"><ele>13.2</ele></trkpt>
   <trkpt lat="60.625710" lon="28.741894"><ele>11.4</ele></trkpt>
   <trkpt lat="60.621704" lon="28.742312"><ele>7.2</ele></trkpt>
   <trkpt lat="60.617720" lon="28.740421"><ele>6.6</ele></trkpt>
   <trkpt lat="60.614135" lon="28.740560"><ele>9.6</ele></trkpt>
   <trkpt lat="60.610303" lon="28.742009"><ele>10.0</ele></trkpt>
   <trkpt lat="60.607394" lon="28.742861"><ele>9.4</ele></trkpt>
   <trkpt lat="60.604581" lon="28.737548"><ele>13.2</ele></trkpt>
   <trkpt lat="60.601307" lon="28.731531"><ele>10.2</ele></trkpt>
   <trkpt lat="60.598339" lon="28.726546"><ele>17.6</ele></trkpt>
   <trkpt lat="60.595988" lon="28.723361"><ele>26.2</ele></trkpt>
   <trkpt lat="60.592997" lon="28.720307"><ele>21.4</ele></trkpt>
   <trkpt lat="60.587812" lon="28.717302"><ele>4.2</ele></trkpt>
   <trkpt lat="60.583612" lon="28.715350"><ele>5.0</ele></trkpt>
   <trkpt lat="60.580132" lon="28.712689"><ele>6.8</ele></trkpt>
   <trkpt lat="60.576720" lon="28.710636"><ele>12.4</ele></trkpt>
   <trkpt lat="60.573207" lon="28.708588"><ele>18.2</ele></trkpt>
   <trkpt lat="60.569625" lon="28.706492"><ele>16.6</ele></trkpt>
   <trkpt lat="60.565191" lon="28.703873"><ele>13.8</ele></trkpt>
   <trkpt lat="60.562098" lon="28.702101"><ele>16.2</ele></trkpt>
   <trkpt lat="60.560371" lon="28.700860"><ele>22.4</ele></trkpt>
   <trkpt lat="60.561284" lon="28.697718"><ele>19.6</ele></trkpt>
   <trkpt lat="60.556764" lon="28.694779"><ele>10.6</ele></trkpt>
   <trkpt lat="60.551761" lon="28.691596"><ele>7.2</ele></trkpt>
   <trkpt lat="60.547631" lon="28.689536"><ele>3.0</ele></trkpt>
   <trkpt lat="60.544833" lon="28.690566"><ele>11.0</ele></trkpt>
   <trkpt lat="60.541725" lon="28.688949"><ele>16.6</ele></trkpt>
   <trkpt lat="60.537726" lon="28.687584"><ele>9.4</ele></trkpt>
   <trkpt lat="60.536434" lon="28.681624"><ele>8.8</ele></trkpt>
   <trkpt lat="60.534846" lon="28.674175"><ele>7.2</ele></trkpt>
   <trkpt lat="60.532661" lon="28.669377"><ele>5.4</ele></trkpt>
   <trkpt lat="60.531933" lon="28.669171"><ele>6.6</ele></trkpt>
   <trkpt lat="60.531348" lon="28.668683"><ele>6.2</ele></trkpt>
   <trkpt lat="60.530313" lon="28.670272"><ele>7.6</ele></trkpt>
   <trkpt lat="60.528776" lon="28.664203"><ele>1.6</ele></trkpt>
   <trkpt lat="60.529057" lon="28.663536"><ele>0.4</ele></trkpt>
   <trkpt lat="60.529449" lon="28.666789"><ele>2.2</ele></trkpt>
   <trkpt lat="60.530799" lon="28.668933"><ele>5.4</ele></trkpt>
   <trkpt lat="60.530990" lon="28.668821"><ele>7.6</ele></trkpt>
   <trkpt lat="60.529031" lon="28.672830"><ele>8.2</ele></trkpt>
   <trkpt lat="60.527526" lon="28.676417"><ele>10.4</ele></trkpt>
   <trkpt lat="60.525163" lon="28.681125"><ele>12.6</ele></trkpt>
   <trkpt lat="60.523574" lon="28.685625"><ele>26.8</ele></trkpt>
   <trkpt lat="60.520492" lon="28.688487"><ele>21.6</ele></trkpt>
   <trkpt lat="60.517266" lon="28.688419"><ele>18.2</ele></trkpt>
   <trkpt lat="60.514705" lon="28.691993"><ele>19.0</ele></trkpt>
   <trkpt lat="60.511483" lon="28.693299"><ele>19.6</ele></trkpt>
   <trkpt lat="60.508394" lon="28.694780"><ele>19.2</ele></trkpt>
   <trkpt lat="60.505226" lon="28.697631"><ele>22.0</ele></trkpt>
   <trkpt lat="60.501976" lon="28.699218"><ele>15.4</ele></trkpt>
   <trkpt lat="60.499297" lon="28.701705"><ele>24.6</ele></trkpt>
   <trkpt lat="60.495599" lon="28.704162"><ele>21.4</ele></trkpt>
   <trkpt lat="60.490744" lon="28.704335"><ele>10.6</ele></trkpt>
   <trkpt lat="60.485277" lon="28.708538"><ele>11.2</ele></trkpt>
   <trkpt lat="60.481451" lon="28.712425"><ele>12.6</ele></trkpt>
   <trkpt lat="60.478140" lon="28.715337"><ele>15.4</ele></trkpt>
   <trkpt lat="60.474970" lon="28.715534"><ele>15.4</ele></trkpt>
   <trkpt lat="60.472533" lon="28.718690"><ele>23.0</ele></trkpt>
   <trkpt lat="60.469857" lon="28.720023"><ele>31.0</ele></trkpt>
   <trkpt lat="60.466922" lon="28.720128"><ele>32.4</ele></trkpt>
   <trkpt lat="60.462749" lon="28.720728"><ele>34.4</ele></trkpt>
   <trkpt lat="60.458800" lon="28.721187"><ele>35.2</ele></trkpt>
   <trkpt lat="60.453888" lon="28.718024"><ele>20.4</ele></trkpt>
   <trkpt lat="60.448559" lon="28.717360"><ele>11.4</ele></trkpt>
   <trkpt lat="60.445382" lon="28.718099"><ele>9.8</ele></trkpt>
   <trkpt lat="60.440757" lon="28.717987"><ele>9.6</ele></trkpt>
   <trkpt lat="60.436970" lon="28.719580"><ele>13.6</ele></trkpt>
   <trkpt lat="60.433690" lon="28.721795"><ele>13.6</ele></trkpt>
   <trkpt lat="60.430792" lon="28.718050"><ele>9.4</ele></trkpt>
   <trkpt lat="60.427228" lon="28.713470"><ele>5.8</ele></trkpt>
   <trkpt lat="60.424276" lon="28.707500"><ele>12.0</ele></trkpt>
   <trkpt lat="60.421795" lon="28.700691"><ele>11.0</ele></trkpt>
   <trkpt lat="60.420280" lon="28.693487"><ele>16.4</ele></trkpt>
   <trkpt lat="60.419718" lon="28.687370"><ele>36.6</ele></trkpt>
   <trkpt lat="60.418499" lon="28.681004"><ele>43.2</ele></trkpt>
   <trkpt lat="60.416744" lon="28.672002"><ele>42.0</ele></trkpt>
   <trkpt lat="60.414894" lon="28.667059"><ele>49.4</ele></trkpt>
   <trkpt lat="60.412126" lon="28.660017"><ele>41.8</ele></trkpt>
   <trkpt lat="60.408433" lon="28.652340"><ele>37.2</ele></trkpt>
   <trkpt lat="60.404474" lon="28.650424"><ele>42.8</ele></trkpt>
   <trkpt lat="60.400933" lon="28.645461"><ele>44.2</ele></trkpt>
   <trkpt lat="60.397419" lon="28.638953"><ele>45.2</ele></trkpt>
   <trkpt lat="60.392961" lon="28.635841"><ele>42.0</ele></trkpt>
   <trkpt lat="60.387883" lon="28.633904"><ele>39.2</ele></trkpt>
   <trkpt lat="60.383020" lon="28.628958"><ele>36.0</ele></trkpt>
   <trkpt lat="60.377391" lon="28.628661"><ele>25.0</ele></trkpt>
   <trkpt lat="60.376972" lon="28.618320"><ele>21.8</ele></trkpt>
   <trkpt lat="60.374145" lon="28.611362"><ele>16.8</ele></trkpt>
   <trkpt lat="60.371059" lon="28.610857"><ele>13.8</ele></trkpt>
   <trkpt lat="60.367560" lon="28.607281"><ele>10.2</ele></trkpt>
   <trkpt lat="60.365037" lon="28.606197"><ele>11.8</ele></trkpt>
   <trkpt lat="60.364589" lon="28.604971"><ele>9.4</ele></trkpt>
   <trkpt lat="60.364585" lon="28.603659"><ele>-0.8</ele></trkpt>
   <trkpt lat="60.364584" lon="28.603656"><ele>-2.0</ele></trkpt>
   <trkpt lat="60.364567" lon="28.603701"><ele>-9.0</ele></trkpt>
   <trkpt lat="60.364586" lon="28.603659"><ele>-4.4</ele></trkpt>
   <trkpt lat="60.364602" lon="28.603626"><ele>-0.2</ele></trkpt>
   <trkpt lat="60.364633" lon="28.603789"><ele>-2.6</ele></trkpt>
   <trkpt lat="60.364617" lon="28.603789"><ele>-5.2</ele></trkpt>
   <trkpt lat="60.364589" lon="28.604047"><ele>1.6</ele></trkpt>
   <trkpt lat="60.364570" lon="28.604023"><ele>-2.6</ele></trkpt>
   <trkpt lat="60.364572" lon="28.604021"><ele>0.6</ele></trkpt>
   <trkpt lat="60.364581" lon="28.604045"><ele>4.4</ele></trkpt>
   <trkpt lat="60.364583" lon="28.604055"><ele>-1.2</ele></trkpt>
   <trkpt lat="60.364591" lon="28.604074"><ele>1.0</ele></trkpt>
   <trkpt lat="60.364322" lon="28.604405"><ele>0.6</ele></trkpt>
   <trkpt lat="60.364466" lon="28.604218"><ele>1.8</ele></trkpt>
   <trkpt lat="60.364643" lon="28.605208"><ele>6.6</ele></trkpt>
   <trkpt lat="60.364869" lon="28.606061"><ele>5.2</ele></trkpt>
   <trkpt lat="60.364400" lon="28.607182"><ele>1.0</ele></trkpt>
   <trkpt lat="60.364600" lon="28.606715"><ele>-5.2</ele></trkpt>
   <trkpt lat="60.362483" lon="28.621929"><ele>-12.0</ele></trkpt>
   <trkpt lat="60.355835" lon="28.639839"><ele>-3.8</ele></trkpt>
   <trkpt lat="60.355844" lon="28.648293"><ele>7.2</ele></trkpt>
   <trkpt lat="60.354455" lon="28.655052"><ele>6.8</ele></trkpt>
   <trkpt lat="60.352711" lon="28.660714"><ele>3.2</ele></trkpt>
   <trkpt lat="60.351138" lon="28.667652"><ele>13.4</ele></trkpt>
   <trkpt lat="60.349852" lon="28.674561"><ele>22.0</ele></trkpt>
   <trkpt lat="60.349142" lon="28.681555"><ele>30.6</ele></trkpt>
   <trkpt lat="60.348372" lon="28.687642"><ele>33.4</ele></trkpt>
   <trkpt lat="60.347682" lon="28.696372"><ele>40.0</ele></trkpt>
   <trkpt lat="60.347572" lon="28.704542"><ele>43.2</ele></trkpt>
   <trkpt lat="60.348417" lon="28.715071"><ele>18.8</ele></trkpt>
   <trkpt lat="60.350468" lon="28.724438"><ele>43.6</ele></trkpt>
   <trkpt lat="60.353467" lon="28.732527"><ele>50.4</ele></trkpt>
   <trkpt lat="60.356281" lon="28.740869"><ele>46.6</ele></trkpt>
   <trkpt lat="60.358049" lon="28.744636"><ele>32.4</ele></trkpt>
   <trkpt lat="60.358615" lon="28.747761"><ele>39.0</ele></trkpt>
   <trkpt lat="60.360062" lon="28.754480"><ele>36.2</ele></trkpt>
   <trkpt lat="60.360669" lon="28.767749"><ele>15.0</ele></trkpt>
   <trkpt lat="60.361404" lon="28.779182"><ele>7.6</ele></trkpt>
   <trkpt lat="60.361588" lon="28.786008"><ele>3.8</ele></trkpt>
   <trkpt lat="60.360673" lon="28.793815"><ele>11.6</ele></trkpt>
   <trkpt lat="60.359858" lon="28.802792"><ele>8.6</ele></trkpt>
   <trkpt lat="60.358570" lon="28.809696"><ele>13.4</ele></trkpt>
   <trkpt lat="60.354728" lon="28.813950"><ele>4.0</ele></trkpt>
   <trkpt lat="60.350433" lon="28.817107"><ele>2.2</ele></trkpt>
   <trkpt lat="60.346438" lon="28.820938"><ele>2.4</ele></trkpt>
   <trkpt lat="60.342301" lon="28.822793"><ele>2.4</ele></trkpt>
   <trkpt lat="60.337888" lon="28.822494"><ele>1.6</ele></trkpt>
   <trkpt lat="60.335333" lon="28.821087"><ele>1.8</ele></trkpt>
   <trkpt lat="60.331949" lon="28.821443"><ele>7.4</ele></trkpt>
   <trkpt lat="60.331602" lon="28.819705"><ele>4.8</ele></trkpt>
   <trkpt lat="60.328297" lon="28.823331"><ele>7.2</ele></trkpt>
   <trkpt lat="60.323985" lon="28.826673"><ele>7.6</ele></trkpt>
   <trkpt lat="60.320394" lon="28.830980"><ele>11.8</ele></trkpt>
   <trkpt lat="60.316518" lon="28.834885"><ele>11.0</ele></trkpt>
   <trkpt lat="60.312836" lon="28.839700"><ele>12.2</ele></trkpt>
   <trkpt lat="60.311248" lon="28.845592"><ele>21.0</ele></trkpt>
   <trkpt lat="60.308739" lon="28.850603"><ele>25.2</ele></trkpt>
   <trkpt lat="60.305306" lon="28.855758"><ele>27.2</ele></trkpt>
   <trkpt lat="60.301527" lon="28.857664"><ele>35.8</ele></trkpt>
   <trkpt lat="60.298865" lon="28.860372"><ele>37.2</ele></trkpt>
   <trkpt lat="60.294480" lon="28.865649"><ele>31.8</ele></trkpt>
   <trkpt lat="60.290511" lon="28.870184"><ele>32.6</ele></trkpt>
   <trkpt lat="60.287310" lon="28.874341"><ele>35.4</ele></trkpt>
   <trkpt lat="60.284064" lon="28.879081"><ele>36.4</ele></trkpt>
   <trkpt lat="60.280847" lon="28.883763"><ele>38.8</ele></trkpt>
   <trkpt lat="60.279512" lon="28.891651"><ele>36.6</ele></trkpt>
   <trkpt lat="60.277639" lon="28.899920"><ele>26.8</ele></trkpt>
   <trkpt lat="60.276953" lon="28.913333"><ele>22.8</ele></trkpt>
   <trkpt lat="60.276810" lon="28.923104"><ele>10.8</ele></trkpt>
   <trkpt lat="60.274723" lon="28.932390"><ele>2.4</ele></trkpt>
   <trkpt lat="60.273467" lon="28.940636"><ele>12.2</ele></trkpt>
   <trkpt lat="60.272958" lon="28.948020"><ele>21.0</ele></trkpt>
   <trkpt lat="60.272776" lon="28.956571"><ele>22.0</ele></trkpt>
   <trkpt lat="60.270497" lon="28.963288"><ele>12.2</ele></trkpt>
   <trkpt lat="60.267265" lon="28.969084"><ele>8.6</ele></trkpt>
   <trkpt lat="60.265132" lon="28.968353"><ele>11.2</ele></trkpt>
   <trkpt lat="60.263060" lon="28.965548"><ele>12.8</ele></trkpt>
   <trkpt lat="60.261426" lon="28.962153"><ele>14.2</ele></trkpt>
   <trkpt lat="60.260335" lon="28.959985"><ele>20.4</ele></trkpt>
   <trkpt lat="60.261946" lon="28.963498"><ele>25.2</ele></trkpt>
   <trkpt lat="60.264082" lon="28.966108"><ele>20.6</ele></trkpt>
   <trkpt lat="60.265372" lon="28.970289"><ele>30.4</ele></trkpt>
   <trkpt lat="60.262930" lon="28.972410"><ele>27.8</ele></trkpt>
   <trkpt lat="60.258857" lon="28.973144"><ele>22.2</ele></trkpt>
   <trkpt lat="60.255536" lon="28.976765"><ele>26.4</ele></trkpt>
   <trkpt lat="60.252435" lon="28.979441"><ele>27.6</ele></trkpt>
   <trkpt lat="60.249455" lon="28.983827"><ele>26.0</ele></trkpt>
   <trkpt lat="60.246790" lon="28.989252"><ele>25.6</ele></trkpt>
   <trkpt lat="60.244394" lon="28.994425"><ele>23.6</ele></trkpt>
   <trkpt lat="60.241398" lon="29.001409"><ele>19.8</ele></trkpt>
   <trkpt lat="60.236687" lon="29.002597"><ele>18.8</ele></trkpt>
   <trkpt lat="60.232274" lon="29.001450"><ele>16.6</ele></trkpt>
   <trkpt lat="60.228276" lon="29.002970"><ele>20.8</ele></trkpt>
   <trkpt lat="60.224467" lon="29.006782"><ele>22.8</ele></trkpt>
   <trkpt lat="60.220557" lon="29.009929"><ele>18.0</ele></trkpt>
   <trkpt lat="60.218046" lon="29.010387"><ele>18.4</ele></trkpt>
   <trkpt lat="60.214750" lon="29.008789"><ele>7.6</ele></trkpt>
   <trkpt lat="60.214907" lon="29.008684"><ele>16.6</ele></trkpt>
   <trkpt lat="60.211427" lon="29.006162"><ele>11.6</ele></trkpt>
   <trkpt lat="60.206695" lon="29.005572"><ele>9.6</ele></trkpt>
   <trkpt lat="60.202144" lon="29.006289"><ele>14.8</ele></trkpt>
   <trkpt lat="60.197735" lon="29.007263"><ele>14.4</ele></trkpt>
   <trkpt lat="60.194088" lon="29.007227"><ele>10.0</ele></trkpt>
   <trkpt lat="60.192118" lon="29.010120"><ele>9.0</ele></trkpt>
   <trkpt lat="60.190591" lon="29.014833"><ele>12.6</ele></trkpt>
   <trkpt lat="60.188199" lon="29.022949"><ele>9.2</ele></trkpt>
   <trkpt lat="60.185314" lon="29.056836"><ele>4.0</ele></trkpt>
   <trkpt lat="60.185520" lon="29.064201"><ele>-1.6</ele></trkpt>
   <trkpt lat="60.182863" lon="29.074728"><ele>-6.2</ele></trkpt>
   <trkpt lat="60.178517" lon="29.086726"><ele>8.2</ele></trkpt>
   <trkpt lat="60.176211" lon="29.095366"><ele>7.0</ele></trkpt>
   <trkpt lat="60.172917" lon="29.102980"><ele>-2.2</ele></trkpt>
   <trkpt lat="60.170802" lon="29.111493"><ele>10.2</ele></trkpt>
   <trkpt lat="60.169862" lon="29.120369"><ele>7.2</ele></trkpt>
   <trkpt lat="60.168963" lon="29.130040"><ele>10.0</ele></trkpt>
   <trkpt lat="60.168620" lon="29.138955"><ele>-0.6</ele></trkpt>
   <trkpt lat="60.167992" lon="29.145958"><ele>17.4</ele></trkpt>
   <trkpt lat="60.165868" lon="29.157220"><ele>4.6</ele></trkpt>
   <trkpt lat="60.164804" lon="29.156701"><ele>-12.6</ele></trkpt>
   <trkpt lat="60.163229" lon="29.154814"><ele>-4.8</ele></trkpt>
   <trkpt lat="60.163454" lon="29.153257"><ele>-11.0</ele></trkpt>
   <trkpt lat="60.164152" lon="29.150773"><ele>-6.6</ele></trkpt>
   <trkpt lat="60.163367" lon="29.148715"><ele>-6.2</ele></trkpt>
   <trkpt lat="60.162208" lon="29.148972"><ele>-7.6</ele></trkpt>
   <trkpt lat="60.161416" lon="29.148105"><ele>-10.0</ele></trkpt>
   <trkpt lat="60.161481" lon="29.148057"><ele>0.2</ele></trkpt>
   <trkpt lat="60.162274" lon="29.148991"><ele>2.4</ele></trkpt>
   <trkpt lat="60.162750" lon="29.149258"><ele>2.0</ele></trkpt>
   <trkpt lat="60.163712" lon="29.148872"><ele>4.2</ele></trkpt>
   <trkpt lat="60.164399" lon="29.151515"><ele>7.2</ele></trkpt>
   <trkpt lat="60.164851" lon="29.154305"><ele>8.2</ele></trkpt>
   <trkpt lat="60.165428" lon="29.156746"><ele>8.2</ele></trkpt>
   <trkpt lat="60.165903" lon="29.162173"><ele>4.2</ele></trkpt>
   <trkpt lat="60.167334" lon="29.170041"><ele>11.0</ele></trkpt>
   <trkpt lat="60.167684" lon="29.178615"><ele>14.0</ele></trkpt>
   <trkpt lat="60.168395" lon="29.184970"><ele>23.2</ele></trkpt>
   <trkpt lat="60.169357" lon="29.188803"><ele>39.0</ele></trkpt>
   <trkpt lat="60.169598" lon="29.194429"><ele>40.4</ele></trkpt>
   <trkpt lat="60.169319" lon="29.202926"><ele>42.0</ele></trkpt>
   <trkpt lat="60.168816" lon="29.211682"><ele>44.2</ele></trkpt>
   <trkpt lat="60.168226" lon="29.219488"><ele>45.4</ele></trkpt>
   <trkpt lat="60.167960" lon="29.228977"><ele>42.4</ele></trkpt>
   <trkpt lat="60.168017" lon="29.238925"><ele>40.0</ele></trkpt>
   <trkpt lat="60.167212" lon="29.248385"><ele>40.2</ele></trkpt>
   <trkpt lat="60.167529" lon="29.257407"><ele>39.8</ele></trkpt>
   <trkpt lat="60.168017" lon="29.263454"><ele>46.4</ele></trkpt>
   <trkpt lat="60.168920" lon="29.268108"><ele>56.6</ele></trkpt>
   <trkpt lat="60.169996" lon="29.275270"><ele>60.0</ele></trkpt>
   <trkpt lat="60.171365" lon="29.282538"><ele>65.8</ele></trkpt>
   <trkpt lat="60.172696" lon="29.287907"><ele>73.6</ele></trkpt>
   <trkpt lat="60.172229" lon="29.292570"><ele>73.8</ele></trkpt>
   <trkpt lat="60.172112" lon="29.299314"><ele>68.2</ele></trkpt>
   <trkpt lat="60.171624" lon="29.309797"><ele>66.6</ele></trkpt>
   <trkpt lat="60.172052" lon="29.321144"><ele>60.0</ele></trkpt>
   <trkpt lat="60.171907" lon="29.333537"><ele>55.2</ele></trkpt>
   <trkpt lat="60.171125" lon="29.344369"><ele>52.8</ele></trkpt>
   <trkpt lat="60.170692" lon="29.354495"><ele>54.8</ele></trkpt>
   <trkpt lat="60.169931" lon="29.363999"><ele>54.2</ele></trkpt>
   <trkpt lat="60.171273" lon="29.374842"><ele>47.0</ele></trkpt>
   <trkpt lat="60.170379" lon="29.386103"><ele>41.4</ele></trkpt>
   <trkpt lat="60.168857" lon="29.397654"><ele>34.2</ele></trkpt>
   <trkpt lat="60.166805" lon="29.408439"><ele>27.4</ele></trkpt>
   <trkpt lat="60.168411" lon="29.422696"><ele>7.0</ele></trkpt>
   <trkpt lat="60.171495" lon="29.431727"><ele>10.0</ele></trkpt>
   <trkpt lat="60.175191" lon="29.440201"><ele>6.4</ele></trkpt>
   <trkpt lat="60.178219" lon="29.447180"><ele>11.0</ele></trkpt>
   <trkpt lat="60.180463" lon="29.453966"><ele>11.6</ele></trkpt>
   <trkpt lat="60.179870" lon="29.464669"><ele>10.0</ele></trkpt>
   <trkpt lat="60.179980" lon="29.474730"><ele>9.0</ele></trkpt>
   <trkpt lat="60.180469" lon="29.483718"><ele>10.4</ele></trkpt>
   <trkpt lat="60.180720" lon="29.493565"><ele>13.0</ele></trkpt>
   <trkpt lat="60.182646" lon="29.503426"><ele>10.0</ele></trkpt>
   <trkpt lat="60.186934" lon="29.510030"><ele>10.8</ele></trkpt>
   <trkpt lat="60.191363" lon="29.516416"><ele>9.6</ele></trkpt>
   <trkpt lat="60.194685" lon="29.524175"><ele>5.4</ele></trkpt>
   <trkpt lat="60.196025" lon="29.532278"><ele>11.2</ele></trkpt>
   <trkpt lat="60.196627" lon="29.540018"><ele>7.0</ele></trkpt>
   <trkpt lat="60.198397" lon="29.546547"><ele>11.6</ele></trkpt>
   <trkpt lat="60.197997" lon="29.554163"><ele>14.2</ele></trkpt>
   <trkpt lat="60.196119" lon="29.562578"><ele>1.6</ele></trkpt>
   <trkpt lat="60.198148" lon="29.569875"><ele>5.2</ele></trkpt>
   <trkpt lat="60.198418" lon="29.578322"><ele>5.0</ele></trkpt>
   <trkpt lat="60.198125" lon="29.586436"><ele>6.2</ele></trkpt>
   <trkpt lat="60.198117" lon="29.595199"><ele>9.6</ele></trkpt>
   <trkpt lat="60.197344" lon="29.603819"><ele>1.6</ele></trkpt>
   <trkpt lat="60.196896" lon="29.607333"><ele>3.0</ele></trkpt>
   <trkpt lat="60.195648" lon="29.615074"><ele>-2.8</ele></trkpt>
   <trkpt lat="60.194656" lon="29.623098"><ele>-10.2</ele></trkpt>
   <trkpt lat="60.193128" lon="29.630999"><ele>6.2</ele></trkpt>
   <trkpt lat="60.192095" lon="29.639066"><ele>-0.6</ele></trkpt>
   <trkpt lat="60.191305" lon="29.647856"><ele>-1.6</ele></trkpt>
   <trkpt lat="60.191950" lon="29.656308"><ele>5.8</ele></trkpt>
   <trkpt lat="60.193318" lon="29.664645"><ele>9.8</ele></trkpt>
   <trkpt lat="60.193308" lon="29.672875"><ele>10.2</ele></trkpt>
   <trkpt lat="60.192483" lon="29.682014"><ele>7.4</ele></trkpt>
   <trkpt lat="60.192529" lon="29.690203"><ele>7.4</ele></trkpt>
   <trkpt lat="60.192050" lon="29.696335"><ele>6.8</ele></trkpt>
   <trkpt lat="60.189160" lon="29.695340"><ele>-5.8</ele></trkpt>
   <trkpt lat="60.188670" lon="29.698618"><ele>1.2</ele></trkpt>
   <trkpt lat="60.187924" lon="29.700197"><ele>5.4</ele></trkpt>
   <trkpt lat="60.187795" lon="29.700570"><ele>0.6</ele></trkpt>
   <trkpt lat="60.186656" lon="29.698952"><ele>-13.8</ele></trkpt>
   <trkpt lat="60.187799" lon="29.701603"><ele>7.0</ele></trkpt>
   <trkpt lat="60.187990" lon="29.705735"><ele>3.0</ele></trkpt>
   <trkpt lat="60.190711" lon="29.707569"><ele>14.2</ele></trkpt>
   <trkpt lat="60.191174" lon="29.713996"><ele>11.8</ele></trkpt>
   <trkpt lat="60.189990" lon="29.722135"><ele>10.6</ele></trkpt>
   <trkpt lat="60.189405" lon="29.729988"><ele>10.2</ele></trkpt>
   <trkpt lat="60.188637" lon="29.738517"><ele>11.8</ele></trkpt>
   <trkpt lat="60.187199" lon="29.746793"><ele>13.2</ele></trkpt>
   <trkpt lat="60.185492" lon="29.754509"><ele>6.8</ele></trkpt>
   <trkpt lat="60.182804" lon="29.761173"><ele>7.0</ele></trkpt>
   <trkpt lat="60.181233" lon="29.768475"><ele>7.6</ele></trkpt>
   <trkpt lat="60.180172" lon="29.776441"><ele>4.4</ele></trkpt>
   <trkpt lat="60.178357" lon="29.783309"><ele>4.6</ele></trkpt>
   <trkpt lat="60.177078" lon="29.791862"><ele>4.2</ele></trkpt>
   <trkpt lat="60.175613" lon="29.798676"><ele>5.8</ele></trkpt>
   <trkpt lat="60.173369" lon="29.803832"><ele>3.0</ele></trkpt>
   <trkpt lat="60.171411" lon="29.812083"><ele>3.4</ele></trkpt>
   <trkpt lat="60.169618" lon="29.817656"><ele>5.0</ele></trkpt>
   <trkpt lat="60.167608" lon="29.825429"><ele>6.4</ele></trkpt>
   <trkpt lat="60.166756" lon="29.831514"><ele>3.8</ele></trkpt>
   <trkpt lat="60.164464" lon="29.838732"><ele>4.8</ele></trkpt>
   <trkpt lat="60.162854" lon="29.845239"><ele>6.2</ele></trkpt>
   <trkpt lat="60.162823" lon="29.852807"><ele>7.0</ele></trkpt>
   <trkpt lat="60.164671" lon="29.860940"><ele>6.2</ele></trkpt>
   <trkpt lat="60.166276" lon="29.866585"><ele>11.2</ele></trkpt>
   <trkpt lat="60.163589" lon="29.874045"><ele>9.4</ele></trkpt>
   <trkpt lat="60.160755" lon="29.881456"><ele>8.2</ele></trkpt>
   <trkpt lat="60.158435" lon="29.888229"><ele>7.2</ele></trkpt>
   <trkpt lat="60.155647" lon="29.894483"><ele>9.0</ele></trkpt>
   <trkpt lat="60.154074" lon="29.903019"><ele>7.4</ele></trkpt>
   <trkpt lat="60.152176" lon="29.911559"><ele>10.8</ele></trkpt>
   <trkpt lat="60.150572" lon="29.918554"><ele>12.2</ele></trkpt>
   <trkpt lat="60.150069" lon="29.926612"><ele>14.6</ele></trkpt>
   <trkpt lat="60.148455" lon="29.933873"><ele>13.6</ele></trkpt>
   <trkpt lat="60.146519" lon="29.936380"><ele>17.6</ele></trkpt>
   <trkpt lat="60.144086" lon="29.932765"><ele>11.8</ele></trkpt>
   <trkpt lat="60.142305" lon="29.932064"><ele>5.6</ele></trkpt>
   <trkpt lat="60.139945" lon="29.933515"><ele>9.2</ele></trkpt>
   <trkpt lat="60.138189" lon="29.933009"><ele>3.2</ele></trkpt>
   <trkpt lat="60.137622" lon="29.933795"><ele>3.8</ele></trkpt>
   <trkpt lat="60.136389" lon="29.934071"><ele>4.4</ele></trkpt>
   <trkpt lat="60.135545" lon="29.934928"><ele>6.8</ele></trkpt>
   <trkpt lat="60.135307" lon="29.936564"><ele>5.2</ele></trkpt>
   <trkpt lat="60.135638" lon="29.940813"><ele>12.0</ele></trkpt>
   <trkpt lat="60.134777" lon="29.942055"><ele>5.4</ele></trkpt>
   <trkpt lat="60.133866" lon="29.944526"><ele>9.6</ele></trkpt>
   <trkpt lat="60.131663" lon="29.947128"><ele>7.6</ele></trkpt>
   <trkpt lat="60.129304" lon="29.951146"><ele>10.6</ele></trkpt>
   <trkpt lat="60.128219" lon="29.947008"><ele>4.2</ele></trkpt>
   <trkpt lat="60.127220" lon="29.942712"><ele>1.6</ele></trkpt>
   <trkpt lat="60.127508" lon="29.940885"><ele>6.2</ele></trkpt>
   <trkpt lat="60.126872" lon="29.939456"><ele>1.6</ele></trkpt>
   <trkpt lat="60.125882" lon="29.939288"><ele>-0.4</ele></trkpt>
   <trkpt lat="60.123619" lon="29.940699"><ele>0.2</ele></trkpt>
   <trkpt lat="60.123672" lon="29.941944"><ele>6.8</ele></trkpt>
   <trkpt lat="60.124089" lon="29.946534"><ele>14.6</ele></trkpt>
   <trkpt lat="60.124153" lon="29.948505"><ele>9.4</ele></trkpt>
   <trkpt lat="60.122537" lon="29.952849"><ele>11.4</ele></trkpt>
   <trkpt lat="60.122316" lon="29.957890"><ele>14.4</ele></trkpt>
   <trkpt lat="60.122164" lon="29.966888"><ele>12.6</ele></trkpt>
   <trkpt lat="60.120034" lon="29.971880"><ele>10.2</ele></trkpt>
   <trkpt lat="60.116261" lon="29.968068"><ele>16.2</ele></trkpt>
   <trkpt lat="60.113058" lon="29.969594"><ele>19.6</ele></trkpt>
   <trkpt lat="60.108163" lon="29.972147"><ele>12.6</ele></trkpt>
   <trkpt lat="60.103554" lon="29.974096"><ele>13.8</ele></trkpt>
   <trkpt lat="60.098700" lon="29.973183"><ele>11.2</ele></trkpt>
   <trkpt lat="60.094807" lon="29.972115"><ele>13.2</ele></trkpt>
   <trkpt lat="60.091669" lon="29.974624"><ele>11.0</ele></trkpt>
   <trkpt lat="60.088910" lon="29.969007"><ele>16.6</ele></trkpt>
   <trkpt lat="60.087316" lon="29.962372"><ele>18.6</ele></trkpt>
   <trkpt lat="60.085818" lon="29.955230"><ele>5.0</ele></trkpt>
   <trkpt lat="60.083166" lon="29.957371"><ele>4.4</ele></trkpt>
   <trkpt lat="60.079428" lon="29.960963"><ele>2.6</ele></trkpt>
   <trkpt lat="60.075658" lon="29.964495"><ele>3.2</ele></trkpt>
   <trkpt lat="60.072190" lon="29.967779"><ele>5.8</ele></trkpt>
   <trkpt lat="60.068604" lon="29.970064"><ele>8.0</ele></trkpt>
   <trkpt lat="60.064311" lon="29.971246"><ele>7.6</ele></trkpt>
   <trkpt lat="60.059860" lon="29.973710"><ele>7.8</ele></trkpt>
   <trkpt lat="60.057398" lon="29.975619"><ele>6.2</ele></trkpt>
   <trkpt lat="60.055465" lon="29.974578"><ele>8.8</ele></trkpt>
   <trkpt lat="60.052782" lon="29.974970"><ele>10.0</ele></trkpt>
   <trkpt lat="60.050113" lon="29.973854"><ele>7.2</ele></trkpt>
   <trkpt lat="60.047009" lon="29.972381"><ele>7.4</ele></trkpt>
   <trkpt lat="60.043323" lon="29.972009"><ele>5.4</ele></trkpt>
   <trkpt lat="60.042803" lon="29.973066"><ele>4.2</ele></trkpt>
   <trkpt lat="60.038826" lon="29.975073"><ele>4.4</ele></trkpt>
   <trkpt lat="60.035367" lon="29.976386"><ele>4.6</ele></trkpt>
   <trkpt lat="60.033462" lon="29.981140"><ele>6.4</ele></trkpt>
   <trkpt lat="60.031731" lon="29.987442"><ele>8.6</ele></trkpt>
   <trkpt lat="60.028194" lon="29.991604"><ele>6.0</ele></trkpt>
   <trkpt lat="60.024663" lon="29.995604"><ele>7.0</ele></trkpt>
   <trkpt lat="60.021402" lon="30.000888"><ele>9.2</ele></trkpt>
   <trkpt lat="60.018083" lon="30.006198"><ele>9.4</ele></trkpt>
   <trkpt lat="60.015026" lon="30.010290"><ele>11.4</ele></trkpt>
   <trkpt lat="60.011695" lon="30.014554"><ele>11.2</ele></trkpt>
   <trkpt lat="60.010173" lon="30.023217"><ele>10.6</ele></trkpt>
   <trkpt lat="60.007839" lon="30.032471"><ele>9.2</ele></trkpt>
   <trkpt lat="60.006090" lon="30.042639"><ele>10.2</ele></trkpt>
   <trkpt lat="60.004355" lon="30.053587"><ele>10.2</ele></trkpt>
   <trkpt lat="60.002959" lon="30.063891"><ele>10.2</ele></trkpt>
   <trkpt lat="60.001732" lon="30.074154"><ele>10.2</ele></trkpt>
   <trkpt lat="59.999761" lon="30.083693"><ele>9.0</ele></trkpt>
   <trkpt lat="59.997876" lon="30.093508"><ele>11.2</ele></trkpt>
   <trkpt lat="59.997450" lon="30.104004"><ele>10.4</ele></trkpt>
   <trkpt lat="59.996706" lon="30.113040"><ele>12.2</ele></trkpt>
   <trkpt lat="59.995016" lon="30.122241"><ele>12.2</ele></trkpt>
   <trkpt lat="59.994659" lon="30.131238"><ele>11.2</ele></trkpt>
   <trkpt lat="59.993687" lon="30.140288"><ele>7.8</ele></trkpt>
   <trkpt lat="59.992199" lon="30.149482"><ele>6.4</ele></trkpt>
   <trkpt lat="59.991121" lon="30.159030"><ele>5.8</ele></trkpt>
   <trkpt lat="59.990228" lon="30.166589"><ele>5.2</ele></trkpt>
   <trkpt lat="59.989489" lon="30.167114"><ele>5.8</ele></trkpt>
   <trkpt lat="59.987478" lon="30.167953"><ele>5.8</ele></trkpt>
   <trkpt lat="59.987312" lon="30.167968"><ele>5.0</ele></trkpt>
   <trkpt lat="59.988389" lon="30.172662"><ele>4.2</ele></trkpt>
   <trkpt lat="59.986052" lon="30.173450"><ele>4.2</ele></trkpt>
   <trkpt lat="59.985771" lon="30.180319"><ele>4.0</ele></trkpt>
   <trkpt lat="59.988505" lon="30.181863"><ele>7.0</ele></trkpt>
   <trkpt lat="59.989163" lon="30.185522"><ele>7.8</ele></trkpt>
   <trkpt lat="59.988715" lon="30.190198"><ele>5.2</ele></trkpt>
   <trkpt lat="59.985568" lon="30.192962"><ele>5.0</ele></trkpt>
   <trkpt lat="59.983097" lon="30.193868"><ele>4.8</ele></trkpt>
   <trkpt lat="59.981777" lon="30.197971"><ele>6.2</ele></trkpt>
   <trkpt lat="59.981158" lon="30.202029"><ele>5.4</ele></trkpt>
   <trkpt lat="59.979910" lon="30.206882"><ele>2.8</ele></trkpt>
   <trkpt lat="59.980201" lon="30.211320"><ele>3.6</ele></trkpt>
   <trkpt lat="59.980333" lon="30.212074"><ele>11.0</ele></trkpt>
   <trkpt lat="59.978313" lon="30.213143"><ele>14.0</ele></trkpt>
   <trkpt lat="59.975330" lon="30.218389"><ele>1.4</ele></trkpt>
   <trkpt lat="59.975571" lon="30.226017"><ele>4.8</ele></trkpt>
   <trkpt lat="59.975224" lon="30.234101"><ele>4.0</ele></trkpt>
   <trkpt lat="59.974847" lon="30.242515"><ele>4.4</ele></trkpt>
   <trkpt lat="59.973911" lon="30.247046"><ele>2.6</ele></trkpt>
   <trkpt lat="59.972632" lon="30.243292"><ele>2.2</ele></trkpt>
   <trkpt lat="59.971783" lon="30.243882"><ele>5.0</ele></trkpt>
   <trkpt lat="59.971048" lon="30.247146"><ele>3.0</ele></trkpt>
   <trkpt lat="59.970150" lon="30.249306"><ele>4.2</ele></trkpt>
   <trkpt lat="59.971186" lon="30.250139"><ele>5.0</ele></trkpt>
   <trkpt lat="59.971497" lon="30.255730"><ele>6.4</ele></trkpt>
   <trkpt lat="59.971088" lon="30.261719"><ele>3.2</ele></trkpt>
   <trkpt lat="59.970776" lon="30.270125"><ele>5.2</ele></trkpt>
   <trkpt lat="59.969506" lon="30.275829"><ele>4.2</ele></trkpt>
   <trkpt lat="59.967046" lon="30.280330"><ele>10.0</ele></trkpt>
   <trkpt lat="59.964475" lon="30.285564"><ele>8.0</ele></trkpt>
   <trkpt lat="59.962481" lon="30.289862"><ele>5.2</ele></trkpt>
   <trkpt lat="59.960818" lon="30.293713"><ele>7.0</ele></trkpt>
   <trkpt lat="59.959423" lon="30.298501"><ele>9.0</ele></trkpt>
   <trkpt lat="59.957822" lon="30.299284"><ele>7.2</ele></trkpt>
   <trkpt lat="59.956288" lon="30.302972"><ele>6.6</ele></trkpt>
   <trkpt lat="59.954881" lon="30.307806"><ele>4.8</ele></trkpt>
   <trkpt lat="59.952968" lon="30.306933"><ele>6.4</ele></trkpt>
   <trkpt lat="59.950733" lon="30.306783"><ele>2.2</ele></trkpt>
   <trkpt lat="59.949513" lon="30.306640"><ele>1.8</ele></trkpt>
   <trkpt lat="59.947980" lon="30.304784"><ele>2.8</ele></trkpt>
   <trkpt lat="59.945431" lon="30.303530"><ele>4.8</ele></trkpt>
   <trkpt lat="59.943085" lon="30.306542"><ele>3.8</ele></trkpt>
   <trkpt lat="59.941500" lon="30.307926"><ele>6.2</ele></trkpt>
   <trkpt lat="59.940315" lon="30.309674"><ele>2.8</ele></trkpt>
   <trkpt lat="59.939293" lon="30.313085"><ele>3.2</ele></trkpt>
   <trkpt lat="59.939975" lon="30.318227"><ele>2.6</ele></trkpt>
   <trkpt lat="59.941783" lon="30.323446"><ele>5.0</ele></trkpt>
   <trkpt lat="59.940581" lon="30.329685"><ele>1.6</ele></trkpt>
   <trkpt lat="59.941313" lon="30.335690"><ele>2.8</ele></trkpt>
   <trkpt lat="59.940237" lon="30.341320"><ele>7.2</ele></trkpt>
   <trkpt lat="59.938389" lon="30.345867"><ele>3.4</ele></trkpt>
   <trkpt lat="59.936030" lon="30.348570"><ele>7.4</ele></trkpt>
   <trkpt lat="59.935925" lon="30.354857"><ele>17.6</ele></trkpt>
   <trkpt lat="59.935678" lon="30.360262"><ele>16.6</ele></trkpt>
   <trkpt lat="59.935856" lon="30.363522"><ele>9.8</ele></trkpt>
   <trkpt lat="59.935853" lon="30.362096"><ele>12.8</ele></trkpt>
   <trkpt lat="59.933925" lon="30.360196"><ele>13.4</ele></trkpt>
   <trkpt lat="59.931826" lon="30.361140"><ele>15.2</ele></trkpt>
   <trkpt lat="59.930517" lon="30.363103"><ele>15.0</ele></trkpt>
   <trkpt lat="59.930235" lon="30.361806"><ele>11.4</ele></trkpt>
  </trkseg>
 </trk>
</gpx>
