<?xml version="1.0" encoding="UTF-8"?>
<gpx version="1.1" creator="bike-reports.velotrips" xmlns="http://www.opengis.net/gpx/1.1">
  <trk>
    <name>День 1 (сегмент 1)</name>
    <trkseg>
      <trkpt lat="48.21959" lon="16.40341"></trkpt>
      <trkpt lat="48.21964" lon="16.40519"></trkpt>
      <trkpt lat="48.21806" lon="16.40326"></trkpt>
      <trkpt lat="48.21887" lon="16.39878"></trkpt>
      <trkpt lat="48.21953" lon="16.39698"></trkpt>
      <trkpt lat="48.21836" lon="16.39708"></trkpt>
      <trkpt lat="48.22143" lon="16.39719"></trkpt>
      <trkpt lat="48.22366" lon="16.40135"></trkpt>
      <trkpt lat="48.22507" lon="16.40334"></trkpt>
      <trkpt lat="48.22672" lon="16.40597"></trkpt>
      <trkpt lat="48.22874" lon="16.40854"></trkpt>
      <trkpt lat="48.23082" lon="16.40593"></trkpt>
      <trkpt lat="48.23386" lon="16.40148"></trkpt>
      <trkpt lat="48.23915" lon="16.39659"></trkpt>
      <trkpt lat="48.24365" lon="16.39111"></trkpt>
      <trkpt lat="48.24892" lon="16.38833"></trkpt>
      <trkpt lat="48.25402" lon="16.38132"></trkpt>
      <trkpt lat="48.26206" lon="16.37385"></trkpt>
      <trkpt lat="48.26989" lon="16.36938"></trkpt>
      <trkpt lat="48.27735" lon="16.36227"></trkpt>
      <trkpt lat="48.28505" lon="16.35542"></trkpt>
      <trkpt lat="48.29476" lon="16.34866"></trkpt>
      <trkpt lat="48.29885" lon="16.34943"></trkpt>
      <trkpt lat="48.30039" lon="16.34816"></trkpt>
      <trkpt lat="48.30086" lon="16.35051"></trkpt>
      <trkpt lat="48.30417" lon="16.34794"></trkpt>
      <trkpt lat="48.30783" lon="16.34556"></trkpt>
      <trkpt lat="48.3139" lon="16.34631"></trkpt>
      <trkpt lat="48.31571" lon="16.34809"></trkpt>
      <trkpt lat="48.3182" lon="16.34743"></trkpt>
      <trkpt lat="48.32324" lon="16.34285"></trkpt>
      <trkpt lat="48.32866" lon="16.34099"></trkpt>
      <trkpt lat="48.32836" lon="16.33569"></trkpt>
      <trkpt lat="48.33089" lon="16.33182"></trkpt>
      <trkpt lat="48.3357" lon="16.32743"></trkpt>
      <trkpt lat="48.33999" lon="16.32225"></trkpt>
      <trkpt lat="48.34311" lon="16.32051"></trkpt>
      <trkpt lat="48.34366" lon="16.31454"></trkpt>
      <trkpt lat="48.34494" lon="16.3108"></trkpt>
      <trkpt lat="48.34476" lon="16.30651"></trkpt>
      <trkpt lat="48.34779" lon="16.29865"></trkpt>
      <trkpt lat="48.35233" lon="16.28781"></trkpt>
      <trkpt lat="48.35433" lon="16.27403"></trkpt>
      <trkpt lat="48.35511" lon="16.26005"></trkpt>
      <trkpt lat="48.35656" lon="16.24662"></trkpt>
      <trkpt lat="48.35916" lon="16.24086"></trkpt>
      <trkpt lat="48.3604" lon="16.23594"></trkpt>
      <trkpt lat="48.36883" lon="16.23433"></trkpt>
      <trkpt lat="48.37363" lon="16.23595"></trkpt>
      <trkpt lat="48.37702" lon="16.23557"></trkpt>
      <trkpt lat="48.37342" lon="16.23608"></trkpt>
      <trkpt lat="48.36696" lon="16.23483"></trkpt>
      <trkpt lat="48.36002" lon="16.23611"></trkpt>
      <trkpt lat="48.35729" lon="16.2386"></trkpt>
      <trkpt lat="48.35446" lon="16.22981"></trkpt>
      <trkpt lat="48.35183" lon="16.2144"></trkpt>
      <trkpt lat="48.34936" lon="16.20112"></trkpt>
      <trkpt lat="48.3477" lon="16.19439"></trkpt>
      <trkpt lat="48.34471" lon="16.18077"></trkpt>
      <trkpt lat="48.34141" lon="16.16624"></trkpt>
      <trkpt lat="48.33995" lon="16.15348"></trkpt>
      <trkpt lat="48.33858" lon="16.14057"></trkpt>
      <trkpt lat="48.33814" lon="16.13491"></trkpt>
      <trkpt lat="48.33696" lon="16.12148"></trkpt>
      <trkpt lat="48.33577" lon="16.10592"></trkpt>
      <trkpt lat="48.33626" lon="16.09139"></trkpt>
      <trkpt lat="48.33816" lon="16.07757"></trkpt>
      <trkpt lat="48.33751" lon="16.06624"></trkpt>
      <trkpt lat="48.34002" lon="16.06159"></trkpt>
      <trkpt lat="48.33858" lon="16.05915"></trkpt>
      <trkpt lat="48.33347" lon="16.05896"></trkpt>
      <trkpt lat="48.33178" lon="16.05776"></trkpt>
      <trkpt lat="48.33103" lon="16.05323"></trkpt>
      <trkpt lat="48.33113" lon="16.05034"></trkpt>
      <trkpt lat="48.33103" lon="16.05021"></trkpt>
      <trkpt lat="48.33338" lon="16.04832"></trkpt>
      <trkpt lat="48.33362" lon="16.04805"></trkpt>
      <trkpt lat="48.33354" lon="16.04792"></trkpt>
      <trkpt lat="48.33401" lon="16.04799"></trkpt>
      <trkpt lat="48.33365" lon="16.04797"></trkpt>
      <trkpt lat="48.33381" lon="16.04793"></trkpt>
      <trkpt lat="48.33337" lon="16.0483"></trkpt>
      <trkpt lat="48.33345" lon="16.03915"></trkpt>
      <trkpt lat="48.32983" lon="16.03002"></trkpt>
      <trkpt lat="48.3281" lon="16.02896"></trkpt>
      <trkpt lat="48.33333" lon="16.0275"></trkpt>
      <trkpt lat="48.33537" lon="16.01612"></trkpt>
      <trkpt lat="48.34052" lon="16.00209"></trkpt>
      <trkpt lat="48.33959" lon="15.9856"></trkpt>
      <trkpt lat="48.33874" lon="15.97191"></trkpt>
      <trkpt lat="48.3383" lon="15.95975"></trkpt>
      <trkpt lat="48.33824" lon="15.95726"></trkpt>
      <trkpt lat="48.33869" lon="15.97072"></trkpt>
      <trkpt lat="48.33813" lon="15.96916"></trkpt>
      <trkpt lat="48.33569" lon="15.968"></trkpt>
      <trkpt lat="48.33256" lon="15.96986"></trkpt>
      <trkpt lat="48.33143" lon="15.97382"></trkpt>
      <trkpt lat="48.32861" lon="15.97168"></trkpt>
      <trkpt lat="48.32689" lon="15.96622"></trkpt>
      <trkpt lat="48.3286" lon="15.95533"></trkpt>
      <trkpt lat="48.33066" lon="15.94695"></trkpt>
      <trkpt lat="48.33572" lon="15.94038"></trkpt>
      <trkpt lat="48.33866" lon="15.93978"></trkpt>
      <trkpt lat="48.34124" lon="15.93029"></trkpt>
      <trkpt lat="48.34367" lon="15.9249"></trkpt>
      <trkpt lat="48.34542" lon="15.92324"></trkpt>
      <trkpt lat="48.34675" lon="15.91578"></trkpt>
      <trkpt lat="48.34754" lon="15.91044"></trkpt>
      <trkpt lat="48.34941" lon="15.90454"></trkpt>
      <trkpt lat="48.34689" lon="15.90768"></trkpt>
      <trkpt lat="48.34285" lon="15.91049"></trkpt>
      <trkpt lat="48.34198" lon="15.91908"></trkpt>
      <trkpt lat="48.34272" lon="15.91128"></trkpt>
      <trkpt lat="48.34659" lon="15.9084"></trkpt>
      <trkpt lat="48.35082" lon="15.89956"></trkpt>
      <trkpt lat="48.35359" lon="15.88973"></trkpt>
      <trkpt lat="48.35734" lon="15.88315"></trkpt>
      <trkpt lat="48.36083" lon="15.87967"></trkpt>
      <trkpt lat="48.36292" lon="15.8734"></trkpt>
      <trkpt lat="48.36428" lon="15.87504"></trkpt>
      <trkpt lat="48.36636" lon="15.87545"></trkpt>
      <trkpt lat="48.37165" lon="15.86552"></trkpt>
      <trkpt lat="48.36908" lon="15.85525"></trkpt>
      <trkpt lat="48.37154" lon="15.85454"></trkpt>
      <trkpt lat="48.37791" lon="15.8584"></trkpt>
      <trkpt lat="48.38123" lon="15.84752"></trkpt>
      <trkpt lat="48.38268" lon="15.83383"></trkpt>
      <trkpt lat="48.38132" lon="15.81648"></trkpt>
      <trkpt lat="48.38306" lon="15.80155"></trkpt>
      <trkpt lat="48.38225" lon="15.78813"></trkpt>
      <trkpt lat="48.37738" lon="15.77443"></trkpt>
      <trkpt lat="48.37436" lon="15.75988"></trkpt>
      <trkpt lat="48.37356" lon="15.7451"></trkpt>
      <trkpt lat="48.37968" lon="15.7347"></trkpt>
      <trkpt lat="48.38605" lon="15.72234"></trkpt>
      <trkpt lat="48.38998" lon="15.70913"></trkpt>
      <trkpt lat="48.38975" lon="15.69788"></trkpt>
      <trkpt lat="48.38956" lon="15.69177"></trkpt>
      <trkpt lat="48.39326" lon="15.68925"></trkpt>
      <trkpt lat="48.39403" lon="15.679"></trkpt>
      <trkpt lat="48.39677" lon="15.66998"></trkpt>
      <trkpt lat="48.39972" lon="15.66026"></trkpt>
      <trkpt lat="48.40348" lon="15.65474"></trkpt>
      <trkpt lat="48.40779" lon="15.6442"></trkpt>
      <trkpt lat="48.40993" lon="15.63631"></trkpt>
      <trkpt lat="48.41008" lon="15.62771"></trkpt>
      <trkpt lat="48.41036" lon="15.61686"></trkpt>
      <trkpt lat="48.41028" lon="15.60939"></trkpt>
      <trkpt lat="48.41238" lon="15.60527"></trkpt>
      <trkpt lat="48.41159" lon="15.60235"></trkpt>
      <trkpt lat="48.41129" lon="15.60065"></trkpt>
    </trkseg>
  </trk>
  <trk>
    <name>День 1 (сегмент 2)</name>
    <trkseg>
      <trkpt lat="48.41114" lon="15.60047"></trkpt>
      <trkpt lat="48.41138" lon="15.60008"></trkpt>
      <trkpt lat="48.41127" lon="15.60013"></trkpt>
      <trkpt lat="48.41119" lon="15.60004"></trkpt>
      <trkpt lat="48.41116" lon="15.59987"></trkpt>
      <trkpt lat="48.41102" lon="15.59955"></trkpt>
      <trkpt lat="48.41082" lon="15.59902"></trkpt>
      <trkpt lat="48.41072" lon="15.59859"></trkpt>
      <trkpt lat="48.41059" lon="15.59821"></trkpt>
      <trkpt lat="48.41054" lon="15.59809"></trkpt>
      <trkpt lat="48.4104" lon="15.59776"></trkpt>
      <trkpt lat="48.41031" lon="15.59759"></trkpt>
      <trkpt lat="48.41011" lon="15.59708"></trkpt>
      <trkpt lat="48.41001" lon="15.59687"></trkpt>
      <trkpt lat="48.40989" lon="15.59672"></trkpt>
      <trkpt lat="48.40989" lon="15.59646"></trkpt>
      <trkpt lat="48.40973" lon="15.59621"></trkpt>
      <trkpt lat="48.40903" lon="15.59633"></trkpt>
      <trkpt lat="48.40879" lon="15.59652"></trkpt>
      <trkpt lat="48.40821" lon="15.59705"></trkpt>
      <trkpt lat="48.40789" lon="15.59729"></trkpt>
      <trkpt lat="48.40777" lon="15.59707"></trkpt>
      <trkpt lat="48.40752" lon="15.59643"></trkpt>
      <trkpt lat="48.40721" lon="15.5957"></trkpt>
      <trkpt lat="48.40695" lon="15.59491"></trkpt>
      <trkpt lat="48.40687" lon="15.59458"></trkpt>
      <trkpt lat="48.40678" lon="15.59436"></trkpt>
      <trkpt lat="48.40649" lon="15.59362"></trkpt>
      <trkpt lat="48.40612" lon="15.59268"></trkpt>
      <trkpt lat="48.4057" lon="15.59165"></trkpt>
      <trkpt lat="48.40534" lon="15.59084"></trkpt>
      <trkpt lat="48.40499" lon="15.5901"></trkpt>
      <trkpt lat="48.40463" lon="15.58934"></trkpt>
      <trkpt lat="48.40428" lon="15.58862"></trkpt>
      <trkpt lat="48.4041" lon="15.58821"></trkpt>
      <trkpt lat="48.40399" lon="15.58779"></trkpt>
      <trkpt lat="48.4038" lon="15.58759"></trkpt>
      <trkpt lat="48.40352" lon="15.58693"></trkpt>
      <trkpt lat="48.40317" lon="15.58609"></trkpt>
      <trkpt lat="48.40283" lon="15.58519"></trkpt>
      <trkpt lat="48.40247" lon="15.58442"></trkpt>
      <trkpt lat="48.40213" lon="15.5835"></trkpt>
      <trkpt lat="48.40179" lon="15.58252"></trkpt>
      <trkpt lat="48.40165" lon="15.58209"></trkpt>
      <trkpt lat="48.40119" lon="15.58096"></trkpt>
      <trkpt lat="48.40094" lon="15.58032"></trkpt>
      <trkpt lat="48.40069" lon="15.57925"></trkpt>
      <trkpt lat="48.40049" lon="15.57824"></trkpt>
      <trkpt lat="48.40014" lon="15.57683"></trkpt>
      <trkpt lat="48.39998" lon="15.5759"></trkpt>
      <trkpt lat="48.39991" lon="15.57476"></trkpt>
      <trkpt lat="48.39993" lon="15.57436"></trkpt>
      <trkpt lat="48.39983" lon="15.57367"></trkpt>
      <trkpt lat="48.3997" lon="15.57321"></trkpt>
      <trkpt lat="48.39935" lon="15.57248"></trkpt>
      <trkpt lat="48.39912" lon="15.57194"></trkpt>
      <trkpt lat="48.39874" lon="15.57077"></trkpt>
      <trkpt lat="48.39853" lon="15.56984"></trkpt>
      <trkpt lat="48.39817" lon="15.56909"></trkpt>
      <trkpt lat="48.39784" lon="15.5686"></trkpt>
      <trkpt lat="48.39706" lon="15.56758"></trkpt>
      <trkpt lat="48.39657" lon="15.56692"></trkpt>
      <trkpt lat="48.39613" lon="15.56614"></trkpt>
      <trkpt lat="48.39587" lon="15.5656"></trkpt>
      <trkpt lat="48.39554" lon="15.5649"></trkpt>
      <trkpt lat="48.39509" lon="15.56378"></trkpt>
      <trkpt lat="48.39489" lon="15.56335"></trkpt>
      <trkpt lat="48.39467" lon="15.56276"></trkpt>
      <trkpt lat="48.3946" lon="15.56251"></trkpt>
      <trkpt lat="48.39441" lon="15.56198"></trkpt>
      <trkpt lat="48.39424" lon="15.56143"></trkpt>
      <trkpt lat="48.39412" lon="15.56105"></trkpt>
      <trkpt lat="48.39373" lon="15.55993"></trkpt>
      <trkpt lat="48.39332" lon="15.55863"></trkpt>
      <trkpt lat="48.39304" lon="15.55777"></trkpt>
      <trkpt lat="48.39285" lon="15.55702"></trkpt>
      <trkpt lat="48.39285" lon="15.55644"></trkpt>
      <trkpt lat="48.3928" lon="15.55608"></trkpt>
      <trkpt lat="48.39223" lon="15.55456"></trkpt>
      <trkpt lat="48.39144" lon="15.55278"></trkpt>
      <trkpt lat="48.39106" lon="15.55174"></trkpt>
      <trkpt lat="48.3906" lon="15.55043"></trkpt>
      <trkpt lat="48.3902" lon="15.54898"></trkpt>
      <trkpt lat="48.38997" lon="15.54825"></trkpt>
      <trkpt lat="48.38951" lon="15.54682"></trkpt>
      <trkpt lat="48.38905" lon="15.54588"></trkpt>
      <trkpt lat="48.38877" lon="15.54546"></trkpt>
      <trkpt lat="48.38859" lon="15.54503"></trkpt>
      <trkpt lat="48.38792" lon="15.54368"></trkpt>
      <trkpt lat="48.38749" lon="15.5428"></trkpt>
      <trkpt lat="48.38724" lon="15.54215"></trkpt>
      <trkpt lat="48.38708" lon="15.54158"></trkpt>
      <trkpt lat="48.38693" lon="15.54112"></trkpt>
      <trkpt lat="48.38708" lon="15.54065"></trkpt>
      <trkpt lat="48.38723" lon="15.53966"></trkpt>
      <trkpt lat="48.38775" lon="15.53761"></trkpt>
      <trkpt lat="48.38824" lon="15.53611"></trkpt>
      <trkpt lat="48.38841" lon="15.53457"></trkpt>
      <trkpt lat="48.38851" lon="15.53336"></trkpt>
      <trkpt lat="48.38865" lon="15.53308"></trkpt>
      <trkpt lat="48.38936" lon="15.53304"></trkpt>
      <trkpt lat="48.39006" lon="15.53305"></trkpt>
      <trkpt lat="48.39088" lon="15.53302"></trkpt>
      <trkpt lat="48.39102" lon="15.53251"></trkpt>
      <trkpt lat="48.39122" lon="15.53116"></trkpt>
      <trkpt lat="48.39154" lon="15.52961"></trkpt>
      <trkpt lat="48.39176" lon="15.52811"></trkpt>
      <trkpt lat="48.39181" lon="15.52749"></trkpt>
      <trkpt lat="48.39205" lon="15.52628"></trkpt>
      <trkpt lat="48.39237" lon="15.5253"></trkpt>
      <trkpt lat="48.39264" lon="15.52469"></trkpt>
      <trkpt lat="48.39311" lon="15.52386"></trkpt>
      <trkpt lat="48.39319" lon="15.52369"></trkpt>
      <trkpt lat="48.39336" lon="15.52326"></trkpt>
      <trkpt lat="48.39382" lon="15.52231"></trkpt>
      <trkpt lat="48.3941" lon="15.52166"></trkpt>
      <trkpt lat="48.39424" lon="15.5213"></trkpt>
      <trkpt lat="48.39424" lon="15.52115"></trkpt>
      <trkpt lat="48.39401" lon="15.52066"></trkpt>
      <trkpt lat="48.39391" lon="15.52042"></trkpt>
      <trkpt lat="48.39377" lon="15.5201"></trkpt>
      <trkpt lat="48.39368" lon="15.51974"></trkpt>
      <trkpt lat="48.39368" lon="15.51965"></trkpt>
      <trkpt lat="48.39411" lon="15.51934"></trkpt>
      <trkpt lat="48.39464" lon="15.51883"></trkpt>
      <trkpt lat="48.39526" lon="15.51872"></trkpt>
      <trkpt lat="48.39578" lon="15.51867"></trkpt>
      <trkpt lat="48.39599" lon="15.51866"></trkpt>
      <trkpt lat="48.39656" lon="15.51865"></trkpt>
      <trkpt lat="48.39724" lon="15.51856"></trkpt>
      <trkpt lat="48.39838" lon="15.51825"></trkpt>
      <trkpt lat="48.39918" lon="15.51797"></trkpt>
      <trkpt lat="48.39975" lon="15.51778"></trkpt>
      <trkpt lat="48.39998" lon="15.51768"></trkpt>
      <trkpt lat="48.40056" lon="15.51746"></trkpt>
      <trkpt lat="48.40085" lon="15.51729"></trkpt>
      <trkpt lat="48.40146" lon="15.51692"></trkpt>
      <trkpt lat="48.40188" lon="15.51669"></trkpt>
      <trkpt lat="48.40202" lon="15.51671"></trkpt>
      <trkpt lat="48.40275" lon="15.51617"></trkpt>
      <trkpt lat="48.40349" lon="15.51548"></trkpt>
      <trkpt lat="48.40378" lon="15.51523"></trkpt>
      <trkpt lat="48.40412" lon="15.51486"></trkpt>
      <trkpt lat="48.40472" lon="15.51422"></trkpt>
      <trkpt lat="48.40535" lon="15.51358"></trkpt>
      <trkpt lat="48.40567" lon="15.51315"></trkpt>
      <trkpt lat="48.40584" lon="15.51286"></trkpt>
      <trkpt lat="48.40601" lon="15.5126"></trkpt>
      <trkpt lat="48.4062" lon="15.51224"></trkpt>
      <trkpt lat="48.40627" lon="15.51203"></trkpt>
      <trkpt lat="48.40615" lon="15.51185"></trkpt>
    </trkseg>
  </trk>
  <trk>
    <name>День 2</name>
    <trkseg>
      <trkpt lat="48.4062" lon="15.51184"></trkpt>
      <trkpt lat="48.40912" lon="15.50606"></trkpt>
      <trkpt lat="48.41147" lon="15.49877"></trkpt>
      <trkpt lat="48.4091" lon="15.48758"></trkpt>
      <trkpt lat="48.40108" lon="15.47744"></trkpt>
      <trkpt lat="48.39921" lon="15.4724"></trkpt>
      <trkpt lat="48.39677" lon="15.46984"></trkpt>
      <trkpt lat="48.39194" lon="15.46538"></trkpt>
      <trkpt lat="48.3859" lon="15.46105"></trkpt>
      <trkpt lat="48.38099" lon="15.45584"></trkpt>
      <trkpt lat="48.37993" lon="15.45162"></trkpt>
      <trkpt lat="48.3761" lon="15.44519"></trkpt>
      <trkpt lat="48.37235" lon="15.43892"></trkpt>
      <trkpt lat="48.36965" lon="15.43243"></trkpt>
      <trkpt lat="48.36812" lon="15.42422"></trkpt>
      <trkpt lat="48.36645" lon="15.42008"></trkpt>
      <trkpt lat="48.36344" lon="15.41657"></trkpt>
      <trkpt lat="48.35975" lon="15.41336"></trkpt>
      <trkpt lat="48.35421" lon="15.40707"></trkpt>
      <trkpt lat="48.34766" lon="15.40439"></trkpt>
      <trkpt lat="48.34117" lon="15.40422"></trkpt>
      <trkpt lat="48.33658" lon="15.40304"></trkpt>
      <trkpt lat="48.33444" lon="15.40305"></trkpt>
      <trkpt lat="48.32744" lon="15.40422"></trkpt>
      <trkpt lat="48.32165" lon="15.40478"></trkpt>
      <trkpt lat="48.31615" lon="15.40661"></trkpt>
      <trkpt lat="48.31072" lon="15.40713"></trkpt>
      <trkpt lat="48.30069" lon="15.40511"></trkpt>
      <trkpt lat="48.29411" lon="15.40393"></trkpt>
      <trkpt lat="48.29164" lon="15.4016"></trkpt>
      <trkpt lat="48.28327" lon="15.39721"></trkpt>
      <trkpt lat="48.27746" lon="15.38747"></trkpt>
      <trkpt lat="48.27419" lon="15.38081"></trkpt>
      <trkpt lat="48.27112" lon="15.37486"></trkpt>
      <trkpt lat="48.26696" lon="15.36878"></trkpt>
      <trkpt lat="48.26167" lon="15.36429"></trkpt>
      <trkpt lat="48.25759" lon="15.35967"></trkpt>
      <trkpt lat="48.25283" lon="15.35411"></trkpt>
      <trkpt lat="48.24969" lon="15.34899"></trkpt>
      <trkpt lat="48.24458" lon="15.34136"></trkpt>
      <trkpt lat="48.24529" lon="15.34323"></trkpt>
      <trkpt lat="48.24076" lon="15.34701"></trkpt>
      <trkpt lat="48.23868" lon="15.34985"></trkpt>
      <trkpt lat="48.23637" lon="15.34638"></trkpt>
      <trkpt lat="48.23254" lon="15.33927"></trkpt>
      <trkpt lat="48.23077" lon="15.33322"></trkpt>
      <trkpt lat="48.22891" lon="15.32967"></trkpt>
      <trkpt lat="48.23093" lon="15.32757"></trkpt>
      <trkpt lat="48.23224" lon="15.32539"></trkpt>
      <trkpt lat="48.22759" lon="15.31887"></trkpt>
      <trkpt lat="48.22395" lon="15.31269"></trkpt>
      <trkpt lat="48.22031" lon="15.30768"></trkpt>
      <trkpt lat="48.21983" lon="15.301"></trkpt>
      <trkpt lat="48.22146" lon="15.29656"></trkpt>
      <trkpt lat="48.22232" lon="15.28013"></trkpt>
      <trkpt lat="48.22166" lon="15.26494"></trkpt>
      <trkpt lat="48.21992" lon="15.25445"></trkpt>
      <trkpt lat="48.21678" lon="15.24102"></trkpt>
      <trkpt lat="48.21344" lon="15.23034"></trkpt>
      <trkpt lat="48.21343" lon="15.21881"></trkpt>
      <trkpt lat="48.21272" lon="15.20986"></trkpt>
      <trkpt lat="48.21265" lon="15.20789"></trkpt>
      <trkpt lat="48.2133" lon="15.19524"></trkpt>
      <trkpt lat="48.21293" lon="15.19379"></trkpt>
      <trkpt lat="48.21416" lon="15.1823"></trkpt>
      <trkpt lat="48.21219" lon="15.16568"></trkpt>
      <trkpt lat="48.21099" lon="15.15125"></trkpt>
      <trkpt lat="48.2098" lon="15.14624"></trkpt>
      <trkpt lat="48.20905" lon="15.13848"></trkpt>
      <trkpt lat="48.20891" lon="15.1332"></trkpt>
      <trkpt lat="48.20652" lon="15.12339"></trkpt>
      <trkpt lat="48.20241" lon="15.1183"></trkpt>
      <trkpt lat="48.19793" lon="15.11294"></trkpt>
      <trkpt lat="48.19078" lon="15.1143"></trkpt>
      <trkpt lat="48.18622" lon="15.11768"></trkpt>
      <trkpt lat="48.1796" lon="15.12105"></trkpt>
      <trkpt lat="48.17157" lon="15.11571"></trkpt>
      <trkpt lat="48.1693" lon="15.10649"></trkpt>
      <trkpt lat="48.16717" lon="15.09967"></trkpt>
      <trkpt lat="48.16424" lon="15.09596"></trkpt>
      <trkpt lat="48.16722" lon="15.08796"></trkpt>
      <trkpt lat="48.16978" lon="15.09135"></trkpt>
      <trkpt lat="48.17432" lon="15.08818"></trkpt>
      <trkpt lat="48.17854" lon="15.08511"></trkpt>
      <trkpt lat="48.18107" lon="15.08211"></trkpt>
      <trkpt lat="48.18617" lon="15.0732"></trkpt>
      <trkpt lat="48.18706" lon="15.06882"></trkpt>
      <trkpt lat="48.19139" lon="15.07204"></trkpt>
      <trkpt lat="48.19483" lon="15.06763"></trkpt>
      <trkpt lat="48.19759" lon="15.05835"></trkpt>
      <trkpt lat="48.19835" lon="15.04651"></trkpt>
      <trkpt lat="48.19921" lon="15.03949"></trkpt>
      <trkpt lat="48.19932" lon="15.03284"></trkpt>
      <trkpt lat="48.19728" lon="15.02514"></trkpt>
      <trkpt lat="48.19517" lon="15.01666"></trkpt>
      <trkpt lat="48.19495" lon="15.00853"></trkpt>
      <trkpt lat="48.1966" lon="14.99849"></trkpt>
      <trkpt lat="48.19733" lon="14.9901"></trkpt>
      <trkpt lat="48.19841" lon="14.98059"></trkpt>
      <trkpt lat="48.2017" lon="14.96993"></trkpt>
      <trkpt lat="48.20585" lon="14.96068"></trkpt>
      <trkpt lat="48.2112" lon="14.95704"></trkpt>
      <trkpt lat="48.21603" lon="14.95432"></trkpt>
      <trkpt lat="48.22166" lon="14.95087"></trkpt>
      <trkpt lat="48.22556" lon="14.94767"></trkpt>
      <trkpt lat="48.22959" lon="14.94352"></trkpt>
      <trkpt lat="48.23251" lon="14.92908"></trkpt>
      <trkpt lat="48.23351" lon="14.91304"></trkpt>
      <trkpt lat="48.23195" lon="14.90364"></trkpt>
      <trkpt lat="48.22924" lon="14.89295"></trkpt>
      <trkpt lat="48.23351" lon="14.88307"></trkpt>
      <trkpt lat="48.23042" lon="14.87341"></trkpt>
      <trkpt lat="48.22796" lon="14.85821"></trkpt>
      <trkpt lat="48.2273" lon="14.85572"></trkpt>
      <trkpt lat="48.22536" lon="14.85387"></trkpt>
      <trkpt lat="48.22124" lon="14.85416"></trkpt>
      <trkpt lat="48.21349" lon="14.85581"></trkpt>
      <trkpt lat="48.20853" lon="14.85284"></trkpt>
      <trkpt lat="48.19933" lon="14.8452"></trkpt>
      <trkpt lat="48.195" lon="14.8379"></trkpt>
      <trkpt lat="48.19076" lon="14.82498"></trkpt>
      <trkpt lat="48.19113" lon="14.8148"></trkpt>
      <trkpt lat="48.18918" lon="14.80429"></trkpt>
      <trkpt lat="48.18653" lon="14.79615"></trkpt>
      <trkpt lat="48.18416" lon="14.7872"></trkpt>
      <trkpt lat="48.18325" lon="14.78091"></trkpt>
      <trkpt lat="48.18392" lon="14.77667"></trkpt>
      <trkpt lat="48.18744" lon="14.77441"></trkpt>
      <trkpt lat="48.19002" lon="14.76922"></trkpt>
      <trkpt lat="48.19116" lon="14.75757"></trkpt>
      <trkpt lat="48.19369" lon="14.74801"></trkpt>
      <trkpt lat="48.1923" lon="14.74549"></trkpt>
      <trkpt lat="48.19334" lon="14.73028"></trkpt>
      <trkpt lat="48.18918" lon="14.71814"></trkpt>
      <trkpt lat="48.18477" lon="14.71718"></trkpt>
      <trkpt lat="48.18043" lon="14.71163"></trkpt>
      <trkpt lat="48.17357" lon="14.70278"></trkpt>
      <trkpt lat="48.17088" lon="14.69434"></trkpt>
      <trkpt lat="48.16673" lon="14.69534"></trkpt>
      <trkpt lat="48.16701" lon="14.6952"></trkpt>
      <trkpt lat="48.17138" lon="14.69532"></trkpt>
      <trkpt lat="48.16816" lon="14.68574"></trkpt>
      <trkpt lat="48.16722" lon="14.67062"></trkpt>
      <trkpt lat="48.16869" lon="14.6623"></trkpt>
      <trkpt lat="48.17468" lon="14.64758"></trkpt>
      <trkpt lat="48.18429" lon="14.63405"></trkpt>
      <trkpt lat="48.19213" lon="14.62301"></trkpt>
      <trkpt lat="48.1984" lon="14.61128"></trkpt>
      <trkpt lat="48.20603" lon="14.60396"></trkpt>
      <trkpt lat="48.21486" lon="14.59578"></trkpt>
      <trkpt lat="48.22054" lon="14.59185"></trkpt>
    </trkseg>
  </trk>
  <trk>
    <name>День 3</name>
    <trkseg>
      <trkpt lat="48.22045" lon="14.59157"></trkpt>
      <trkpt lat="48.22552" lon="14.58356"></trkpt>
      <trkpt lat="48.22741" lon="14.57832"></trkpt>
      <trkpt lat="48.23258" lon="14.56491"></trkpt>
      <trkpt lat="48.23861" lon="14.56387"></trkpt>
      <trkpt lat="48.23715" lon="14.54977"></trkpt>
      <trkpt lat="48.23838" lon="14.53799"></trkpt>
      <trkpt lat="48.23915" lon="14.52583"></trkpt>
      <trkpt lat="48.24109" lon="14.51396"></trkpt>
      <trkpt lat="48.23916" lon="14.52717"></trkpt>
      <trkpt lat="48.2346" lon="14.53027"></trkpt>
      <trkpt lat="48.23131" lon="14.51682"></trkpt>
      <trkpt lat="48.22352" lon="14.51005"></trkpt>
      <trkpt lat="48.22069" lon="14.50357"></trkpt>
      <trkpt lat="48.22191" lon="14.49951"></trkpt>
      <trkpt lat="48.22158" lon="14.4971"></trkpt>
      <trkpt lat="48.21954" lon="14.49507"></trkpt>
      <trkpt lat="48.21313" lon="14.48735"></trkpt>
      <trkpt lat="48.21277" lon="14.48185"></trkpt>
      <trkpt lat="48.21129" lon="14.47982"></trkpt>
      <trkpt lat="48.21356" lon="14.47473"></trkpt>
      <trkpt lat="48.21535" lon="14.47353"></trkpt>
      <trkpt lat="48.21564" lon="14.47172"></trkpt>
      <trkpt lat="48.21601" lon="14.46456"></trkpt>
      <trkpt lat="48.21641" lon="14.45363"></trkpt>
      <trkpt lat="48.21672" lon="14.43897"></trkpt>
      <trkpt lat="48.21764" lon="14.42708"></trkpt>
      <trkpt lat="48.21957" lon="14.41724"></trkpt>
      <trkpt lat="48.22219" lon="14.40919"></trkpt>
      <trkpt lat="48.22396" lon="14.40617"></trkpt>
      <trkpt lat="48.23118" lon="14.4023"></trkpt>
      <trkpt lat="48.23798" lon="14.39376"></trkpt>
      <trkpt lat="48.24068" lon="14.38558"></trkpt>
      <trkpt lat="48.24141" lon="14.37478"></trkpt>
      <trkpt lat="48.24347" lon="14.36711"></trkpt>
      <trkpt lat="48.24918" lon="14.35915"></trkpt>
      <trkpt lat="48.25272" lon="14.35409"></trkpt>
      <trkpt lat="48.25293" lon="14.34188"></trkpt>
      <trkpt lat="48.25532" lon="14.3353"></trkpt>
      <trkpt lat="48.24906" lon="14.32821"></trkpt>
      <trkpt lat="48.24765" lon="14.32341"></trkpt>
      <trkpt lat="48.24345" lon="14.30878"></trkpt>
      <trkpt lat="48.24232" lon="14.3016"></trkpt>
      <trkpt lat="48.23718" lon="14.28854"></trkpt>
      <trkpt lat="48.23462" lon="14.28185"></trkpt>
      <trkpt lat="48.22872" lon="14.27264"></trkpt>
      <trkpt lat="48.22413" lon="14.26025"></trkpt>
      <trkpt lat="48.21948" lon="14.25504"></trkpt>
      <trkpt lat="48.21601" lon="14.2525"></trkpt>
      <trkpt lat="48.21438" lon="14.24501"></trkpt>
      <trkpt lat="48.21008" lon="14.23601"></trkpt>
      <trkpt lat="48.2072" lon="14.22667"></trkpt>
      <trkpt lat="48.20742" lon="14.22215"></trkpt>
      <trkpt lat="48.2033" lon="14.21175"></trkpt>
      <trkpt lat="48.20053" lon="14.19524"></trkpt>
      <trkpt lat="48.19543" lon="14.18262"></trkpt>
      <trkpt lat="48.19478" lon="14.16944"></trkpt>
      <trkpt lat="48.1904" lon="14.15707"></trkpt>
      <trkpt lat="48.18618" lon="14.15145"></trkpt>
      <trkpt lat="48.18322" lon="14.14358"></trkpt>
      <trkpt lat="48.18139" lon="14.13798"></trkpt>
      <trkpt lat="48.17932" lon="14.1266"></trkpt>
      <trkpt lat="48.17534" lon="14.11587"></trkpt>
      <trkpt lat="48.17363" lon="14.10634"></trkpt>
      <trkpt lat="48.17329" lon="14.09811"></trkpt>
      <trkpt lat="48.17246" lon="14.09081"></trkpt>
      <trkpt lat="48.17047" lon="14.08201"></trkpt>
      <trkpt lat="48.16456" lon="14.07181"></trkpt>
      <trkpt lat="48.16161" lon="14.06374"></trkpt>
      <trkpt lat="48.15841" lon="14.05554"></trkpt>
      <trkpt lat="48.15752" lon="14.04377"></trkpt>
      <trkpt lat="48.15486" lon="14.02948"></trkpt>
      <trkpt lat="48.15456" lon="14.02303"></trkpt>
      <trkpt lat="48.15579" lon="14.0205"></trkpt>
      <trkpt lat="48.15848" lon="14.02024"></trkpt>
      <trkpt lat="48.1584" lon="14.01916"></trkpt>
      <trkpt lat="48.15584" lon="14.01082"></trkpt>
      <trkpt lat="48.15325" lon="14.00185"></trkpt>
      <trkpt lat="48.15026" lon="13.99287"></trkpt>
      <trkpt lat="48.14811" lon="13.98818"></trkpt>
      <trkpt lat="48.14364" lon="13.98763"></trkpt>
      <trkpt lat="48.14211" lon="13.97909"></trkpt>
      <trkpt lat="48.13436" lon="13.9723"></trkpt>
      <trkpt lat="48.13124" lon="13.96672"></trkpt>
      <trkpt lat="48.12477" lon="13.96247"></trkpt>
      <trkpt lat="48.11769" lon="13.95702"></trkpt>
      <trkpt lat="48.11246" lon="13.95114"></trkpt>
      <trkpt lat="48.10901" lon="13.9431"></trkpt>
      <trkpt lat="48.10558" lon="13.93492"></trkpt>
      <trkpt lat="48.09987" lon="13.9232"></trkpt>
      <trkpt lat="48.09339" lon="13.91749"></trkpt>
      <trkpt lat="48.0919" lon="13.90847"></trkpt>
      <trkpt lat="48.09116" lon="13.90346"></trkpt>
      <trkpt lat="48.09085" lon="13.89583"></trkpt>
      <trkpt lat="48.09245" lon="13.8902"></trkpt>
      <trkpt lat="48.08876" lon="13.885"></trkpt>
      <trkpt lat="48.08884" lon="13.8802"></trkpt>
      <trkpt lat="48.08907" lon="13.87091"></trkpt>
      <trkpt lat="48.08801" lon="13.86097"></trkpt>
      <trkpt lat="48.08761" lon="13.85604"></trkpt>
      <trkpt lat="48.0866" lon="13.8487"></trkpt>
      <trkpt lat="48.08621" lon="13.84101"></trkpt>
      <trkpt lat="48.08509" lon="13.83327"></trkpt>
      <trkpt lat="48.08018" lon="13.82982"></trkpt>
      <trkpt lat="48.07732" lon="13.82222"></trkpt>
      <trkpt lat="48.07178" lon="13.81478"></trkpt>
      <trkpt lat="48.0674" lon="13.8076"></trkpt>
      <trkpt lat="48.0629" lon="13.80149"></trkpt>
      <trkpt lat="48.05876" lon="13.79666"></trkpt>
      <trkpt lat="48.05577" lon="13.79276"></trkpt>
      <trkpt lat="48.05326" lon="13.78775"></trkpt>
      <trkpt lat="48.04855" lon="13.78084"></trkpt>
      <trkpt lat="48.04515" lon="13.77742"></trkpt>
      <trkpt lat="48.04388" lon="13.76811"></trkpt>
      <trkpt lat="48.03891" lon="13.7642"></trkpt>
      <trkpt lat="48.03524" lon="13.7649"></trkpt>
      <trkpt lat="48.03376" lon="13.7607"></trkpt>
      <trkpt lat="48.02829" lon="13.75585"></trkpt>
      <trkpt lat="48.02389" lon="13.75228"></trkpt>
      <trkpt lat="48.02369" lon="13.74554"></trkpt>
      <trkpt lat="48.01689" lon="13.74185"></trkpt>
      <trkpt lat="48.01305" lon="13.73806"></trkpt>
      <trkpt lat="48.0074" lon="13.73025"></trkpt>
      <trkpt lat="48.00387" lon="13.72604"></trkpt>
      <trkpt lat="48.00076" lon="13.72375"></trkpt>
      <trkpt lat="47.9984" lon="13.72041"></trkpt>
      <trkpt lat="47.99742" lon="13.71255"></trkpt>
      <trkpt lat="47.99475" lon="13.70722"></trkpt>
      <trkpt lat="47.99014" lon="13.70846"></trkpt>
      <trkpt lat="47.98501" lon="13.70392"></trkpt>
      <trkpt lat="47.97875" lon="13.69359"></trkpt>
      <trkpt lat="47.97125" lon="13.6831"></trkpt>
      <trkpt lat="47.9672" lon="13.67617"></trkpt>
      <trkpt lat="47.96557" lon="13.67003"></trkpt>
      <trkpt lat="47.96364" lon="13.65807"></trkpt>
      <trkpt lat="47.95905" lon="13.64308"></trkpt>
      <trkpt lat="47.95616" lon="13.63197"></trkpt>
      <trkpt lat="47.95592" lon="13.62091"></trkpt>
      <trkpt lat="47.95081" lon="13.61241"></trkpt>
      <trkpt lat="47.94837" lon="13.60556"></trkpt>
      <trkpt lat="47.9467" lon="13.60544"></trkpt>
      <trkpt lat="47.94679" lon="13.60114"></trkpt>
      <trkpt lat="47.94863" lon="13.59506"></trkpt>
      <trkpt lat="47.95057" lon="13.58909"></trkpt>
      <trkpt lat="47.9518" lon="13.58543"></trkpt>
      <trkpt lat="47.95022" lon="13.57728"></trkpt>
      <trkpt lat="47.94595" lon="13.57231"></trkpt>
      <trkpt lat="47.94104" lon="13.56733"></trkpt>
      <trkpt lat="47.93686" lon="13.55888"></trkpt>
      <trkpt lat="47.93641" lon="13.55029"></trkpt>
      <trkpt lat="47.93502" lon="13.54837"></trkpt>
    </trkseg>
  </trk>
  <trk>
    <name>День 4</name>
    <trkseg>
      <trkpt lat="47.93507" lon="13.54825"></trkpt>
      <trkpt lat="47.93628" lon="13.54739"></trkpt>
      <trkpt lat="47.93512" lon="13.5426"></trkpt>
      <trkpt lat="47.93064" lon="13.54169"></trkpt>
      <trkpt lat="47.92466" lon="13.54473"></trkpt>
      <trkpt lat="47.92009" lon="13.54324"></trkpt>
      <trkpt lat="47.91642" lon="13.54115"></trkpt>
      <trkpt lat="47.91434" lon="13.53723"></trkpt>
      <trkpt lat="47.91291" lon="13.53148"></trkpt>
      <trkpt lat="47.90706" lon="13.52753"></trkpt>
      <trkpt lat="47.90301" lon="13.52665"></trkpt>
      <trkpt lat="47.90079" lon="13.52516"></trkpt>
      <trkpt lat="47.8955" lon="13.52547"></trkpt>
      <trkpt lat="47.89213" lon="13.52539"></trkpt>
      <trkpt lat="47.88785" lon="13.52437"></trkpt>
      <trkpt lat="47.88539" lon="13.52455"></trkpt>
      <trkpt lat="47.88194" lon="13.52285"></trkpt>
      <trkpt lat="47.87865" lon="13.52401"></trkpt>
      <trkpt lat="47.87403" lon="13.52441"></trkpt>
      <trkpt lat="47.86714" lon="13.52166"></trkpt>
      <trkpt lat="47.86199" lon="13.52375"></trkpt>
      <trkpt lat="47.85703" lon="13.52554"></trkpt>
      <trkpt lat="47.85374" lon="13.52596"></trkpt>
      <trkpt lat="47.8494" lon="13.52639"></trkpt>
      <trkpt lat="47.84503" lon="13.52351"></trkpt>
      <trkpt lat="47.84047" lon="13.52199"></trkpt>
      <trkpt lat="47.83478" lon="13.52481"></trkpt>
      <trkpt lat="47.83026" lon="13.51904"></trkpt>
      <trkpt lat="47.82635" lon="13.51529"></trkpt>
      <trkpt lat="47.82139" lon="13.50936"></trkpt>
      <trkpt lat="47.81609" lon="13.50744"></trkpt>
      <trkpt lat="47.8124" lon="13.50509"></trkpt>
      <trkpt lat="47.81029" lon="13.50058"></trkpt>
      <trkpt lat="47.80841" lon="13.49549"></trkpt>
      <trkpt lat="47.80615" lon="13.49201"></trkpt>
      <trkpt lat="47.80451" lon="13.48915"></trkpt>
      <trkpt lat="47.80427" lon="13.48925"></trkpt>
      <trkpt lat="47.80428" lon="13.48555"></trkpt>
      <trkpt lat="47.80289" lon="13.48172"></trkpt>
      <trkpt lat="47.80239" lon="13.4756"></trkpt>
      <trkpt lat="47.80362" lon="13.47023"></trkpt>
      <trkpt lat="47.80421" lon="13.4662"></trkpt>
      <trkpt lat="47.8036" lon="13.45517"></trkpt>
      <trkpt lat="47.80348" lon="13.45057"></trkpt>
      <trkpt lat="47.80215" lon="13.44599"></trkpt>
      <trkpt lat="47.80067" lon="13.43718"></trkpt>
      <trkpt lat="47.80026" lon="13.43009"></trkpt>
      <trkpt lat="47.79951" lon="13.42323"></trkpt>
      <trkpt lat="47.7989" lon="13.41874"></trkpt>
      <trkpt lat="47.79845" lon="13.40948"></trkpt>
      <trkpt lat="47.79771" lon="13.39835"></trkpt>
      <trkpt lat="47.80103" lon="13.38924"></trkpt>
      <trkpt lat="47.80301" lon="13.38349"></trkpt>
      <trkpt lat="47.80598" lon="13.37914"></trkpt>
      <trkpt lat="47.81128" lon="13.37116"></trkpt>
      <trkpt lat="47.81425" lon="13.36676"></trkpt>
      <trkpt lat="47.81618" lon="13.36387"></trkpt>
      <trkpt lat="47.81744" lon="13.35983"></trkpt>
      <trkpt lat="47.8197" lon="13.35686"></trkpt>
      <trkpt lat="47.82408" lon="13.35469"></trkpt>
      <trkpt lat="47.82824" lon="13.35099"></trkpt>
      <trkpt lat="47.8286" lon="13.34345"></trkpt>
      <trkpt lat="47.82808" lon="13.33787"></trkpt>
      <trkpt lat="47.82875" lon="13.33215"></trkpt>
      <trkpt lat="47.83203" lon="13.32366"></trkpt>
      <trkpt lat="47.83398" lon="13.31376"></trkpt>
      <trkpt lat="47.83574" lon="13.30791"></trkpt>
      <trkpt lat="47.83629" lon="13.29891"></trkpt>
      <trkpt lat="47.83514" lon="13.29384"></trkpt>
      <trkpt lat="47.83604" lon="13.29063"></trkpt>
      <trkpt lat="47.83598" lon="13.28676"></trkpt>
      <trkpt lat="47.83619" lon="13.28186"></trkpt>
      <trkpt lat="47.83763" lon="13.27529"></trkpt>
      <trkpt lat="47.83781" lon="13.26756"></trkpt>
      <trkpt lat="47.83985" lon="13.26099"></trkpt>
      <trkpt lat="47.84151" lon="13.25455"></trkpt>
      <trkpt lat="47.84161" lon="13.25375"></trkpt>
      <trkpt lat="47.84168" lon="13.25344"></trkpt>
      <trkpt lat="47.84204" lon="13.24837"></trkpt>
      <trkpt lat="47.84232" lon="13.24442"></trkpt>
      <trkpt lat="47.84189" lon="13.24062"></trkpt>
      <trkpt lat="47.843" lon="13.23522"></trkpt>
      <trkpt lat="47.84426" lon="13.23028"></trkpt>
      <trkpt lat="47.84591" lon="13.22575"></trkpt>
      <trkpt lat="47.84893" lon="13.22075"></trkpt>
      <trkpt lat="47.85191" lon="13.21539"></trkpt>
      <trkpt lat="47.85385" lon="13.20751"></trkpt>
      <trkpt lat="47.85409" lon="13.20466"></trkpt>
      <trkpt lat="47.85483" lon="13.20208"></trkpt>
      <trkpt lat="47.85465" lon="13.19909"></trkpt>
      <trkpt lat="47.85405" lon="13.19488"></trkpt>
      <trkpt lat="47.85457" lon="13.18988"></trkpt>
      <trkpt lat="47.85498" lon="13.18257"></trkpt>
      <trkpt lat="47.85635" lon="13.17705"></trkpt>
      <trkpt lat="47.85898" lon="13.17286"></trkpt>
      <trkpt lat="47.85975" lon="13.16709"></trkpt>
      <trkpt lat="47.86026" lon="13.15908"></trkpt>
      <trkpt lat="47.8607" lon="13.14832"></trkpt>
      <trkpt lat="47.86265" lon="13.13937"></trkpt>
      <trkpt lat="47.8642" lon="13.13363"></trkpt>
      <trkpt lat="47.86409" lon="13.12894"></trkpt>
      <trkpt lat="47.85972" lon="13.12604"></trkpt>
      <trkpt lat="47.85753" lon="13.12"></trkpt>
      <trkpt lat="47.85572" lon="13.11226"></trkpt>
      <trkpt lat="47.85322" lon="13.10779"></trkpt>
      <trkpt lat="47.85019" lon="13.10718"></trkpt>
      <trkpt lat="47.84565" lon="13.10094"></trkpt>
      <trkpt lat="47.84312" lon="13.09644"></trkpt>
      <trkpt lat="47.84069" lon="13.09061"></trkpt>
      <trkpt lat="47.83727" lon="13.08849"></trkpt>
      <trkpt lat="47.83195" lon="13.08569"></trkpt>
      <trkpt lat="47.8282" lon="13.08205"></trkpt>
      <trkpt lat="47.8215" lon="13.07686"></trkpt>
      <trkpt lat="47.81725" lon="13.07071"></trkpt>
      <trkpt lat="47.81274" lon="13.06729"></trkpt>
      <trkpt lat="47.80997" lon="13.06416"></trkpt>
      <trkpt lat="47.80897" lon="13.05542"></trkpt>
      <trkpt lat="47.80797" lon="13.05108"></trkpt>
      <trkpt lat="47.8054" lon="13.05149"></trkpt>
      <trkpt lat="47.80395" lon="13.04762"></trkpt>
      <trkpt lat="47.80331" lon="13.04696"></trkpt>
      <trkpt lat="47.80262" lon="13.04598"></trkpt>
      <trkpt lat="47.80153" lon="13.04509"></trkpt>
      <trkpt lat="47.80045" lon="13.04465"></trkpt>
      <trkpt lat="47.79998" lon="13.04478"></trkpt>
      <trkpt lat="47.79873" lon="13.04711"></trkpt>
      <trkpt lat="47.79972" lon="13.04633"></trkpt>
      <trkpt lat="47.80004" lon="13.04478"></trkpt>
      <trkpt lat="47.79931" lon="13.04435"></trkpt>
      <trkpt lat="47.79794" lon="13.0447"></trkpt>
      <trkpt lat="47.7978" lon="13.04528"></trkpt>
      <trkpt lat="47.79745" lon="13.04596"></trkpt>
      <trkpt lat="47.79781" lon="13.04483"></trkpt>
      <trkpt lat="47.79916" lon="13.04423"></trkpt>
      <trkpt lat="47.79998" lon="13.04442"></trkpt>
      <trkpt lat="47.80004" lon="13.04351"></trkpt>
      <trkpt lat="47.80084" lon="13.04017"></trkpt>
      <trkpt lat="47.80074" lon="13.04141"></trkpt>
      <trkpt lat="47.80177" lon="13.04054"></trkpt>
      <trkpt lat="47.80503" lon="13.03755"></trkpt>
      <trkpt lat="47.80406" lon="13.03943"></trkpt>
      <trkpt lat="47.80201" lon="13.04293"></trkpt>
      <trkpt lat="47.80186" lon="13.0451"></trkpt>
      <trkpt lat="47.80275" lon="13.04559"></trkpt>
      <trkpt lat="47.80383" lon="13.04423"></trkpt>
      <trkpt lat="47.80556" lon="13.04325"></trkpt>
      <trkpt lat="47.80745" lon="13.04189"></trkpt>
      <trkpt lat="47.80743" lon="13.04206"></trkpt>
      <trkpt lat="47.80978" lon="13.04191"></trkpt>
      <trkpt lat="47.81208" lon="13.04382"></trkpt>
      <trkpt lat="47.81292" lon="13.04474"></trkpt>
    </trkseg>
  </trk>
</gpx>
