<?xml version="1.0" encoding="UTF-8"?>
<gpx version="1.1" creator="bike-reports.velotrips" xmlns="http://www.opengis.net/gpx/1.1">
  <trk>
    <name>День 1</name>
    <trkseg>
      <trkpt lat="55.19499" lon="30.18506"></trkpt>
      <trkpt lat="55.19381" lon="30.18472"></trkpt>
      <trkpt lat="55.19361" lon="30.18492"></trkpt>
      <trkpt lat="55.19328" lon="30.18518"></trkpt>
      <trkpt lat="55.1932" lon="30.18579"></trkpt>
      <trkpt lat="55.1931" lon="30.18603"></trkpt>
      <trkpt lat="55.1926" lon="30.18743"></trkpt>
      <trkpt lat="55.19183" lon="30.18923"></trkpt>
      <trkpt lat="55.19157" lon="30.18986"></trkpt>
      <trkpt lat="55.19148" lon="30.19019"></trkpt>
      <trkpt lat="55.1899" lon="30.19038"></trkpt>
      <trkpt lat="55.18925" lon="30.19056"></trkpt>
      <trkpt lat="55.18726" lon="30.19093"></trkpt>
      <trkpt lat="55.18635" lon="30.19119"></trkpt>
      <trkpt lat="55.18517" lon="30.19123"></trkpt>
      <trkpt lat="55.18421" lon="30.19529"></trkpt>
      <trkpt lat="55.18294" lon="30.20181"></trkpt>
      <trkpt lat="55.18268" lon="30.20318"></trkpt>
      <trkpt lat="55.18188" lon="30.20735"></trkpt>
      <trkpt lat="55.18074" lon="30.20824"></trkpt>
      <trkpt lat="55.17976" lon="30.20936"></trkpt>
      <trkpt lat="55.17943" lon="30.21066"></trkpt>
      <trkpt lat="55.17897" lon="30.21264"></trkpt>
      <trkpt lat="55.17866" lon="30.21264"></trkpt>
      <trkpt lat="55.17827" lon="30.2132"></trkpt>
      <trkpt lat="55.17793" lon="30.21491"></trkpt>
      <trkpt lat="55.1776" lon="30.21545"></trkpt>
      <trkpt lat="55.17747" lon="30.21621"></trkpt>
      <trkpt lat="55.17686" lon="30.2199"></trkpt>
      <trkpt lat="55.17672" lon="30.22054"></trkpt>
      <trkpt lat="55.17559" lon="30.22076"></trkpt>
      <trkpt lat="55.17436" lon="30.22179"></trkpt>
      <trkpt lat="55.1735" lon="30.22271"></trkpt>
      <trkpt lat="55.1727" lon="30.22295"></trkpt>
      <trkpt lat="55.17177" lon="30.22306"></trkpt>
      <trkpt lat="55.17126" lon="30.22333"></trkpt>
      <trkpt lat="55.17046" lon="30.22483"></trkpt>
      <trkpt lat="55.16971" lon="30.22499"></trkpt>
      <trkpt lat="55.16795" lon="30.22462"></trkpt>
      <trkpt lat="55.16784" lon="30.22502"></trkpt>
      <trkpt lat="55.16675" lon="30.22555"></trkpt>
      <trkpt lat="55.16611" lon="30.22549"></trkpt>
      <trkpt lat="55.16522" lon="30.22629"></trkpt>
      <trkpt lat="55.16388" lon="30.22729"></trkpt>
      <trkpt lat="55.16331" lon="30.22739"></trkpt>
      <trkpt lat="55.16258" lon="30.22774"></trkpt>
      <trkpt lat="55.162" lon="30.2282"></trkpt>
      <trkpt lat="55.16104" lon="30.2281"></trkpt>
      <trkpt lat="55.16031" lon="30.22834"></trkpt>
      <trkpt lat="55.15864" lon="30.23222"></trkpt>
      <trkpt lat="55.15824" lon="30.23331"></trkpt>
      <trkpt lat="55.1577" lon="30.2333"></trkpt>
      <trkpt lat="55.15686" lon="30.23454"></trkpt>
      <trkpt lat="55.15404" lon="30.2378"></trkpt>
      <trkpt lat="55.15303" lon="30.23906"></trkpt>
      <trkpt lat="55.15229" lon="30.23995"></trkpt>
      <trkpt lat="55.14829" lon="30.24466"></trkpt>
      <trkpt lat="55.14458" lon="30.24903"></trkpt>
      <trkpt lat="55.14154" lon="30.25263"></trkpt>
      <trkpt lat="55.13901" lon="30.25559"></trkpt>
      <trkpt lat="55.13645" lon="30.25862"></trkpt>
      <trkpt lat="55.13385" lon="30.26162"></trkpt>
      <trkpt lat="55.13146" lon="30.26442"></trkpt>
      <trkpt lat="55.12883" lon="30.26754"></trkpt>
      <trkpt lat="55.12486" lon="30.27217"></trkpt>
      <trkpt lat="55.12214" lon="30.2753"></trkpt>
      <trkpt lat="55.12125" lon="30.27634"></trkpt>
      <trkpt lat="55.1181" lon="30.27998"></trkpt>
      <trkpt lat="55.11677" lon="30.28153"></trkpt>
      <trkpt lat="55.11572" lon="30.28201"></trkpt>
      <trkpt lat="55.11381" lon="30.2824"></trkpt>
      <trkpt lat="55.11232" lon="30.28268"></trkpt>
      <trkpt lat="55.10969" lon="30.28322"></trkpt>
      <trkpt lat="55.10512" lon="30.28419"></trkpt>
      <trkpt lat="55.10328" lon="30.2842"></trkpt>
      <trkpt lat="55.10301" lon="30.28414"></trkpt>
      <trkpt lat="55.10292" lon="30.2846"></trkpt>
      <trkpt lat="55.10307" lon="30.28512"></trkpt>
      <trkpt lat="55.10303" lon="30.28809"></trkpt>
      <trkpt lat="55.10329" lon="30.2948"></trkpt>
      <trkpt lat="55.1028" lon="30.29631"></trkpt>
      <trkpt lat="55.09814" lon="30.29975"></trkpt>
      <trkpt lat="55.09522" lon="30.30219"></trkpt>
      <trkpt lat="55.08959" lon="30.30703"></trkpt>
      <trkpt lat="55.08866" lon="30.30777"></trkpt>
      <trkpt lat="55.08709" lon="30.30864"></trkpt>
      <trkpt lat="55.08464" lon="30.3089"></trkpt>
      <trkpt lat="55.08091" lon="30.30848"></trkpt>
      <trkpt lat="55.07443" lon="30.30803"></trkpt>
      <trkpt lat="55.07068" lon="30.30871"></trkpt>
      <trkpt lat="55.06177" lon="30.31058"></trkpt>
      <trkpt lat="55.05461" lon="30.312"></trkpt>
      <trkpt lat="55.05089" lon="30.31278"></trkpt>
      <trkpt lat="55.04805" lon="30.31339"></trkpt>
      <trkpt lat="55.04506" lon="30.31444"></trkpt>
      <trkpt lat="55.04" lon="30.31767"></trkpt>
      <trkpt lat="55.03497" lon="30.32113"></trkpt>
      <trkpt lat="55.03021" lon="30.3231"></trkpt>
      <trkpt lat="55.02473" lon="30.32469"></trkpt>
      <trkpt lat="55.0157" lon="30.32905"></trkpt>
      <trkpt lat="55.01098" lon="30.33143"></trkpt>
      <trkpt lat="55.00117" lon="30.33645"></trkpt>
      <trkpt lat="54.99585" lon="30.33909"></trkpt>
      <trkpt lat="54.9895" lon="30.34208"></trkpt>
      <trkpt lat="54.98033" lon="30.34655"></trkpt>
      <trkpt lat="54.97377" lon="30.3498"></trkpt>
      <trkpt lat="54.96477" lon="30.35426"></trkpt>
      <trkpt lat="54.96094" lon="30.35581"></trkpt>
      <trkpt lat="54.95121" lon="30.3602"></trkpt>
      <trkpt lat="54.94143" lon="30.36596"></trkpt>
      <trkpt lat="54.93058" lon="30.37113"></trkpt>
      <trkpt lat="54.92257" lon="30.37449"></trkpt>
      <trkpt lat="54.91097" lon="30.37575"></trkpt>
      <trkpt lat="54.90419" lon="30.37645"></trkpt>
      <trkpt lat="54.89933" lon="30.377"></trkpt>
      <trkpt lat="54.89622" lon="30.37902"></trkpt>
      <trkpt lat="54.89121" lon="30.38464"></trkpt>
      <trkpt lat="54.88814" lon="30.38752"></trkpt>
      <trkpt lat="54.88397" lon="30.39018"></trkpt>
      <trkpt lat="54.88143" lon="30.39076"></trkpt>
      <trkpt lat="54.87605" lon="30.39007"></trkpt>
      <trkpt lat="54.87365" lon="30.39028"></trkpt>
      <trkpt lat="54.85792" lon="30.39491"></trkpt>
      <trkpt lat="54.83913" lon="30.40054"></trkpt>
      <trkpt lat="54.82292" lon="30.4054"></trkpt>
      <trkpt lat="54.81856" lon="30.40669"></trkpt>
      <trkpt lat="54.8032" lon="30.41123"></trkpt>
      <trkpt lat="54.79371" lon="30.41398"></trkpt>
      <trkpt lat="54.7828" lon="30.41713"></trkpt>
      <trkpt lat="54.76873" lon="30.42121"></trkpt>
      <trkpt lat="54.75937" lon="30.4239"></trkpt>
      <trkpt lat="54.75031" lon="30.42626"></trkpt>
      <trkpt lat="54.73337" lon="30.43084"></trkpt>
      <trkpt lat="54.72387" lon="30.43347"></trkpt>
      <trkpt lat="54.71403" lon="30.43624"></trkpt>
      <trkpt lat="54.70815" lon="30.43843"></trkpt>
      <trkpt lat="54.7013" lon="30.44119"></trkpt>
      <trkpt lat="54.69756" lon="30.44216"></trkpt>
      <trkpt lat="54.68808" lon="30.43873"></trkpt>
      <trkpt lat="54.68335" lon="30.43922"></trkpt>
      <trkpt lat="54.67635" lon="30.43983"></trkpt>
      <trkpt lat="54.66867" lon="30.43853"></trkpt>
      <trkpt lat="54.66235" lon="30.43727"></trkpt>
      <trkpt lat="54.65523" lon="30.43651"></trkpt>
      <trkpt lat="54.64896" lon="30.43765"></trkpt>
      <trkpt lat="54.64064" lon="30.43915"></trkpt>
      <trkpt lat="54.63485" lon="30.43944"></trkpt>
      <trkpt lat="54.62537" lon="30.43982"></trkpt>
      <trkpt lat="54.62304" lon="30.43968"></trkpt>
      <trkpt lat="54.61986" lon="30.43885"></trkpt>
      <trkpt lat="54.61592" lon="30.43763"></trkpt>
      <trkpt lat="54.61238" lon="30.43855"></trkpt>
      <trkpt lat="54.60367" lon="30.4413"></trkpt>
      <trkpt lat="54.59771" lon="30.44313"></trkpt>
      <trkpt lat="54.59211" lon="30.44409"></trkpt>
      <trkpt lat="54.59107" lon="30.43636"></trkpt>
      <trkpt lat="54.58819" lon="30.43519"></trkpt>
      <trkpt lat="54.58465" lon="30.43423"></trkpt>
      <trkpt lat="54.58462" lon="30.43134"></trkpt>
      <trkpt lat="54.58189" lon="30.42994"></trkpt>
      <trkpt lat="54.57524" lon="30.42664"></trkpt>
      <trkpt lat="54.57039" lon="30.42517"></trkpt>
      <trkpt lat="54.56699" lon="30.42499"></trkpt>
      <trkpt lat="54.56128" lon="30.42546"></trkpt>
      <trkpt lat="54.55796" lon="30.42551"></trkpt>
      <trkpt lat="54.55507" lon="30.42442"></trkpt>
      <trkpt lat="54.55171" lon="30.42297"></trkpt>
      <trkpt lat="54.54922" lon="30.42216"></trkpt>
      <trkpt lat="54.54865" lon="30.42181"></trkpt>
      <trkpt lat="54.54821" lon="30.42176"></trkpt>
      <trkpt lat="54.54778" lon="30.42167"></trkpt>
      <trkpt lat="54.54738" lon="30.42125"></trkpt>
      <trkpt lat="54.54742" lon="30.42091"></trkpt>
      <trkpt lat="54.5475" lon="30.42072"></trkpt>
      <trkpt lat="54.54709" lon="30.41768"></trkpt>
      <trkpt lat="54.54653" lon="30.4144"></trkpt>
      <trkpt lat="54.54575" lon="30.41322"></trkpt>
      <trkpt lat="54.54423" lon="30.41111"></trkpt>
      <trkpt lat="54.54443" lon="30.41009"></trkpt>
      <trkpt lat="54.54357" lon="30.40839"></trkpt>
      <trkpt lat="54.54168" lon="30.40702"></trkpt>
      <trkpt lat="54.5394" lon="30.40563"></trkpt>
      <trkpt lat="54.53916" lon="30.402"></trkpt>
      <trkpt lat="54.53899" lon="30.39976"></trkpt>
      <trkpt lat="54.53818" lon="30.39895"></trkpt>
      <trkpt lat="54.53769" lon="30.40012"></trkpt>
      <trkpt lat="54.53732" lon="30.39956"></trkpt>
      <trkpt lat="54.5361" lon="30.3981"></trkpt>
      <trkpt lat="54.53419" lon="30.39694"></trkpt>
      <trkpt lat="54.53227" lon="30.39594"></trkpt>
      <trkpt lat="54.53183" lon="30.39468"></trkpt>
      <trkpt lat="54.53157" lon="30.39436"></trkpt>
      <trkpt lat="54.52962" lon="30.3934"></trkpt>
      <trkpt lat="54.52867" lon="30.39229"></trkpt>
      <trkpt lat="54.52803" lon="30.39343"></trkpt>
      <trkpt lat="54.52556" lon="30.38884"></trkpt>
      <trkpt lat="54.52433" lon="30.38592"></trkpt>
      <trkpt lat="54.52388" lon="30.38535"></trkpt>
      <trkpt lat="54.52331" lon="30.38418"></trkpt>
      <trkpt lat="54.52199" lon="30.38114"></trkpt>
      <trkpt lat="54.52108" lon="30.37677"></trkpt>
    </trkseg>
  </trk>
</gpx>
