<?xml version="1.0" encoding="UTF-8"?>
<gpx version="1.1" creator="bike-reports.velotrips" xmlns="http://www.opengis.net/gpx/1.1">
  <trk>
    <name>День 1</name>
    <trkseg>
      <trkpt lat="52.72296" lon="41.46058"></trkpt>
      <trkpt lat="52.72409" lon="41.46027"></trkpt>
      <trkpt lat="52.72496" lon="41.4599"></trkpt>
      <trkpt lat="52.72182" lon="41.45566"></trkpt>
      <trkpt lat="52.72109" lon="41.45063"></trkpt>
      <trkpt lat="52.72145" lon="41.44509"></trkpt>
      <trkpt lat="52.7221" lon="41.44223"></trkpt>
      <trkpt lat="52.72138" lon="41.43574"></trkpt>
      <trkpt lat="52.72012" lon="41.42646"></trkpt>
      <trkpt lat="52.71897" lon="41.42186"></trkpt>
      <trkpt lat="52.72005" lon="41.41285"></trkpt>
      <trkpt lat="52.72078" lon="41.40658"></trkpt>
      <trkpt lat="52.72002" lon="41.40236"></trkpt>
      <trkpt lat="52.7204" lon="41.39653"></trkpt>
      <trkpt lat="52.72147" lon="41.38656"></trkpt>
      <trkpt lat="52.72202" lon="41.38141"></trkpt>
      <trkpt lat="52.72339" lon="41.36955"></trkpt>
      <trkpt lat="52.72985" lon="41.31997"></trkpt>
      <trkpt lat="52.73285" lon="41.30118"></trkpt>
      <trkpt lat="52.7346" lon="41.28444"></trkpt>
      <trkpt lat="52.73706" lon="41.25899"></trkpt>
      <trkpt lat="52.74015" lon="41.23356"></trkpt>
      <trkpt lat="52.7417" lon="41.21138"></trkpt>
      <trkpt lat="52.74571" lon="41.19595"></trkpt>
      <trkpt lat="52.74809" lon="41.1902"></trkpt>
      <trkpt lat="52.75739" lon="41.1497"></trkpt>
      <trkpt lat="52.76473" lon="41.11019"></trkpt>
      <trkpt lat="52.76757" lon="41.08887"></trkpt>
      <trkpt lat="52.76957" lon="41.0571"></trkpt>
      <trkpt lat="52.77349" lon="41.04569"></trkpt>
      <trkpt lat="52.78405" lon="41.02927"></trkpt>
      <trkpt lat="52.78806" lon="41.02147"></trkpt>
      <trkpt lat="52.78863" lon="41.01984"></trkpt>
      <trkpt lat="52.8037" lon="40.97563"></trkpt>
      <trkpt lat="52.80496" lon="40.97183"></trkpt>
      <trkpt lat="52.82503" lon="40.91319"></trkpt>
      <trkpt lat="52.82517" lon="40.91279"></trkpt>
      <trkpt lat="52.84484" lon="40.82553"></trkpt>
      <trkpt lat="52.84742" lon="40.81407"></trkpt>
      <trkpt lat="52.8484" lon="40.81128"></trkpt>
      <trkpt lat="52.84904" lon="40.80685"></trkpt>
      <trkpt lat="52.85435" lon="40.78664"></trkpt>
      <trkpt lat="52.85807" lon="40.78362"></trkpt>
      <trkpt lat="52.86512" lon="40.7827"></trkpt>
      <trkpt lat="52.87188" lon="40.78204"></trkpt>
      <trkpt lat="52.8751" lon="40.78234"></trkpt>
      <trkpt lat="52.87632" lon="40.78081"></trkpt>
      <trkpt lat="52.87807" lon="40.77293"></trkpt>
      <trkpt lat="52.87526" lon="40.76859"></trkpt>
      <trkpt lat="52.87377" lon="40.76419"></trkpt>
      <trkpt lat="52.87364" lon="40.76254"></trkpt>
      <trkpt lat="52.87432" lon="40.75851"></trkpt>
      <trkpt lat="52.87479" lon="40.7547"></trkpt>
      <trkpt lat="52.87615" lon="40.75051"></trkpt>
      <trkpt lat="52.87979" lon="40.73934"></trkpt>
      <trkpt lat="52.88725" lon="40.71258"></trkpt>
      <trkpt lat="52.88767" lon="40.71036"></trkpt>
      <trkpt lat="52.89164" lon="40.6958"></trkpt>
      <trkpt lat="52.89199" lon="40.69437"></trkpt>
      <trkpt lat="52.90638" lon="40.64135"></trkpt>
      <trkpt lat="52.90989" lon="40.6341"></trkpt>
      <trkpt lat="52.91124" lon="40.63345"></trkpt>
      <trkpt lat="52.91069" lon="40.63481"></trkpt>
      <trkpt lat="52.90745" lon="40.62469"></trkpt>
      <trkpt lat="52.90588" lon="40.61967"></trkpt>
      <trkpt lat="52.89066" lon="40.57212"></trkpt>
      <trkpt lat="52.88446" lon="40.55141"></trkpt>
      <trkpt lat="52.88283" lon="40.54373"></trkpt>
      <trkpt lat="52.8833" lon="40.54001"></trkpt>
      <trkpt lat="52.8816" lon="40.53122"></trkpt>
      <trkpt lat="52.88266" lon="40.52431"></trkpt>
      <trkpt lat="52.88317" lon="40.5176"></trkpt>
      <trkpt lat="52.88832" lon="40.51012"></trkpt>
      <trkpt lat="52.89209" lon="40.50313"></trkpt>
      <trkpt lat="52.89456" lon="40.50358"></trkpt>
      <trkpt lat="52.89348" lon="40.50217"></trkpt>
      <trkpt lat="52.89385" lon="40.49635"></trkpt>
      <trkpt lat="52.8918" lon="40.49065"></trkpt>
      <trkpt lat="52.89206" lon="40.48439"></trkpt>
      <trkpt lat="52.89226" lon="40.47673"></trkpt>
      <trkpt lat="52.89205" lon="40.4671"></trkpt>
      <trkpt lat="52.8908" lon="40.45507"></trkpt>
      <trkpt lat="52.88201" lon="40.44402"></trkpt>
      <trkpt lat="52.87892" lon="40.43136"></trkpt>
      <trkpt lat="52.87208" lon="40.41789"></trkpt>
      <trkpt lat="52.86619" lon="40.40746"></trkpt>
      <trkpt lat="52.85893" lon="40.3924"></trkpt>
      <trkpt lat="52.85593" lon="40.37647"></trkpt>
      <trkpt lat="52.85469" lon="40.36251"></trkpt>
      <trkpt lat="52.85429" lon="40.3577"></trkpt>
      <trkpt lat="52.85308" lon="40.3513"></trkpt>
      <trkpt lat="52.85159" lon="40.34448"></trkpt>
      <trkpt lat="52.84493" lon="40.32758"></trkpt>
      <trkpt lat="52.83718" lon="40.31365"></trkpt>
      <trkpt lat="52.83494" lon="40.29816"></trkpt>
      <trkpt lat="52.83378" lon="40.28527"></trkpt>
      <trkpt lat="52.83152" lon="40.26851"></trkpt>
      <trkpt lat="52.82881" lon="40.24139"></trkpt>
      <trkpt lat="52.83229" lon="40.20331"></trkpt>
      <trkpt lat="52.84121" lon="40.16699"></trkpt>
      <trkpt lat="52.85018" lon="40.14876"></trkpt>
      <trkpt lat="52.85136" lon="40.14131"></trkpt>
      <trkpt lat="52.85117" lon="40.11919"></trkpt>
      <trkpt lat="52.85255" lon="40.07013"></trkpt>
      <trkpt lat="52.85128" lon="40.04107"></trkpt>
      <trkpt lat="52.84758" lon="40.02453"></trkpt>
      <trkpt lat="52.84197" lon="40.0049"></trkpt>
      <trkpt lat="52.83762" lon="39.99941"></trkpt>
      <trkpt lat="52.83759" lon="39.99283"></trkpt>
      <trkpt lat="52.83561" lon="39.98217"></trkpt>
      <trkpt lat="52.83389" lon="39.974"></trkpt>
      <trkpt lat="52.82664" lon="39.96682"></trkpt>
      <trkpt lat="52.81565" lon="39.93086"></trkpt>
      <trkpt lat="52.8054" lon="39.90189"></trkpt>
      <trkpt lat="52.80301" lon="39.89317"></trkpt>
      <trkpt lat="52.78774" lon="39.87584"></trkpt>
      <trkpt lat="52.78213" lon="39.86758"></trkpt>
      <trkpt lat="52.77418" lon="39.85851"></trkpt>
      <trkpt lat="52.75909" lon="39.85055"></trkpt>
      <trkpt lat="52.74919" lon="39.84921"></trkpt>
      <trkpt lat="52.74035" lon="39.84952"></trkpt>
      <trkpt lat="52.73396" lon="39.84223"></trkpt>
      <trkpt lat="52.73236" lon="39.83347"></trkpt>
      <trkpt lat="52.7293" lon="39.82307"></trkpt>
      <trkpt lat="52.72212" lon="39.80996"></trkpt>
      <trkpt lat="52.71922" lon="39.79343"></trkpt>
      <trkpt lat="52.71686" lon="39.78693"></trkpt>
      <trkpt lat="52.7145" lon="39.78183"></trkpt>
      <trkpt lat="52.71001" lon="39.7845"></trkpt>
      <trkpt lat="52.69644" lon="39.7807"></trkpt>
      <trkpt lat="52.6776" lon="39.77136"></trkpt>
      <trkpt lat="52.66119" lon="39.75323"></trkpt>
      <trkpt lat="52.65874" lon="39.74442"></trkpt>
      <trkpt lat="52.65781" lon="39.7337"></trkpt>
      <trkpt lat="52.65189" lon="39.72439"></trkpt>
      <trkpt lat="52.64647" lon="39.72277"></trkpt>
      <trkpt lat="52.64153" lon="39.70693"></trkpt>
      <trkpt lat="52.64453" lon="39.69203"></trkpt>
      <trkpt lat="52.64654" lon="39.68682"></trkpt>
      <trkpt lat="52.6465" lon="39.68859"></trkpt>
      <trkpt lat="52.64331" lon="39.68682"></trkpt>
      <trkpt lat="52.63925" lon="39.67704"></trkpt>
      <trkpt lat="52.63551" lon="39.66467"></trkpt>
      <trkpt lat="52.6337" lon="39.65881"></trkpt>
      <trkpt lat="52.62691" lon="39.64284"></trkpt>
      <trkpt lat="52.62355" lon="39.63592"></trkpt>
      <trkpt lat="52.62039" lon="39.62837"></trkpt>
      <trkpt lat="52.61847" lon="39.62008"></trkpt>
      <trkpt lat="52.61755" lon="39.61549"></trkpt>
      <trkpt lat="52.61559" lon="39.61234"></trkpt>
      <trkpt lat="52.60983" lon="39.60174"></trkpt>
      <trkpt lat="52.60706" lon="39.59856"></trkpt>
      <trkpt lat="52.60459" lon="39.59537"></trkpt>
      <trkpt lat="52.60256" lon="39.59354"></trkpt>
      <trkpt lat="52.60163" lon="39.59092"></trkpt>
      <trkpt lat="52.60006" lon="39.58987"></trkpt>
      <trkpt lat="52.59907" lon="39.58458"></trkpt>
      <trkpt lat="52.6006" lon="39.57917"></trkpt>
      <trkpt lat="52.60145" lon="39.57313"></trkpt>
      <trkpt lat="52.59738" lon="39.56766"></trkpt>
      <trkpt lat="52.59385" lon="39.56298"></trkpt>
      <trkpt lat="52.59029" lon="39.55783"></trkpt>
      <trkpt lat="52.59285" lon="39.55336"></trkpt>
      <trkpt lat="52.59042" lon="39.54756"></trkpt>
      <trkpt lat="52.58954" lon="39.54213"></trkpt>
      <trkpt lat="52.58851" lon="39.53715"></trkpt>
      <trkpt lat="52.58741" lon="39.53453"></trkpt>
      <trkpt lat="52.5881" lon="39.5313"></trkpt>
      <trkpt lat="52.5909" lon="39.52563"></trkpt>
      <trkpt lat="52.59244" lon="39.51722"></trkpt>
      <trkpt lat="52.59046" lon="39.5133"></trkpt>
      <trkpt lat="52.59319" lon="39.50766"></trkpt>
      <trkpt lat="52.59533" lon="39.50414"></trkpt>
      <trkpt lat="52.59685" lon="39.4982"></trkpt>
      <trkpt lat="52.59722" lon="39.49668"></trkpt>
      <trkpt lat="52.5981" lon="39.49286"></trkpt>
      <trkpt lat="52.60224" lon="39.46905"></trkpt>
      <trkpt lat="52.60474" lon="39.45904"></trkpt>
      <trkpt lat="52.60601" lon="39.45155"></trkpt>
      <trkpt lat="52.60826" lon="39.44721"></trkpt>
      <trkpt lat="52.61291" lon="39.43914"></trkpt>
      <trkpt lat="52.6174" lon="39.43135"></trkpt>
      <trkpt lat="52.61964" lon="39.42204"></trkpt>
      <trkpt lat="52.61301" lon="39.4149"></trkpt>
      <trkpt lat="52.60838" lon="39.40513"></trkpt>
      <trkpt lat="52.60136" lon="39.40005"></trkpt>
      <trkpt lat="52.60212" lon="39.3689"></trkpt>
      <trkpt lat="52.59769" lon="39.35556"></trkpt>
      <trkpt lat="52.59502" lon="39.34508"></trkpt>
      <trkpt lat="52.59485" lon="39.33011"></trkpt>
      <trkpt lat="52.59847" lon="39.30242"></trkpt>
      <trkpt lat="52.59851" lon="39.29029"></trkpt>
      <trkpt lat="52.60275" lon="39.28338"></trkpt>
      <trkpt lat="52.59505" lon="39.25446"></trkpt>
      <trkpt lat="52.5965" lon="39.2398"></trkpt>
      <trkpt lat="52.59853" lon="39.22364"></trkpt>
      <trkpt lat="52.59688" lon="39.20795"></trkpt>
      <trkpt lat="52.59677" lon="39.19241"></trkpt>
      <trkpt lat="52.59452" lon="39.18652"></trkpt>
      <trkpt lat="52.59281" lon="39.17677"></trkpt>
      <trkpt lat="52.59681" lon="39.15298"></trkpt>
      <trkpt lat="52.59534" lon="39.14544"></trkpt>
      <trkpt lat="52.59503" lon="39.13708"></trkpt>
      <trkpt lat="52.60036" lon="39.13019"></trkpt>
      <trkpt lat="52.60274" lon="39.12561"></trkpt>
      <trkpt lat="52.60465" lon="39.10833"></trkpt>
      <trkpt lat="52.60793" lon="39.09824"></trkpt>
      <trkpt lat="52.61082" lon="39.08763"></trkpt>
      <trkpt lat="52.61253" lon="39.07834"></trkpt>
      <trkpt lat="52.61115" lon="39.07104"></trkpt>
      <trkpt lat="52.60673" lon="39.06354"></trkpt>
      <trkpt lat="52.60985" lon="39.05168"></trkpt>
      <trkpt lat="52.60972" lon="39.04232"></trkpt>
      <trkpt lat="52.61091" lon="39.02574"></trkpt>
      <trkpt lat="52.61157" lon="39.00884"></trkpt>
      <trkpt lat="52.61373" lon="38.99937"></trkpt>
      <trkpt lat="52.61583" lon="38.98839"></trkpt>
      <trkpt lat="52.61799" lon="38.97502"></trkpt>
      <trkpt lat="52.61782" lon="38.97019"></trkpt>
      <trkpt lat="52.61646" lon="38.96328"></trkpt>
      <trkpt lat="52.61369" lon="38.95927"></trkpt>
      <trkpt lat="52.61062" lon="38.95272"></trkpt>
      <trkpt lat="52.60813" lon="38.94503"></trkpt>
      <trkpt lat="52.60443" lon="38.93075"></trkpt>
      <trkpt lat="52.58162" lon="38.91653"></trkpt>
      <trkpt lat="52.5829" lon="38.89858"></trkpt>
      <trkpt lat="52.58623" lon="38.83208"></trkpt>
      <trkpt lat="52.59284" lon="38.81174"></trkpt>
      <trkpt lat="52.59844" lon="38.80847"></trkpt>
      <trkpt lat="52.60061" lon="38.79474"></trkpt>
      <trkpt lat="52.60548" lon="38.77046"></trkpt>
      <trkpt lat="52.6062" lon="38.76771"></trkpt>
      <trkpt lat="52.60826" lon="38.74524"></trkpt>
      <trkpt lat="52.61107" lon="38.71825"></trkpt>
      <trkpt lat="52.60774" lon="38.70974"></trkpt>
      <trkpt lat="52.5824" lon="38.6909"></trkpt>
      <trkpt lat="52.57152" lon="38.68924"></trkpt>
      <trkpt lat="52.56298" lon="38.68191"></trkpt>
      <trkpt lat="52.56479" lon="38.67853"></trkpt>
      <trkpt lat="52.5667" lon="38.67114"></trkpt>
      <trkpt lat="52.5816" lon="38.62971"></trkpt>
      <trkpt lat="52.58924" lon="38.60416"></trkpt>
      <trkpt lat="52.59612" lon="38.57845"></trkpt>
      <trkpt lat="52.5987" lon="38.56968"></trkpt>
      <trkpt lat="52.60124" lon="38.56036"></trkpt>
      <trkpt lat="52.60266" lon="38.55526"></trkpt>
      <trkpt lat="52.6064" lon="38.54423"></trkpt>
      <trkpt lat="52.60603" lon="38.53876"></trkpt>
      <trkpt lat="52.60462" lon="38.52765"></trkpt>
      <trkpt lat="52.60566" lon="38.52229"></trkpt>
      <trkpt lat="52.60594" lon="38.52575"></trkpt>
    </trkseg>
  </trk>
</gpx>
