<?xml version="1.0" encoding="UTF-8"?>
<gpx version="1.1" creator="bike-reports.velotrips" xmlns="http://www.opengis.net/gpx/1.1">
  <trk>
    <name>День 1</name>
    <trkseg>
      <trkpt lat="51.50994" lon="-0.13435"></trkpt>
      <trkpt lat="51.51006" lon="-0.13315"></trkpt>
      <trkpt lat="51.50796" lon="-0.13123"></trkpt>
      <trkpt lat="51.5085" lon="-0.12881"></trkpt>
      <trkpt lat="51.50929" lon="-0.12426"></trkpt>
      <trkpt lat="51.51107" lon="-0.11984"></trkpt>
      <trkpt lat="51.51231" lon="-0.11601"></trkpt>
      <trkpt lat="51.51367" lon="-0.11189"></trkpt>
      <trkpt lat="51.51414" lon="-0.10791"></trkpt>
      <trkpt lat="51.51414" lon="-0.1039"></trkpt>
      <trkpt lat="51.51379" lon="-0.10017"></trkpt>
      <trkpt lat="51.51269" lon="-0.0952"></trkpt>
      <trkpt lat="51.51126" lon="-0.08904"></trkpt>
      <trkpt lat="51.51051" lon="-0.08668"></trkpt>
      <trkpt lat="51.50624" lon="-0.08818"></trkpt>
      <trkpt lat="51.50486" lon="-0.08365"></trkpt>
      <trkpt lat="51.50526" lon="-0.08059"></trkpt>
      <trkpt lat="51.50469" lon="-0.07832"></trkpt>
      <trkpt lat="51.50392" lon="-0.07691"></trkpt>
      <trkpt lat="51.50252" lon="-0.07755"></trkpt>
      <trkpt lat="51.50049" lon="-0.07352"></trkpt>
      <trkpt lat="51.49864" lon="-0.06946"></trkpt>
      <trkpt lat="51.49839" lon="-0.06281"></trkpt>
      <trkpt lat="51.49877" lon="-0.05835"></trkpt>
      <trkpt lat="51.49504" lon="-0.05757"></trkpt>
      <trkpt lat="51.49477" lon="-0.05508"></trkpt>
      <trkpt lat="51.49476" lon="-0.05037"></trkpt>
      <trkpt lat="51.49308" lon="-0.04697"></trkpt>
      <trkpt lat="51.49137" lon="-0.04398"></trkpt>
      <trkpt lat="51.48765" lon="-0.03756"></trkpt>
      <trkpt lat="51.48393" lon="-0.03178"></trkpt>
      <trkpt lat="51.48167" lon="-0.02665"></trkpt>
      <trkpt lat="51.48117" lon="-0.01934"></trkpt>
      <trkpt lat="51.4815" lon="-0.01303"></trkpt>
      <trkpt lat="51.48215" lon="-0.0089"></trkpt>
      <trkpt lat="51.48265" lon="-0.00748"></trkpt>
      <trkpt lat="51.48347" lon="-0.00494"></trkpt>
      <trkpt lat="51.4819" lon="-0.00236"></trkpt>
      <trkpt lat="51.47976" lon="-0.00086"></trkpt>
      <trkpt lat="51.47847" lon="0.00069"></trkpt>
      <trkpt lat="51.4778" lon="0.00082"></trkpt>
      <trkpt lat="51.47774" lon="-0.00096"></trkpt>
      <trkpt lat="51.47412" lon="0.00252"></trkpt>
      <trkpt lat="51.47519" lon="0.01026"></trkpt>
      <trkpt lat="51.47699" lon="0.01873"></trkpt>
      <trkpt lat="51.48106" lon="0.01996"></trkpt>
      <trkpt lat="51.48109" lon="0.02193"></trkpt>
      <trkpt lat="51.47983" lon="0.02261"></trkpt>
      <trkpt lat="51.47962" lon="0.0287"></trkpt>
      <trkpt lat="51.4786" lon="0.03284"></trkpt>
      <trkpt lat="51.47435" lon="0.03751"></trkpt>
      <trkpt lat="51.47338" lon="0.04391"></trkpt>
      <trkpt lat="51.47209" lon="0.0501"></trkpt>
      <trkpt lat="51.47097" lon="0.05506"></trkpt>
      <trkpt lat="51.46845" lon="0.05388"></trkpt>
      <trkpt lat="51.46386" lon="0.05647"></trkpt>
      <trkpt lat="51.46139" lon="0.059"></trkpt>
      <trkpt lat="51.46223" lon="0.0659"></trkpt>
      <trkpt lat="51.46273" lon="0.07166"></trkpt>
      <trkpt lat="51.46101" lon="0.07654"></trkpt>
      <trkpt lat="51.45807" lon="0.07824"></trkpt>
      <trkpt lat="51.45664" lon="0.08414"></trkpt>
      <trkpt lat="51.45499" lon="0.09092"></trkpt>
      <trkpt lat="51.45376" lon="0.09594"></trkpt>
      <trkpt lat="51.45193" lon="0.10129"></trkpt>
      <trkpt lat="51.45155" lon="0.10345"></trkpt>
      <trkpt lat="51.45058" lon="0.10338"></trkpt>
      <trkpt lat="51.45001" lon="0.10764"></trkpt>
      <trkpt lat="51.44804" lon="0.1166"></trkpt>
      <trkpt lat="51.44814" lon="0.12218"></trkpt>
      <trkpt lat="51.44824" lon="0.12856"></trkpt>
      <trkpt lat="51.44627" lon="0.1306"></trkpt>
      <trkpt lat="51.44507" lon="0.13549"></trkpt>
      <trkpt lat="51.44721" lon="0.14221"></trkpt>
      <trkpt lat="51.44801" lon="0.14426"></trkpt>
      <trkpt lat="51.448" lon="0.15128"></trkpt>
      <trkpt lat="51.44655" lon="0.15604"></trkpt>
      <trkpt lat="51.44454" lon="0.16016"></trkpt>
      <trkpt lat="51.44403" lon="0.16232"></trkpt>
      <trkpt lat="51.44372" lon="0.16631"></trkpt>
      <trkpt lat="51.44237" lon="0.17019"></trkpt>
      <trkpt lat="51.44195" lon="0.17203"></trkpt>
      <trkpt lat="51.44098" lon="0.17577"></trkpt>
      <trkpt lat="51.43964" lon="0.18244"></trkpt>
      <trkpt lat="51.44031" lon="0.19143"></trkpt>
      <trkpt lat="51.4412" lon="0.19654"></trkpt>
      <trkpt lat="51.43825" lon="0.20381"></trkpt>
      <trkpt lat="51.43816" lon="0.21218"></trkpt>
      <trkpt lat="51.43788" lon="0.21643"></trkpt>
      <trkpt lat="51.43791" lon="0.22348"></trkpt>
      <trkpt lat="51.43794" lon="0.22701"></trkpt>
      <trkpt lat="51.43798" lon="0.23226"></trkpt>
      <trkpt lat="51.43806" lon="0.23708"></trkpt>
      <trkpt lat="51.43783" lon="0.24037"></trkpt>
      <trkpt lat="51.43808" lon="0.24461"></trkpt>
      <trkpt lat="51.43812" lon="0.25332"></trkpt>
      <trkpt lat="51.43761" lon="0.2591"></trkpt>
      <trkpt lat="51.43668" lon="0.26373"></trkpt>
      <trkpt lat="51.43523" lon="0.27162"></trkpt>
      <trkpt lat="51.43438" lon="0.27698"></trkpt>
      <trkpt lat="51.43441" lon="0.27914"></trkpt>
      <trkpt lat="51.43271" lon="0.28711"></trkpt>
      <trkpt lat="51.43121" lon="0.29352"></trkpt>
      <trkpt lat="51.43081" lon="0.2973"></trkpt>
      <trkpt lat="51.43075" lon="0.30264"></trkpt>
      <trkpt lat="51.43059" lon="0.30822"></trkpt>
      <trkpt lat="51.43065" lon="0.3157"></trkpt>
      <trkpt lat="51.43154" lon="0.31822"></trkpt>
      <trkpt lat="51.43235" lon="0.31799"></trkpt>
      <trkpt lat="51.4317" lon="0.32144"></trkpt>
      <trkpt lat="51.42925" lon="0.32557"></trkpt>
      <trkpt lat="51.42718" lon="0.33121"></trkpt>
      <trkpt lat="51.4268" lon="0.33134"></trkpt>
      <trkpt lat="51.42518" lon="0.3346"></trkpt>
      <trkpt lat="51.42324" lon="0.34058"></trkpt>
      <trkpt lat="51.4213" lon="0.34791"></trkpt>
      <trkpt lat="51.41935" lon="0.35448"></trkpt>
      <trkpt lat="51.41748" lon="0.35961"></trkpt>
      <trkpt lat="51.41574" lon="0.36397"></trkpt>
      <trkpt lat="51.41406" lon="0.36916"></trkpt>
      <trkpt lat="51.41057" lon="0.37796"></trkpt>
      <trkpt lat="51.40987" lon="0.38506"></trkpt>
      <trkpt lat="51.40852" lon="0.38742"></trkpt>
      <trkpt lat="51.40623" lon="0.39364"></trkpt>
      <trkpt lat="51.40447" lon="0.39924"></trkpt>
      <trkpt lat="51.40359" lon="0.40337"></trkpt>
      <trkpt lat="51.40259" lon="0.40704"></trkpt>
      <trkpt lat="51.40168" lon="0.41211"></trkpt>
      <trkpt lat="51.40141" lon="0.41674"></trkpt>
      <trkpt lat="51.40294" lon="0.42084"></trkpt>
      <trkpt lat="51.40113" lon="0.427"></trkpt>
      <trkpt lat="51.40003" lon="0.43533"></trkpt>
      <trkpt lat="51.40045" lon="0.44163"></trkpt>
      <trkpt lat="51.40134" lon="0.44561"></trkpt>
      <trkpt lat="51.40324" lon="0.44943"></trkpt>
      <trkpt lat="51.40534" lon="0.45333"></trkpt>
      <trkpt lat="51.40344" lon="0.45389"></trkpt>
      <trkpt lat="51.40168" lon="0.45407"></trkpt>
      <trkpt lat="51.3994" lon="0.45481"></trkpt>
      <trkpt lat="51.39886" lon="0.4599"></trkpt>
      <trkpt lat="51.3987" lon="0.46918"></trkpt>
      <trkpt lat="51.39779" lon="0.47518"></trkpt>
      <trkpt lat="51.39718" lon="0.48043"></trkpt>
      <trkpt lat="51.39682" lon="0.48428"></trkpt>
      <trkpt lat="51.39647" lon="0.48808"></trkpt>
      <trkpt lat="51.39597" lon="0.49308"></trkpt>
      <trkpt lat="51.3933" lon="0.49962"></trkpt>
      <trkpt lat="51.39143" lon="0.50215"></trkpt>
      <trkpt lat="51.38821" lon="0.50514"></trkpt>
      <trkpt lat="51.38845" lon="0.50488"></trkpt>
      <trkpt lat="51.38923" lon="0.50231"></trkpt>
      <trkpt lat="51.38968" lon="0.50143"></trkpt>
      <trkpt lat="51.39001" lon="0.50289"></trkpt>
      <trkpt lat="51.38638" lon="0.50693"></trkpt>
      <trkpt lat="51.38457" lon="0.50799"></trkpt>
      <trkpt lat="51.38091" lon="0.5081"></trkpt>
      <trkpt lat="51.38223" lon="0.50792"></trkpt>
      <trkpt lat="51.3834" lon="0.50884"></trkpt>
      <trkpt lat="51.38256" lon="0.51974"></trkpt>
      <trkpt lat="51.38369" lon="0.52212"></trkpt>
      <trkpt lat="51.38545" lon="0.52476"></trkpt>
      <trkpt lat="51.38887" lon="0.52531"></trkpt>
      <trkpt lat="51.39355" lon="0.52934"></trkpt>
      <trkpt lat="51.39744" lon="0.5337"></trkpt>
      <trkpt lat="51.39798" lon="0.53237"></trkpt>
      <trkpt lat="51.39809" lon="0.53353"></trkpt>
      <trkpt lat="51.40074" lon="0.53645"></trkpt>
      <trkpt lat="51.39925" lon="0.54024"></trkpt>
      <trkpt lat="51.39698" lon="0.54896"></trkpt>
      <trkpt lat="51.39536" lon="0.55191"></trkpt>
      <trkpt lat="51.39467" lon="0.55717"></trkpt>
      <trkpt lat="51.39439" lon="0.5627"></trkpt>
      <trkpt lat="51.39375" lon="0.56852"></trkpt>
      <trkpt lat="51.39149" lon="0.57235"></trkpt>
      <trkpt lat="51.39155" lon="0.57432"></trkpt>
      <trkpt lat="51.39119" lon="0.5768"></trkpt>
      <trkpt lat="51.39003" lon="0.58245"></trkpt>
      <trkpt lat="51.39073" lon="0.58946"></trkpt>
      <trkpt lat="51.38709" lon="0.59256"></trkpt>
      <trkpt lat="51.38846" lon="0.5971"></trkpt>
      <trkpt lat="51.38998" lon="0.60262"></trkpt>
    </trkseg>
  </trk>
  <trk>
    <name>День 2</name>
    <trkseg>
      <trkpt lat="51.39039" lon="0.60215"></trkpt>
      <trkpt lat="51.38833" lon="0.5969"></trkpt>
      <trkpt lat="51.38575" lon="0.59857"></trkpt>
      <trkpt lat="51.38249" lon="0.60329"></trkpt>
      <trkpt lat="51.37897" lon="0.61104"></trkpt>
      <trkpt lat="51.37843" lon="0.61726"></trkpt>
      <trkpt lat="51.3766" lon="0.61376"></trkpt>
      <trkpt lat="51.374" lon="0.61317"></trkpt>
      <trkpt lat="51.37087" lon="0.60852"></trkpt>
      <trkpt lat="51.36808" lon="0.60523"></trkpt>
      <trkpt lat="51.36519" lon="0.60344"></trkpt>
      <trkpt lat="51.36368" lon="0.60688"></trkpt>
      <trkpt lat="51.36568" lon="0.61177"></trkpt>
      <trkpt lat="51.36605" lon="0.61197"></trkpt>
      <trkpt lat="51.36414" lon="0.60942"></trkpt>
      <trkpt lat="51.36258" lon="0.61213"></trkpt>
      <trkpt lat="51.36108" lon="0.61967"></trkpt>
      <trkpt lat="51.35916" lon="0.62994"></trkpt>
      <trkpt lat="51.35666" lon="0.64261"></trkpt>
      <trkpt lat="51.35537" lon="0.64977"></trkpt>
      <trkpt lat="51.35297" lon="0.6623"></trkpt>
      <trkpt lat="51.35169" lon="0.66957"></trkpt>
      <trkpt lat="51.34999" lon="0.67807"></trkpt>
      <trkpt lat="51.34942" lon="0.68147"></trkpt>
      <trkpt lat="51.34846" lon="0.68833"></trkpt>
      <trkpt lat="51.34713" lon="0.69444"></trkpt>
      <trkpt lat="51.34594" lon="0.70116"></trkpt>
      <trkpt lat="51.3441" lon="0.71218"></trkpt>
      <trkpt lat="51.34215" lon="0.72333"></trkpt>
      <trkpt lat="51.34116" lon="0.73005"></trkpt>
      <trkpt lat="51.34139" lon="0.73207"></trkpt>
      <trkpt lat="51.33973" lon="0.73775"></trkpt>
      <trkpt lat="51.33902" lon="0.74195"></trkpt>
      <trkpt lat="51.33806" lon="0.74765"></trkpt>
      <trkpt lat="51.33688" lon="0.75433"></trkpt>
      <trkpt lat="51.33544" lon="0.76325"></trkpt>
      <trkpt lat="51.33375" lon="0.7727"></trkpt>
      <trkpt lat="51.33193" lon="0.78305"></trkpt>
      <trkpt lat="51.32855" lon="0.79666"></trkpt>
      <trkpt lat="51.32634" lon="0.80603"></trkpt>
      <trkpt lat="51.32369" lon="0.81612"></trkpt>
      <trkpt lat="51.32058" lon="0.82874"></trkpt>
      <trkpt lat="51.31791" lon="0.84189"></trkpt>
      <trkpt lat="51.31666" lon="0.84779"></trkpt>
      <trkpt lat="51.31528" lon="0.85552"></trkpt>
      <trkpt lat="51.31436" lon="0.8606"></trkpt>
      <trkpt lat="51.31321" lon="0.86679"></trkpt>
      <trkpt lat="51.31168" lon="0.87449"></trkpt>
      <trkpt lat="51.31108" lon="0.8761"></trkpt>
      <trkpt lat="51.30991" lon="0.88227"></trkpt>
      <trkpt lat="51.30833" lon="0.89063"></trkpt>
      <trkpt lat="51.30658" lon="0.89959"></trkpt>
      <trkpt lat="51.30494" lon="0.90781"></trkpt>
      <trkpt lat="51.30275" lon="0.91933"></trkpt>
      <trkpt lat="51.30218" lon="0.92552"></trkpt>
      <trkpt lat="51.30004" lon="0.93337"></trkpt>
      <trkpt lat="51.29856" lon="0.9411"></trkpt>
      <trkpt lat="51.29817" lon="0.94547"></trkpt>
      <trkpt lat="51.29625" lon="0.95199"></trkpt>
      <trkpt lat="51.29503" lon="0.9579"></trkpt>
      <trkpt lat="51.2944" lon="0.96247"></trkpt>
      <trkpt lat="51.29346" lon="0.96692"></trkpt>
      <trkpt lat="51.29288" lon="0.9696"></trkpt>
      <trkpt lat="51.29236" lon="0.97213"></trkpt>
      <trkpt lat="51.29184" lon="0.97634"></trkpt>
      <trkpt lat="51.29102" lon="0.98537"></trkpt>
      <trkpt lat="51.29014" lon="0.9914"></trkpt>
      <trkpt lat="51.28918" lon="1.00091"></trkpt>
      <trkpt lat="51.28814" lon="1.00772"></trkpt>
      <trkpt lat="51.28734" lon="1.0141"></trkpt>
      <trkpt lat="51.28667" lon="1.02019"></trkpt>
      <trkpt lat="51.28579" lon="1.02852"></trkpt>
      <trkpt lat="51.28434" lon="1.03532"></trkpt>
      <trkpt lat="51.28274" lon="1.04117"></trkpt>
      <trkpt lat="51.28332" lon="1.04788"></trkpt>
      <trkpt lat="51.28372" lon="1.05622"></trkpt>
      <trkpt lat="51.28153" lon="1.06387"></trkpt>
      <trkpt lat="51.27907" lon="1.073"></trkpt>
      <trkpt lat="51.27843" lon="1.07452"></trkpt>
      <trkpt lat="51.27889" lon="1.07655"></trkpt>
      <trkpt lat="51.27943" lon="1.07845"></trkpt>
      <trkpt lat="51.27907" lon="1.07999"></trkpt>
      <trkpt lat="51.27928" lon="1.08115"></trkpt>
      <trkpt lat="51.2783" lon="1.08139"></trkpt>
      <trkpt lat="51.27909" lon="1.07985"></trkpt>
      <trkpt lat="51.28001" lon="1.0784"></trkpt>
      <trkpt lat="51.27996" lon="1.07863"></trkpt>
      <trkpt lat="51.27885" lon="1.08032"></trkpt>
      <trkpt lat="51.27799" lon="1.08176"></trkpt>
      <trkpt lat="51.27701" lon="1.08412"></trkpt>
      <trkpt lat="51.27348" lon="1.08977"></trkpt>
      <trkpt lat="51.27025" lon="1.09362"></trkpt>
      <trkpt lat="51.26624" lon="1.09842"></trkpt>
      <trkpt lat="51.26328" lon="1.10197"></trkpt>
      <trkpt lat="51.25901" lon="1.10816"></trkpt>
      <trkpt lat="51.25592" lon="1.11347"></trkpt>
      <trkpt lat="51.25257" lon="1.12575"></trkpt>
      <trkpt lat="51.24662" lon="1.13315"></trkpt>
      <trkpt lat="51.24325" lon="1.13559"></trkpt>
      <trkpt lat="51.23897" lon="1.13742"></trkpt>
      <trkpt lat="51.2349" lon="1.14074"></trkpt>
      <trkpt lat="51.2362" lon="1.14725"></trkpt>
      <trkpt lat="51.23687" lon="1.15402"></trkpt>
      <trkpt lat="51.2376" lon="1.15936"></trkpt>
      <trkpt lat="51.23692" lon="1.1639"></trkpt>
      <trkpt lat="51.23479" lon="1.16777"></trkpt>
      <trkpt lat="51.23697" lon="1.17199"></trkpt>
      <trkpt lat="51.23899" lon="1.17805"></trkpt>
      <trkpt lat="51.23778" lon="1.18513"></trkpt>
      <trkpt lat="51.24102" lon="1.18895"></trkpt>
      <trkpt lat="51.244" lon="1.19232"></trkpt>
      <trkpt lat="51.24236" lon="1.19755"></trkpt>
      <trkpt lat="51.24137" lon="1.20205"></trkpt>
      <trkpt lat="51.23751" lon="1.20714"></trkpt>
      <trkpt lat="51.2365" lon="1.20908"></trkpt>
      <trkpt lat="51.2327" lon="1.20561"></trkpt>
      <trkpt lat="51.22989" lon="1.20903"></trkpt>
      <trkpt lat="51.22773" lon="1.21342"></trkpt>
      <trkpt lat="51.22475" lon="1.217"></trkpt>
      <trkpt lat="51.22162" lon="1.22013"></trkpt>
      <trkpt lat="51.21823" lon="1.22135"></trkpt>
      <trkpt lat="51.21464" lon="1.2237"></trkpt>
      <trkpt lat="51.21269" lon="1.22479"></trkpt>
      <trkpt lat="51.2112" lon="1.22821"></trkpt>
      <trkpt lat="51.20931" lon="1.22961"></trkpt>
      <trkpt lat="51.20803" lon="1.23129"></trkpt>
      <trkpt lat="51.20698" lon="1.23413"></trkpt>
      <trkpt lat="51.20562" lon="1.2388"></trkpt>
      <trkpt lat="51.20559" lon="1.24137"></trkpt>
      <trkpt lat="51.20262" lon="1.241"></trkpt>
      <trkpt lat="51.19888" lon="1.23889"></trkpt>
      <trkpt lat="51.19463" lon="1.23776"></trkpt>
      <trkpt lat="51.19405" lon="1.24257"></trkpt>
      <trkpt lat="51.1919" lon="1.24496"></trkpt>
      <trkpt lat="51.18938" lon="1.24448"></trkpt>
      <trkpt lat="51.18709" lon="1.24816"></trkpt>
      <trkpt lat="51.18466" lon="1.25041"></trkpt>
      <trkpt lat="51.1828" lon="1.25296"></trkpt>
      <trkpt lat="51.18051" lon="1.2573"></trkpt>
      <trkpt lat="51.17804" lon="1.25925"></trkpt>
      <trkpt lat="51.17574" lon="1.26298"></trkpt>
      <trkpt lat="51.17238" lon="1.26572"></trkpt>
      <trkpt lat="51.16978" lon="1.26705"></trkpt>
      <trkpt lat="51.1667" lon="1.27068"></trkpt>
      <trkpt lat="51.16295" lon="1.27603"></trkpt>
      <trkpt lat="51.15996" lon="1.28218"></trkpt>
      <trkpt lat="51.16176" lon="1.28668"></trkpt>
      <trkpt lat="51.15904" lon="1.28805"></trkpt>
      <trkpt lat="51.15492" lon="1.28957"></trkpt>
      <trkpt lat="51.1541" lon="1.29002"></trkpt>
      <trkpt lat="51.15278" lon="1.29521"></trkpt>
      <trkpt lat="51.15345" lon="1.30237"></trkpt>
      <trkpt lat="51.15216" lon="1.30739"></trkpt>
      <trkpt lat="51.15026" lon="1.30505"></trkpt>
      <trkpt lat="51.15141" lon="1.30791"></trkpt>
      <trkpt lat="51.14839" lon="1.30957"></trkpt>
      <trkpt lat="51.1451" lon="1.31885"></trkpt>
      <trkpt lat="51.1492" lon="1.31879"></trkpt>
      <trkpt lat="51.1536" lon="1.32258"></trkpt>
      <trkpt lat="51.15406" lon="1.3274"></trkpt>
      <trkpt lat="51.15262" lon="1.33097"></trkpt>
      <trkpt lat="51.14935" lon="1.33562"></trkpt>
      <trkpt lat="51.14939" lon="1.33946"></trkpt>
      <trkpt lat="51.15044" lon="1.34544"></trkpt>
      <trkpt lat="51.15317" lon="1.35344"></trkpt>
      <trkpt lat="51.15466" lon="1.36296"></trkpt>
      <trkpt lat="51.15505" lon="1.36812"></trkpt>
      <trkpt lat="51.15414" lon="1.37161"></trkpt>
      <trkpt lat="51.15407" lon="1.37167"></trkpt>
      <trkpt lat="51.15077" lon="1.37048"></trkpt>
      <trkpt lat="51.15001" lon="1.36861"></trkpt>
      <trkpt lat="51.15027" lon="1.36676"></trkpt>
      <trkpt lat="51.15098" lon="1.36622"></trkpt>
      <trkpt lat="51.14863" lon="1.36769"></trkpt>
      <trkpt lat="51.14579" lon="1.36422"></trkpt>
      <trkpt lat="51.14414" lon="1.36697"></trkpt>
      <trkpt lat="51.14223" lon="1.36989"></trkpt>
      <trkpt lat="51.13998" lon="1.37195"></trkpt>
      <trkpt lat="51.13879" lon="1.37093"></trkpt>
      <trkpt lat="51.14004" lon="1.37196"></trkpt>
      <trkpt lat="51.13915" lon="1.37136"></trkpt>
    </trkseg>
  </trk>
  <trk>
    <name>День 3</name>
    <trkseg>
      <trkpt lat="51.13879" lon="1.37063"></trkpt>
      <trkpt lat="51.13764" lon="1.368"></trkpt>
      <trkpt lat="51.13722" lon="1.36356"></trkpt>
      <trkpt lat="51.13597" lon="1.36034"></trkpt>
      <trkpt lat="51.13529" lon="1.3579"></trkpt>
      <trkpt lat="51.13484" lon="1.35486"></trkpt>
      <trkpt lat="51.13421" lon="1.35277"></trkpt>
      <trkpt lat="51.13484" lon="1.3494"></trkpt>
      <trkpt lat="51.13452" lon="1.34695"></trkpt>
      <trkpt lat="51.13306" lon="1.3454"></trkpt>
      <trkpt lat="51.13117" lon="1.34206"></trkpt>
      <trkpt lat="51.1308" lon="1.33916"></trkpt>
      <trkpt lat="51.13036" lon="1.33617"></trkpt>
      <trkpt lat="51.12973" lon="1.33356"></trkpt>
      <trkpt lat="51.13157" lon="1.33079"></trkpt>
      <trkpt lat="51.13253" lon="1.32737"></trkpt>
      <trkpt lat="51.13164" lon="1.32318"></trkpt>
      <trkpt lat="51.1321" lon="1.31944"></trkpt>
      <trkpt lat="51.13056" lon="1.31942"></trkpt>
      <trkpt lat="51.12933" lon="1.31862"></trkpt>
      <trkpt lat="51.12629" lon="1.32011"></trkpt>
      <trkpt lat="51.1267" lon="1.31692"></trkpt>
      <trkpt lat="51.1254" lon="1.31304"></trkpt>
      <trkpt lat="51.1268" lon="1.31129"></trkpt>
      <trkpt lat="51.12575" lon="1.30799"></trkpt>
      <trkpt lat="51.12328" lon="1.29591"></trkpt>
      <trkpt lat="51.12079" lon="1.29028"></trkpt>
      <trkpt lat="51.11861" lon="1.28625"></trkpt>
      <trkpt lat="51.11749" lon="1.27847"></trkpt>
      <trkpt lat="51.11497" lon="1.27056"></trkpt>
      <trkpt lat="51.1116" lon="1.26195"></trkpt>
      <trkpt lat="51.10881" lon="1.25431"></trkpt>
      <trkpt lat="51.1063" lon="1.24846"></trkpt>
      <trkpt lat="51.10476" lon="1.24246"></trkpt>
      <trkpt lat="51.10354" lon="1.23668"></trkpt>
      <trkpt lat="51.10256" lon="1.23033"></trkpt>
      <trkpt lat="51.10189" lon="1.22419"></trkpt>
      <trkpt lat="51.1007" lon="1.21547"></trkpt>
      <trkpt lat="51.09976" lon="1.20636"></trkpt>
      <trkpt lat="51.09611" lon="1.19902"></trkpt>
      <trkpt lat="51.09401" lon="1.19521"></trkpt>
      <trkpt lat="51.09447" lon="1.19089"></trkpt>
      <trkpt lat="51.09196" lon="1.19078"></trkpt>
      <trkpt lat="51.09207" lon="1.18737"></trkpt>
      <trkpt lat="51.09054" lon="1.18526"></trkpt>
      <trkpt lat="51.08841" lon="1.1833"></trkpt>
      <trkpt lat="51.0872" lon="1.17914"></trkpt>
      <trkpt lat="51.08423" lon="1.17913"></trkpt>
      <trkpt lat="51.08128" lon="1.18178"></trkpt>
      <trkpt lat="51.08004" lon="1.18357"></trkpt>
      <trkpt lat="51.07989" lon="1.18362"></trkpt>
      <trkpt lat="51.07867" lon="1.18234"></trkpt>
      <trkpt lat="51.07787" lon="1.17968"></trkpt>
      <trkpt lat="51.0765" lon="1.17542"></trkpt>
      <trkpt lat="51.07516" lon="1.17"></trkpt>
      <trkpt lat="51.07423" lon="1.16342"></trkpt>
      <trkpt lat="51.07478" lon="1.15609"></trkpt>
      <trkpt lat="51.07458" lon="1.15544"></trkpt>
      <trkpt lat="51.07402" lon="1.15181"></trkpt>
      <trkpt lat="51.07384" lon="1.14749"></trkpt>
      <trkpt lat="51.07299" lon="1.14309"></trkpt>
      <trkpt lat="51.07206" lon="1.13283"></trkpt>
      <trkpt lat="51.0707" lon="1.11734"></trkpt>
      <trkpt lat="51.06829" lon="1.09847"></trkpt>
      <trkpt lat="51.0659" lon="1.08557"></trkpt>
      <trkpt lat="51.06528" lon="1.07885"></trkpt>
      <trkpt lat="51.07031" lon="1.07863"></trkpt>
      <trkpt lat="51.07044" lon="1.07077"></trkpt>
      <trkpt lat="51.06453" lon="1.05964"></trkpt>
      <trkpt lat="51.05799" lon="1.04636"></trkpt>
      <trkpt lat="51.05095" lon="1.03752"></trkpt>
      <trkpt lat="51.04465" lon="1.02974"></trkpt>
      <trkpt lat="51.03757" lon="1.01754"></trkpt>
      <trkpt lat="51.03271" lon="1.00841"></trkpt>
      <trkpt lat="51.02509" lon="0.99715"></trkpt>
      <trkpt lat="51.01865" lon="0.98957"></trkpt>
      <trkpt lat="51.00987" lon="0.98178"></trkpt>
      <trkpt lat="51.00148" lon="0.97622"></trkpt>
      <trkpt lat="50.99235" lon="0.97242"></trkpt>
      <trkpt lat="50.98783" lon="0.97006"></trkpt>
      <trkpt lat="50.98454" lon="0.96207"></trkpt>
      <trkpt lat="50.98523" lon="0.95527"></trkpt>
      <trkpt lat="50.9861" lon="0.94682"></trkpt>
      <trkpt lat="50.98545" lon="0.94148"></trkpt>
      <trkpt lat="50.98457" lon="0.93297"></trkpt>
      <trkpt lat="50.98482" lon="0.92277"></trkpt>
      <trkpt lat="50.97632" lon="0.92105"></trkpt>
      <trkpt lat="50.96426" lon="0.92224"></trkpt>
      <trkpt lat="50.95572" lon="0.91534"></trkpt>
      <trkpt lat="50.95235" lon="0.90756"></trkpt>
      <trkpt lat="50.95193" lon="0.90724"></trkpt>
      <trkpt lat="50.94732" lon="0.90719"></trkpt>
      <trkpt lat="50.94731" lon="0.89732"></trkpt>
      <trkpt lat="50.94597" lon="0.88991"></trkpt>
      <trkpt lat="50.94171" lon="0.87681"></trkpt>
      <trkpt lat="50.93505" lon="0.86402"></trkpt>
      <trkpt lat="50.93485" lon="0.85412"></trkpt>
      <trkpt lat="50.93167" lon="0.83972"></trkpt>
      <trkpt lat="50.92748" lon="0.83049"></trkpt>
      <trkpt lat="50.92939" lon="0.81878"></trkpt>
      <trkpt lat="50.93163" lon="0.80553"></trkpt>
      <trkpt lat="50.93616" lon="0.79031"></trkpt>
      <trkpt lat="50.93752" lon="0.78103"></trkpt>
      <trkpt lat="50.94018" lon="0.77357"></trkpt>
      <trkpt lat="50.94393" lon="0.76866"></trkpt>
      <trkpt lat="50.94587" lon="0.76034"></trkpt>
      <trkpt lat="50.9486" lon="0.75364"></trkpt>
      <trkpt lat="50.94995" lon="0.74729"></trkpt>
      <trkpt lat="50.95316" lon="0.73944"></trkpt>
      <trkpt lat="50.95242" lon="0.73565"></trkpt>
      <trkpt lat="50.95193" lon="0.73542"></trkpt>
      <trkpt lat="50.9508" lon="0.73381"></trkpt>
      <trkpt lat="50.94993" lon="0.73374"></trkpt>
      <trkpt lat="50.9491" lon="0.73223"></trkpt>
      <trkpt lat="50.94979" lon="0.73096"></trkpt>
      <trkpt lat="50.94826" lon="0.73022"></trkpt>
      <trkpt lat="50.93775" lon="0.72547"></trkpt>
      <trkpt lat="50.92902" lon="0.72051"></trkpt>
      <trkpt lat="50.92467" lon="0.71728"></trkpt>
      <trkpt lat="50.92338" lon="0.72537"></trkpt>
      <trkpt lat="50.91435" lon="0.72309"></trkpt>
      <trkpt lat="50.90613" lon="0.71609"></trkpt>
      <trkpt lat="50.90111" lon="0.70743"></trkpt>
      <trkpt lat="50.89392" lon="0.69476"></trkpt>
      <trkpt lat="50.88867" lon="0.6836"></trkpt>
      <trkpt lat="50.88716" lon="0.67842"></trkpt>
      <trkpt lat="50.88474" lon="0.67436"></trkpt>
      <trkpt lat="50.88197" lon="0.67201"></trkpt>
      <trkpt lat="50.88231" lon="0.66804"></trkpt>
      <trkpt lat="50.88067" lon="0.66163"></trkpt>
      <trkpt lat="50.88016" lon="0.65914"></trkpt>
      <trkpt lat="50.87992" lon="0.65709"></trkpt>
      <trkpt lat="50.87944" lon="0.6554"></trkpt>
      <trkpt lat="50.87899" lon="0.65261"></trkpt>
      <trkpt lat="50.87845" lon="0.6465"></trkpt>
      <trkpt lat="50.8775" lon="0.6438"></trkpt>
      <trkpt lat="50.87709" lon="0.64127"></trkpt>
      <trkpt lat="50.8754" lon="0.63455"></trkpt>
      <trkpt lat="50.87482" lon="0.62609"></trkpt>
      <trkpt lat="50.87432" lon="0.62127"></trkpt>
      <trkpt lat="50.87398" lon="0.61477"></trkpt>
      <trkpt lat="50.87263" lon="0.60952"></trkpt>
      <trkpt lat="50.87036" lon="0.60486"></trkpt>
      <trkpt lat="50.86925" lon="0.60075"></trkpt>
      <trkpt lat="50.86677" lon="0.59969"></trkpt>
      <trkpt lat="50.86366" lon="0.59778"></trkpt>
      <trkpt lat="50.85972" lon="0.59544"></trkpt>
      <trkpt lat="50.85608" lon="0.59205"></trkpt>
      <trkpt lat="50.85523" lon="0.58788"></trkpt>
      <trkpt lat="50.85527" lon="0.58488"></trkpt>
      <trkpt lat="50.8557" lon="0.58017"></trkpt>
      <trkpt lat="50.85574" lon="0.57962"></trkpt>
      <trkpt lat="50.85425" lon="0.57652"></trkpt>
      <trkpt lat="50.85251" lon="0.56716"></trkpt>
      <trkpt lat="50.85079" lon="0.55561"></trkpt>
      <trkpt lat="50.85038" lon="0.54361"></trkpt>
      <trkpt lat="50.85029" lon="0.53453"></trkpt>
      <trkpt lat="50.85075" lon="0.52807"></trkpt>
      <trkpt lat="50.85096" lon="0.52289"></trkpt>
      <trkpt lat="50.85336" lon="0.52347"></trkpt>
      <trkpt lat="50.85451" lon="0.52342"></trkpt>
      <trkpt lat="50.85096" lon="0.52323"></trkpt>
      <trkpt lat="50.8479" lon="0.51434"></trkpt>
      <trkpt lat="50.84477" lon="0.50742"></trkpt>
      <trkpt lat="50.84466" lon="0.50433"></trkpt>
      <trkpt lat="50.84429" lon="0.50521"></trkpt>
      <trkpt lat="50.84289" lon="0.50031"></trkpt>
      <trkpt lat="50.84139" lon="0.496"></trkpt>
      <trkpt lat="50.84025" lon="0.48794"></trkpt>
      <trkpt lat="50.83778" lon="0.47415"></trkpt>
      <trkpt lat="50.83633" lon="0.46348"></trkpt>
      <trkpt lat="50.83568" lon="0.45276"></trkpt>
      <trkpt lat="50.83645" lon="0.44505"></trkpt>
      <trkpt lat="50.83404" lon="0.43249"></trkpt>
      <trkpt lat="50.83299" lon="0.42734"></trkpt>
      <trkpt lat="50.8315" lon="0.41788"></trkpt>
      <trkpt lat="50.82908" lon="0.40683"></trkpt>
      <trkpt lat="50.8312" lon="0.39676"></trkpt>
      <trkpt lat="50.82619" lon="0.38994"></trkpt>
      <trkpt lat="50.82284" lon="0.38264"></trkpt>
      <trkpt lat="50.82282" lon="0.38105"></trkpt>
    </trkseg>
  </trk>
  <trk>
    <name>День 4</name>
    <trkseg>
      <trkpt lat="50.82272" lon="0.38059"></trkpt>
      <trkpt lat="50.82169" lon="0.37879"></trkpt>
      <trkpt lat="50.81871" lon="0.36942"></trkpt>
      <trkpt lat="50.8154" lon="0.35879"></trkpt>
      <trkpt lat="50.81264" lon="0.35213"></trkpt>
      <trkpt lat="50.80968" lon="0.34442"></trkpt>
      <trkpt lat="50.80418" lon="0.33562"></trkpt>
      <trkpt lat="50.79919" lon="0.32751"></trkpt>
      <trkpt lat="50.79491" lon="0.32601"></trkpt>
      <trkpt lat="50.79413" lon="0.32469"></trkpt>
      <trkpt lat="50.7904" lon="0.32113"></trkpt>
      <trkpt lat="50.78592" lon="0.32798"></trkpt>
      <trkpt lat="50.78353" lon="0.32277"></trkpt>
      <trkpt lat="50.77886" lon="0.30926"></trkpt>
      <trkpt lat="50.77706" lon="0.30451"></trkpt>
      <trkpt lat="50.77559" lon="0.30198"></trkpt>
      <trkpt lat="50.77414" lon="0.29969"></trkpt>
      <trkpt lat="50.76904" lon="0.2947"></trkpt>
      <trkpt lat="50.76639" lon="0.29155"></trkpt>
      <trkpt lat="50.76263" lon="0.28706"></trkpt>
      <trkpt lat="50.75384" lon="0.27241"></trkpt>
      <trkpt lat="50.75339" lon="0.27058"></trkpt>
      <trkpt lat="50.75203" lon="0.26747"></trkpt>
      <trkpt lat="50.7523" lon="0.26485"></trkpt>
      <trkpt lat="50.75193" lon="0.26126"></trkpt>
      <trkpt lat="50.75283" lon="0.25951"></trkpt>
      <trkpt lat="50.75335" lon="0.25877"></trkpt>
      <trkpt lat="50.75437" lon="0.25735"></trkpt>
      <trkpt lat="50.75506" lon="0.25405"></trkpt>
      <trkpt lat="50.7541" lon="0.25325"></trkpt>
      <trkpt lat="50.74915" lon="0.25574"></trkpt>
      <trkpt lat="50.74314" lon="0.25496"></trkpt>
      <trkpt lat="50.74051" lon="0.25196"></trkpt>
      <trkpt lat="50.73997" lon="0.25331"></trkpt>
      <trkpt lat="50.73907" lon="0.25368"></trkpt>
      <trkpt lat="50.73937" lon="0.25171"></trkpt>
      <trkpt lat="50.73844" lon="0.2499"></trkpt>
      <trkpt lat="50.73792" lon="0.24835"></trkpt>
      <trkpt lat="50.73749" lon="0.24668"></trkpt>
      <trkpt lat="50.73704" lon="0.24501"></trkpt>
      <trkpt lat="50.73628" lon="0.24347"></trkpt>
      <trkpt lat="50.73572" lon="0.24205"></trkpt>
      <trkpt lat="50.73687" lon="0.24453"></trkpt>
      <trkpt lat="50.73777" lon="0.24517"></trkpt>
      <trkpt lat="50.74005" lon="0.25161"></trkpt>
      <trkpt lat="50.73846" lon="0.2454"></trkpt>
      <trkpt lat="50.73769" lon="0.24265"></trkpt>
      <trkpt lat="50.73948" lon="0.23801"></trkpt>
      <trkpt lat="50.73902" lon="0.23144"></trkpt>
      <trkpt lat="50.73739" lon="0.22087"></trkpt>
      <trkpt lat="50.73955" lon="0.21593"></trkpt>
      <trkpt lat="50.74313" lon="0.20817"></trkpt>
      <trkpt lat="50.74285" lon="0.20122"></trkpt>
      <trkpt lat="50.74553" lon="0.20468"></trkpt>
      <trkpt lat="50.74875" lon="0.20622"></trkpt>
      <trkpt lat="50.75174" lon="0.20505"></trkpt>
      <trkpt lat="50.75528" lon="0.2057"></trkpt>
      <trkpt lat="50.75984" lon="0.20843"></trkpt>
      <trkpt lat="50.76079" lon="0.20565"></trkpt>
      <trkpt lat="50.76074" lon="0.20392"></trkpt>
      <trkpt lat="50.76144" lon="0.20119"></trkpt>
      <trkpt lat="50.7627" lon="0.19889"></trkpt>
      <trkpt lat="50.76322" lon="0.18933"></trkpt>
      <trkpt lat="50.76668" lon="0.1791"></trkpt>
      <trkpt lat="50.76998" lon="0.17121"></trkpt>
      <trkpt lat="50.77105" lon="0.16339"></trkpt>
      <trkpt lat="50.7745" lon="0.1565"></trkpt>
      <trkpt lat="50.77509" lon="0.15283"></trkpt>
      <trkpt lat="50.77408" lon="0.14528"></trkpt>
      <trkpt lat="50.77466" lon="0.14143"></trkpt>
      <trkpt lat="50.77485" lon="0.13797"></trkpt>
      <trkpt lat="50.77446" lon="0.13063"></trkpt>
      <trkpt lat="50.77384" lon="0.12205"></trkpt>
      <trkpt lat="50.77536" lon="0.11721"></trkpt>
      <trkpt lat="50.77371" lon="0.10439"></trkpt>
      <trkpt lat="50.77213" lon="0.0996"></trkpt>
      <trkpt lat="50.77344" lon="0.09172"></trkpt>
      <trkpt lat="50.77587" lon="0.08652"></trkpt>
      <trkpt lat="50.77937" lon="0.07857"></trkpt>
      <trkpt lat="50.77986" lon="0.07973"></trkpt>
      <trkpt lat="50.78255" lon="0.08251"></trkpt>
      <trkpt lat="50.78536" lon="0.07497"></trkpt>
      <trkpt lat="50.78881" lon="0.07062"></trkpt>
      <trkpt lat="50.7936" lon="0.06772"></trkpt>
      <trkpt lat="50.798" lon="0.06514"></trkpt>
      <trkpt lat="50.79826" lon="0.06136"></trkpt>
      <trkpt lat="50.79625" lon="0.05741"></trkpt>
      <trkpt lat="50.79531" lon="0.05484"></trkpt>
      <trkpt lat="50.79474" lon="0.05175"></trkpt>
      <trkpt lat="50.79019" lon="0.05255"></trkpt>
      <trkpt lat="50.7881" lon="0.05306"></trkpt>
      <trkpt lat="50.7873" lon="0.04825"></trkpt>
      <trkpt lat="50.78763" lon="0.04404"></trkpt>
      <trkpt lat="50.78832" lon="0.04053"></trkpt>
      <trkpt lat="50.78916" lon="0.03741"></trkpt>
      <trkpt lat="50.78828" lon="0.03613"></trkpt>
      <trkpt lat="50.78721" lon="0.03254"></trkpt>
      <trkpt lat="50.78757" lon="0.02708"></trkpt>
      <trkpt lat="50.78717" lon="0.02303"></trkpt>
      <trkpt lat="50.78786" lon="0.01868"></trkpt>
      <trkpt lat="50.79002" lon="0.00736"></trkpt>
      <trkpt lat="50.79138" lon="-0.00198"></trkpt>
      <trkpt lat="50.79326" lon="-0.0102"></trkpt>
      <trkpt lat="50.79484" lon="-0.01863"></trkpt>
      <trkpt lat="50.79698" lon="-0.02644"></trkpt>
      <trkpt lat="50.79842" lon="-0.03255"></trkpt>
      <trkpt lat="50.80021" lon="-0.03914"></trkpt>
      <trkpt lat="50.8006" lon="-0.04219"></trkpt>
      <trkpt lat="50.80115" lon="-0.04762"></trkpt>
      <trkpt lat="50.80193" lon="-0.05451"></trkpt>
      <trkpt lat="50.80452" lon="-0.06509"></trkpt>
      <trkpt lat="50.80705" lon="-0.07393"></trkpt>
      <trkpt lat="50.81051" lon="-0.08593"></trkpt>
      <trkpt lat="50.81235" lon="-0.09426"></trkpt>
      <trkpt lat="50.81429" lon="-0.10384"></trkpt>
      <trkpt lat="50.8142" lon="-0.10812"></trkpt>
      <trkpt lat="50.8157" lon="-0.11578"></trkpt>
      <trkpt lat="50.81822" lon="-0.12809"></trkpt>
      <trkpt lat="50.81935" lon="-0.13717"></trkpt>
      <trkpt lat="50.82095" lon="-0.14703"></trkpt>
      <trkpt lat="50.82122" lon="-0.15025"></trkpt>
      <trkpt lat="50.82177" lon="-0.15066"></trkpt>
      <trkpt lat="50.82154" lon="-0.14945"></trkpt>
      <trkpt lat="50.8227" lon="-0.15679"></trkpt>
      <trkpt lat="50.8234" lon="-0.15579"></trkpt>
      <trkpt lat="50.8237" lon="-0.15428"></trkpt>
      <trkpt lat="50.82383" lon="-0.15436"></trkpt>
      <trkpt lat="50.8224" lon="-0.15521"></trkpt>
      <trkpt lat="50.82408" lon="-0.16686"></trkpt>
      <trkpt lat="50.82546" lon="-0.17927"></trkpt>
      <trkpt lat="50.82544" lon="-0.18646"></trkpt>
      <trkpt lat="50.82646" lon="-0.19791"></trkpt>
      <trkpt lat="50.82864" lon="-0.20376"></trkpt>
      <trkpt lat="50.82997" lon="-0.21054"></trkpt>
      <trkpt lat="50.83095" lon="-0.21787"></trkpt>
      <trkpt lat="50.83138" lon="-0.23186"></trkpt>
      <trkpt lat="50.83099" lon="-0.24434"></trkpt>
      <trkpt lat="50.83189" lon="-0.25401"></trkpt>
      <trkpt lat="50.83282" lon="-0.26762"></trkpt>
      <trkpt lat="50.83238" lon="-0.2788"></trkpt>
      <trkpt lat="50.82941" lon="-0.28546"></trkpt>
      <trkpt lat="50.82723" lon="-0.28808"></trkpt>
      <trkpt lat="50.8242" lon="-0.29824"></trkpt>
      <trkpt lat="50.82169" lon="-0.31179"></trkpt>
      <trkpt lat="50.81984" lon="-0.32547"></trkpt>
      <trkpt lat="50.81715" lon="-0.33448"></trkpt>
      <trkpt lat="50.81406" lon="-0.34738"></trkpt>
      <trkpt lat="50.81156" lon="-0.36007"></trkpt>
      <trkpt lat="50.80999" lon="-0.36752"></trkpt>
      <trkpt lat="50.80814" lon="-0.38022"></trkpt>
      <trkpt lat="50.80653" lon="-0.39653"></trkpt>
      <trkpt lat="50.80601" lon="-0.40587"></trkpt>
      <trkpt lat="50.80568" lon="-0.41669"></trkpt>
      <trkpt lat="50.80666" lon="-0.42333"></trkpt>
      <trkpt lat="50.81206" lon="-0.42793"></trkpt>
      <trkpt lat="50.81585" lon="-0.43181"></trkpt>
      <trkpt lat="50.82039" lon="-0.43415"></trkpt>
      <trkpt lat="50.82152" lon="-0.44191"></trkpt>
      <trkpt lat="50.82037" lon="-0.45047"></trkpt>
      <trkpt lat="50.8194" lon="-0.45899"></trkpt>
      <trkpt lat="50.8179" lon="-0.46873"></trkpt>
      <trkpt lat="50.81801" lon="-0.47627"></trkpt>
      <trkpt lat="50.81812" lon="-0.48699"></trkpt>
      <trkpt lat="50.8182" lon="-0.49534"></trkpt>
      <trkpt lat="50.81832" lon="-0.49988"></trkpt>
      <trkpt lat="50.81938" lon="-0.50327"></trkpt>
      <trkpt lat="50.8195" lon="-0.50369"></trkpt>
      <trkpt lat="50.81807" lon="-0.50108"></trkpt>
      <trkpt lat="50.81647" lon="-0.50518"></trkpt>
      <trkpt lat="50.81537" lon="-0.51494"></trkpt>
      <trkpt lat="50.81392" lon="-0.51983"></trkpt>
      <trkpt lat="50.81244" lon="-0.52768"></trkpt>
      <trkpt lat="50.8114" lon="-0.53656"></trkpt>
      <trkpt lat="50.81084" lon="-0.54376"></trkpt>
      <trkpt lat="50.81043" lon="-0.54854"></trkpt>
      <trkpt lat="50.80919" lon="-0.55265"></trkpt>
      <trkpt lat="50.8075" lon="-0.5658"></trkpt>
      <trkpt lat="50.80704" lon="-0.57254"></trkpt>
      <trkpt lat="50.804" lon="-0.57465"></trkpt>
      <trkpt lat="50.80098" lon="-0.57122"></trkpt>
      <trkpt lat="50.79896" lon="-0.57062"></trkpt>
    </trkseg>
  </trk>
  <trk>
    <name>День 5</name>
    <trkseg>
      <trkpt lat="50.79916" lon="-0.57068"></trkpt>
      <trkpt lat="50.80033" lon="-0.57083"></trkpt>
      <trkpt lat="50.80207" lon="-0.57234"></trkpt>
      <trkpt lat="50.80415" lon="-0.57475"></trkpt>
      <trkpt lat="50.80632" lon="-0.5758"></trkpt>
      <trkpt lat="50.80871" lon="-0.57591"></trkpt>
      <trkpt lat="50.81235" lon="-0.5791"></trkpt>
      <trkpt lat="50.81177" lon="-0.58568"></trkpt>
      <trkpt lat="50.81074" lon="-0.59139"></trkpt>
      <trkpt lat="50.8134" lon="-0.59574"></trkpt>
      <trkpt lat="50.81673" lon="-0.60046"></trkpt>
      <trkpt lat="50.81869" lon="-0.60709"></trkpt>
      <trkpt lat="50.82091" lon="-0.61375"></trkpt>
      <trkpt lat="50.82406" lon="-0.61928"></trkpt>
      <trkpt lat="50.82721" lon="-0.62619"></trkpt>
      <trkpt lat="50.82863" lon="-0.63345"></trkpt>
      <trkpt lat="50.83111" lon="-0.63941"></trkpt>
      <trkpt lat="50.83437" lon="-0.64381"></trkpt>
      <trkpt lat="50.83821" lon="-0.65012"></trkpt>
      <trkpt lat="50.84145" lon="-0.65711"></trkpt>
      <trkpt lat="50.84206" lon="-0.66508"></trkpt>
      <trkpt lat="50.83733" lon="-0.66847"></trkpt>
      <trkpt lat="50.83263" lon="-0.66944"></trkpt>
      <trkpt lat="50.83293" lon="-0.67418"></trkpt>
      <trkpt lat="50.83643" lon="-0.6798"></trkpt>
      <trkpt lat="50.83962" lon="-0.68607"></trkpt>
      <trkpt lat="50.83798" lon="-0.68829"></trkpt>
      <trkpt lat="50.83512" lon="-0.69502"></trkpt>
      <trkpt lat="50.8361" lon="-0.70347"></trkpt>
      <trkpt lat="50.8342" lon="-0.71189"></trkpt>
      <trkpt lat="50.83616" lon="-0.7196"></trkpt>
      <trkpt lat="50.83577" lon="-0.72643"></trkpt>
      <trkpt lat="50.8338" lon="-0.73458"></trkpt>
      <trkpt lat="50.83002" lon="-0.7354"></trkpt>
      <trkpt lat="50.82495" lon="-0.7343"></trkpt>
      <trkpt lat="50.82699" lon="-0.74041"></trkpt>
      <trkpt lat="50.82988" lon="-0.74616"></trkpt>
      <trkpt lat="50.83013" lon="-0.75305"></trkpt>
      <trkpt lat="50.83053" lon="-0.75555"></trkpt>
      <trkpt lat="50.8338" lon="-0.76227"></trkpt>
      <trkpt lat="50.83622" lon="-0.76923"></trkpt>
      <trkpt lat="50.83624" lon="-0.77595"></trkpt>
      <trkpt lat="50.83662" lon="-0.78012"></trkpt>
      <trkpt lat="50.83698" lon="-0.78414"></trkpt>
      <trkpt lat="50.83624" lon="-0.79045"></trkpt>
      <trkpt lat="50.83601" lon="-0.79694"></trkpt>
      <trkpt lat="50.83576" lon="-0.79875"></trkpt>
      <trkpt lat="50.83588" lon="-0.80562"></trkpt>
      <trkpt lat="50.83755" lon="-0.81054"></trkpt>
      <trkpt lat="50.83652" lon="-0.81599"></trkpt>
      <trkpt lat="50.83619" lon="-0.81797"></trkpt>
      <trkpt lat="50.83704" lon="-0.82506"></trkpt>
      <trkpt lat="50.83754" lon="-0.83288"></trkpt>
      <trkpt lat="50.83828" lon="-0.84047"></trkpt>
      <trkpt lat="50.84018" lon="-0.84759"></trkpt>
      <trkpt lat="50.84171" lon="-0.85535"></trkpt>
      <trkpt lat="50.84126" lon="-0.86317"></trkpt>
      <trkpt lat="50.84162" lon="-0.87143"></trkpt>
      <trkpt lat="50.84246" lon="-0.87856"></trkpt>
      <trkpt lat="50.84336" lon="-0.88589"></trkpt>
      <trkpt lat="50.84359" lon="-0.89423"></trkpt>
      <trkpt lat="50.84448" lon="-0.90195"></trkpt>
      <trkpt lat="50.84508" lon="-0.90858"></trkpt>
      <trkpt lat="50.84548" lon="-0.91699"></trkpt>
      <trkpt lat="50.84626" lon="-0.92549"></trkpt>
      <trkpt lat="50.84656" lon="-0.93269"></trkpt>
      <trkpt lat="50.84733" lon="-0.93719"></trkpt>
      <trkpt lat="50.84782" lon="-0.94361"></trkpt>
      <trkpt lat="50.84841" lon="-0.95133"></trkpt>
      <trkpt lat="50.84909" lon="-0.95991"></trkpt>
      <trkpt lat="50.84962" lon="-0.96417"></trkpt>
      <trkpt lat="50.84973" lon="-0.96668"></trkpt>
      <trkpt lat="50.85039" lon="-0.97403"></trkpt>
      <trkpt lat="50.85109" lon="-0.98052"></trkpt>
      <trkpt lat="50.85173" lon="-0.9849"></trkpt>
      <trkpt lat="50.85301" lon="-0.99116"></trkpt>
      <trkpt lat="50.85427" lon="-0.99644"></trkpt>
      <trkpt lat="50.85264" lon="-1.00076"></trkpt>
      <trkpt lat="50.85165" lon="-1.00602"></trkpt>
      <trkpt lat="50.85081" lon="-1.01122"></trkpt>
      <trkpt lat="50.84927" lon="-1.0155"></trkpt>
      <trkpt lat="50.84817" lon="-1.02275"></trkpt>
      <trkpt lat="50.84759" lon="-1.03074"></trkpt>
      <trkpt lat="50.84725" lon="-1.03259"></trkpt>
      <trkpt lat="50.84671" lon="-1.0386"></trkpt>
      <trkpt lat="50.84658" lon="-1.04609"></trkpt>
      <trkpt lat="50.84621" lon="-1.05437"></trkpt>
      <trkpt lat="50.84648" lon="-1.06226"></trkpt>
      <trkpt lat="50.84643" lon="-1.0685"></trkpt>
      <trkpt lat="50.84769" lon="-1.07552"></trkpt>
      <trkpt lat="50.84704" lon="-1.08384"></trkpt>
      <trkpt lat="50.84649" lon="-1.08899"></trkpt>
      <trkpt lat="50.84629" lon="-1.09153"></trkpt>
      <trkpt lat="50.84689" lon="-1.09683"></trkpt>
      <trkpt lat="50.84663" lon="-1.103"></trkpt>
      <trkpt lat="50.84708" lon="-1.10946"></trkpt>
      <trkpt lat="50.84705" lon="-1.11755"></trkpt>
      <trkpt lat="50.84674" lon="-1.12395"></trkpt>
      <trkpt lat="50.84605" lon="-1.13051"></trkpt>
      <trkpt lat="50.84735" lon="-1.13724"></trkpt>
      <trkpt lat="50.84882" lon="-1.14395"></trkpt>
      <trkpt lat="50.84993" lon="-1.15058"></trkpt>
      <trkpt lat="50.851" lon="-1.15578"></trkpt>
      <trkpt lat="50.85202" lon="-1.16429"></trkpt>
      <trkpt lat="50.852" lon="-1.16985"></trkpt>
      <trkpt lat="50.85101" lon="-1.17334"></trkpt>
      <trkpt lat="50.85093" lon="-1.17827"></trkpt>
      <trkpt lat="50.85252" lon="-1.18262"></trkpt>
      <trkpt lat="50.85263" lon="-1.18953"></trkpt>
      <trkpt lat="50.85233" lon="-1.19624"></trkpt>
      <trkpt lat="50.85165" lon="-1.20209"></trkpt>
      <trkpt lat="50.85126" lon="-1.20804"></trkpt>
      <trkpt lat="50.85102" lon="-1.21439"></trkpt>
      <trkpt lat="50.85026" lon="-1.2211"></trkpt>
      <trkpt lat="50.85029" lon="-1.22925"></trkpt>
      <trkpt lat="50.85236" lon="-1.23504"></trkpt>
      <trkpt lat="50.85301" lon="-1.23836"></trkpt>
      <trkpt lat="50.85427" lon="-1.24268"></trkpt>
      <trkpt lat="50.85655" lon="-1.24638"></trkpt>
      <trkpt lat="50.85972" lon="-1.25025"></trkpt>
      <trkpt lat="50.8632" lon="-1.25455"></trkpt>
      <trkpt lat="50.86787" lon="-1.25537"></trkpt>
      <trkpt lat="50.86964" lon="-1.26175"></trkpt>
      <trkpt lat="50.87158" lon="-1.26785"></trkpt>
      <trkpt lat="50.87334" lon="-1.27453"></trkpt>
      <trkpt lat="50.87542" lon="-1.28237"></trkpt>
      <trkpt lat="50.87813" lon="-1.29234"></trkpt>
      <trkpt lat="50.88349" lon="-1.29951"></trkpt>
      <trkpt lat="50.88676" lon="-1.3044"></trkpt>
      <trkpt lat="50.88857" lon="-1.30719"></trkpt>
      <trkpt lat="50.88999" lon="-1.30972"></trkpt>
      <trkpt lat="50.88943" lon="-1.31781"></trkpt>
      <trkpt lat="50.889" lon="-1.32234"></trkpt>
      <trkpt lat="50.88887" lon="-1.32696"></trkpt>
      <trkpt lat="50.89023" lon="-1.33315"></trkpt>
      <trkpt lat="50.89232" lon="-1.34147"></trkpt>
      <trkpt lat="50.89432" lon="-1.34958"></trkpt>
      <trkpt lat="50.89531" lon="-1.35954"></trkpt>
      <trkpt lat="50.89601" lon="-1.36553"></trkpt>
      <trkpt lat="50.89712" lon="-1.37156"></trkpt>
      <trkpt lat="50.89797" lon="-1.37902"></trkpt>
      <trkpt lat="50.89879" lon="-1.37976"></trkpt>
      <trkpt lat="50.89883" lon="-1.38217"></trkpt>
      <trkpt lat="50.89878" lon="-1.38639"></trkpt>
      <trkpt lat="50.89705" lon="-1.39349"></trkpt>
      <trkpt lat="50.89681" lon="-1.39899"></trkpt>
      <trkpt lat="50.8963" lon="-1.40473"></trkpt>
      <trkpt lat="50.89767" lon="-1.41016"></trkpt>
      <trkpt lat="50.89815" lon="-1.41103"></trkpt>
      <trkpt lat="50.89784" lon="-1.40787"></trkpt>
      <trkpt lat="50.89698" lon="-1.40511"></trkpt>
      <trkpt lat="50.89937" lon="-1.40387"></trkpt>
      <trkpt lat="50.90235" lon="-1.40426"></trkpt>
      <trkpt lat="50.90503" lon="-1.40448"></trkpt>
      <trkpt lat="50.9081" lon="-1.40471"></trkpt>
      <trkpt lat="50.90883" lon="-1.40784"></trkpt>
      <trkpt lat="50.90894" lon="-1.41171"></trkpt>
      <trkpt lat="50.90843" lon="-1.41614"></trkpt>
      <trkpt lat="50.90931" lon="-1.422"></trkpt>
      <trkpt lat="50.91032" lon="-1.42874"></trkpt>
      <trkpt lat="50.91231" lon="-1.43534"></trkpt>
      <trkpt lat="50.91308" lon="-1.44266"></trkpt>
      <trkpt lat="50.91396" lon="-1.44942"></trkpt>
      <trkpt lat="50.91624" lon="-1.45517"></trkpt>
      <trkpt lat="50.91849" lon="-1.46029"></trkpt>
      <trkpt lat="50.92085" lon="-1.46577"></trkpt>
      <trkpt lat="50.9219" lon="-1.47219"></trkpt>
      <trkpt lat="50.91953" lon="-1.47927"></trkpt>
      <trkpt lat="50.91836" lon="-1.48493"></trkpt>
      <trkpt lat="50.91952" lon="-1.48911"></trkpt>
      <trkpt lat="50.9211" lon="-1.49299"></trkpt>
      <trkpt lat="50.92475" lon="-1.49829"></trkpt>
      <trkpt lat="50.92908" lon="-1.50198"></trkpt>
      <trkpt lat="50.93206" lon="-1.50707"></trkpt>
      <trkpt lat="50.93448" lon="-1.51153"></trkpt>
      <trkpt lat="50.93476" lon="-1.5102"></trkpt>
      <trkpt lat="50.93371" lon="-1.50952"></trkpt>
      <trkpt lat="50.93522" lon="-1.5073"></trkpt>
      <trkpt lat="50.93595" lon="-1.50598"></trkpt>
      <trkpt lat="50.93611" lon="-1.50374"></trkpt>
      <trkpt lat="50.93515" lon="-1.50131"></trkpt>
    </trkseg>
  </trk>
  <trk>
    <name>День 6</name>
    <trkseg>
      <trkpt lat="50.93522" lon="-1.501"></trkpt>
      <trkpt lat="50.93456" lon="-1.5015"></trkpt>
      <trkpt lat="50.93475" lon="-1.5047"></trkpt>
      <trkpt lat="50.93525" lon="-1.50659"></trkpt>
      <trkpt lat="50.93359" lon="-1.50764"></trkpt>
      <trkpt lat="50.93517" lon="-1.51226"></trkpt>
      <trkpt lat="50.93804" lon="-1.51573"></trkpt>
      <trkpt lat="50.93998" lon="-1.521"></trkpt>
      <trkpt lat="50.9406" lon="-1.5259"></trkpt>
      <trkpt lat="50.9406" lon="-1.53001"></trkpt>
      <trkpt lat="50.94506" lon="-1.53006"></trkpt>
      <trkpt lat="50.94539" lon="-1.53038"></trkpt>
      <trkpt lat="50.9508" lon="-1.53158"></trkpt>
      <trkpt lat="50.95444" lon="-1.53434"></trkpt>
      <trkpt lat="50.95761" lon="-1.53009"></trkpt>
      <trkpt lat="50.96022" lon="-1.52791"></trkpt>
      <trkpt lat="50.96262" lon="-1.52601"></trkpt>
      <trkpt lat="50.96584" lon="-1.52387"></trkpt>
      <trkpt lat="50.96839" lon="-1.52714"></trkpt>
      <trkpt lat="50.97272" lon="-1.52855"></trkpt>
      <trkpt lat="50.97712" lon="-1.5295"></trkpt>
      <trkpt lat="50.98203" lon="-1.53107"></trkpt>
      <trkpt lat="50.98606" lon="-1.5319"></trkpt>
      <trkpt lat="50.98973" lon="-1.53459"></trkpt>
      <trkpt lat="50.99346" lon="-1.5398"></trkpt>
      <trkpt lat="50.99596" lon="-1.54379"></trkpt>
      <trkpt lat="50.9975" lon="-1.54758"></trkpt>
      <trkpt lat="51.00104" lon="-1.54785"></trkpt>
      <trkpt lat="51.00669" lon="-1.54799"></trkpt>
      <trkpt lat="51.01242" lon="-1.54661"></trkpt>
      <trkpt lat="51.01611" lon="-1.54501"></trkpt>
      <trkpt lat="51.01917" lon="-1.55187"></trkpt>
      <trkpt lat="51.02263" lon="-1.56223"></trkpt>
      <trkpt lat="51.0278" lon="-1.56885"></trkpt>
      <trkpt lat="51.03236" lon="-1.57228"></trkpt>
      <trkpt lat="51.03742" lon="-1.57498"></trkpt>
      <trkpt lat="51.03863" lon="-1.57577"></trkpt>
      <trkpt lat="51.03997" lon="-1.57897"></trkpt>
      <trkpt lat="51.03916" lon="-1.58525"></trkpt>
      <trkpt lat="51.03895" lon="-1.5858"></trkpt>
      <trkpt lat="51.03863" lon="-1.59076"></trkpt>
      <trkpt lat="51.03969" lon="-1.59789"></trkpt>
      <trkpt lat="51.03948" lon="-1.60414"></trkpt>
      <trkpt lat="51.03968" lon="-1.61128"></trkpt>
      <trkpt lat="51.03946" lon="-1.61858"></trkpt>
      <trkpt lat="51.03911" lon="-1.62673"></trkpt>
      <trkpt lat="51.04001" lon="-1.6325"></trkpt>
      <trkpt lat="51.04149" lon="-1.63804"></trkpt>
      <trkpt lat="51.04138" lon="-1.64103"></trkpt>
      <trkpt lat="51.04142" lon="-1.64101"></trkpt>
      <trkpt lat="51.04138" lon="-1.64105"></trkpt>
      <trkpt lat="51.04129" lon="-1.64891"></trkpt>
      <trkpt lat="51.04238" lon="-1.65682"></trkpt>
      <trkpt lat="51.0431" lon="-1.66495"></trkpt>
      <trkpt lat="51.04506" lon="-1.67335"></trkpt>
      <trkpt lat="51.04415" lon="-1.68069"></trkpt>
      <trkpt lat="51.04662" lon="-1.68179"></trkpt>
      <trkpt lat="51.04556" lon="-1.68966"></trkpt>
      <trkpt lat="51.04671" lon="-1.6956"></trkpt>
      <trkpt lat="51.04846" lon="-1.70084"></trkpt>
      <trkpt lat="51.04998" lon="-1.70565"></trkpt>
      <trkpt lat="51.05103" lon="-1.71263"></trkpt>
      <trkpt lat="51.05089" lon="-1.71647"></trkpt>
      <trkpt lat="51.05151" lon="-1.72279"></trkpt>
      <trkpt lat="51.04901" lon="-1.7295"></trkpt>
      <trkpt lat="51.04628" lon="-1.73388"></trkpt>
      <trkpt lat="51.04481" lon="-1.73699"></trkpt>
      <trkpt lat="51.04832" lon="-1.74546"></trkpt>
      <trkpt lat="51.05474" lon="-1.75647"></trkpt>
      <trkpt lat="51.05841" lon="-1.76009"></trkpt>
      <trkpt lat="51.06117" lon="-1.76565"></trkpt>
      <trkpt lat="51.06132" lon="-1.77064"></trkpt>
      <trkpt lat="51.06163" lon="-1.7784"></trkpt>
      <trkpt lat="51.06397" lon="-1.78574"></trkpt>
      <trkpt lat="51.06377" lon="-1.78797"></trkpt>
      <trkpt lat="51.06343" lon="-1.79006"></trkpt>
      <trkpt lat="51.0655" lon="-1.7924"></trkpt>
      <trkpt lat="51.06703" lon="-1.79431"></trkpt>
      <trkpt lat="51.06703" lon="-1.79454"></trkpt>
      <trkpt lat="51.06698" lon="-1.79445"></trkpt>
      <trkpt lat="51.06726" lon="-1.79669"></trkpt>
      <trkpt lat="51.06666" lon="-1.7978"></trkpt>
      <trkpt lat="51.06556" lon="-1.79823"></trkpt>
      <trkpt lat="51.06479" lon="-1.79845"></trkpt>
      <trkpt lat="51.06463" lon="-1.7981"></trkpt>
      <trkpt lat="51.06518" lon="-1.79832"></trkpt>
      <trkpt lat="51.06638" lon="-1.79792"></trkpt>
      <trkpt lat="51.06726" lon="-1.79771"></trkpt>
      <trkpt lat="51.0676" lon="-1.7993"></trkpt>
      <trkpt lat="51.0682" lon="-1.80068"></trkpt>
      <trkpt lat="51.06868" lon="-1.80173"></trkpt>
      <trkpt lat="51.06956" lon="-1.80267"></trkpt>
      <trkpt lat="51.07008" lon="-1.80144"></trkpt>
      <trkpt lat="51.06919" lon="-1.79969"></trkpt>
      <trkpt lat="51.06873" lon="-1.79867"></trkpt>
      <trkpt lat="51.06945" lon="-1.7977"></trkpt>
      <trkpt lat="51.06951" lon="-1.79641"></trkpt>
      <trkpt lat="51.06896" lon="-1.79591"></trkpt>
      <trkpt lat="51.06874" lon="-1.79405"></trkpt>
      <trkpt lat="51.06725" lon="-1.79371"></trkpt>
      <trkpt lat="51.06727" lon="-1.79598"></trkpt>
      <trkpt lat="51.06903" lon="-1.79745"></trkpt>
      <trkpt lat="51.07145" lon="-1.79781"></trkpt>
      <trkpt lat="51.07386" lon="-1.79756"></trkpt>
      <trkpt lat="51.07725" lon="-1.79977"></trkpt>
      <trkpt lat="51.07724" lon="-1.80371"></trkpt>
      <trkpt lat="51.07926" lon="-1.80596"></trkpt>
      <trkpt lat="51.08228" lon="-1.80984"></trkpt>
      <trkpt lat="51.08466" lon="-1.81289"></trkpt>
      <trkpt lat="51.0862" lon="-1.81555"></trkpt>
      <trkpt lat="51.08803" lon="-1.81666"></trkpt>
      <trkpt lat="51.09022" lon="-1.81282"></trkpt>
      <trkpt lat="51.0946" lon="-1.81612"></trkpt>
      <trkpt lat="51.09865" lon="-1.81697"></trkpt>
      <trkpt lat="51.10226" lon="-1.81924"></trkpt>
      <trkpt lat="51.10561" lon="-1.82096"></trkpt>
      <trkpt lat="51.10966" lon="-1.82327"></trkpt>
      <trkpt lat="51.115" lon="-1.81775"></trkpt>
      <trkpt lat="51.11912" lon="-1.81706"></trkpt>
      <trkpt lat="51.12281" lon="-1.82011"></trkpt>
      <trkpt lat="51.12739" lon="-1.81417"></trkpt>
      <trkpt lat="51.13111" lon="-1.81757"></trkpt>
      <trkpt lat="51.13349" lon="-1.82373"></trkpt>
      <trkpt lat="51.13743" lon="-1.82007"></trkpt>
      <trkpt lat="51.14007" lon="-1.81545"></trkpt>
      <trkpt lat="51.14249" lon="-1.81439"></trkpt>
      <trkpt lat="51.14696" lon="-1.81217"></trkpt>
      <trkpt lat="51.15196" lon="-1.81179"></trkpt>
      <trkpt lat="51.15623" lon="-1.81147"></trkpt>
      <trkpt lat="51.1606" lon="-1.80526"></trkpt>
      <trkpt lat="51.16609" lon="-1.80689"></trkpt>
      <trkpt lat="51.17069" lon="-1.80226"></trkpt>
      <trkpt lat="51.1723" lon="-1.79607"></trkpt>
      <trkpt lat="51.173" lon="-1.79482"></trkpt>
      <trkpt lat="51.17459" lon="-1.80061"></trkpt>
      <trkpt lat="51.17642" lon="-1.80369"></trkpt>
      <trkpt lat="51.17708" lon="-1.81103"></trkpt>
      <trkpt lat="51.17754" lon="-1.819"></trkpt>
      <trkpt lat="51.17835" lon="-1.82125"></trkpt>
      <trkpt lat="51.17928" lon="-1.82468"></trkpt>
      <trkpt lat="51.17951" lon="-1.8257"></trkpt>
      <trkpt lat="51.17936" lon="-1.82502"></trkpt>
      <trkpt lat="51.17829" lon="-1.82101"></trkpt>
      <trkpt lat="51.17771" lon="-1.81928"></trkpt>
      <trkpt lat="51.17679" lon="-1.82593"></trkpt>
      <trkpt lat="51.17581" lon="-1.83276"></trkpt>
      <trkpt lat="51.17462" lon="-1.84104"></trkpt>
      <trkpt lat="51.17315" lon="-1.85103"></trkpt>
      <trkpt lat="51.17125" lon="-1.85889"></trkpt>
      <trkpt lat="51.16448" lon="-1.85899"></trkpt>
      <trkpt lat="51.15901" lon="-1.85912"></trkpt>
      <trkpt lat="51.15487" lon="-1.85911"></trkpt>
      <trkpt lat="51.14838" lon="-1.85895"></trkpt>
      <trkpt lat="51.13911" lon="-1.85817"></trkpt>
      <trkpt lat="51.13687" lon="-1.858"></trkpt>
      <trkpt lat="51.13427" lon="-1.85726"></trkpt>
      <trkpt lat="51.12887" lon="-1.85639"></trkpt>
      <trkpt lat="51.12211" lon="-1.85485"></trkpt>
      <trkpt lat="51.11809" lon="-1.85201"></trkpt>
      <trkpt lat="51.11033" lon="-1.84638"></trkpt>
      <trkpt lat="51.10447" lon="-1.84205"></trkpt>
      <trkpt lat="51.1003" lon="-1.83845"></trkpt>
      <trkpt lat="51.09543" lon="-1.83236"></trkpt>
      <trkpt lat="51.08989" lon="-1.82638"></trkpt>
      <trkpt lat="51.0838" lon="-1.82062"></trkpt>
      <trkpt lat="51.07892" lon="-1.81403"></trkpt>
      <trkpt lat="51.07467" lon="-1.80722"></trkpt>
      <trkpt lat="51.07289" lon="-1.80479"></trkpt>
      <trkpt lat="51.07137" lon="-1.8043"></trkpt>
      <trkpt lat="51.07032" lon="-1.80574"></trkpt>
      <trkpt lat="51.07024" lon="-1.80176"></trkpt>
      <trkpt lat="51.06877" lon="-1.79627"></trkpt>
      <trkpt lat="51.06883" lon="-1.79634"></trkpt>
      <trkpt lat="51.0684" lon="-1.79651"></trkpt>
      <trkpt lat="51.06884" lon="-1.79633"></trkpt>
      <trkpt lat="51.06884" lon="-1.79636"></trkpt>
      <trkpt lat="51.06884" lon="-1.79634"></trkpt>
      <trkpt lat="51.07051" lon="-1.79627"></trkpt>
      <trkpt lat="51.0705" lon="-1.80072"></trkpt>
      <trkpt lat="51.07028" lon="-1.8058"></trkpt>
      <trkpt lat="51.07064" lon="-1.80681"></trkpt>
    </trkseg>
  </trk>
</gpx>
