<?xml version="1.0" encoding="UTF-8"?>
<gpx version="1.1" creator="bike-reports.velotrips" xmlns="http://www.opengis.net/gpx/1.1">
  <trk>
    <name>День 1</name>
    <trkseg>
      <trkpt lat="59.43893" lon="24.73263"></trkpt>
      <trkpt lat="59.43858" lon="24.73246"></trkpt>
      <trkpt lat="59.43966" lon="24.73578"></trkpt>
      <trkpt lat="59.43978" lon="24.73743"></trkpt>
      <trkpt lat="59.43962" lon="24.73997"></trkpt>
      <trkpt lat="59.43886" lon="24.74177"></trkpt>
      <trkpt lat="59.43852" lon="24.74279"></trkpt>
      <trkpt lat="59.43772" lon="24.74368"></trkpt>
      <trkpt lat="59.43748" lon="24.7457"></trkpt>
      <trkpt lat="59.43901" lon="24.74642"></trkpt>
      <trkpt lat="59.43984" lon="24.74729"></trkpt>
      <trkpt lat="59.44072" lon="24.74788"></trkpt>
      <trkpt lat="59.44168" lon="24.74724"></trkpt>
      <trkpt lat="59.44226" lon="24.74916"></trkpt>
      <trkpt lat="59.44183" lon="24.74895"></trkpt>
      <trkpt lat="59.44041" lon="24.74776"></trkpt>
      <trkpt lat="59.43893" lon="24.74654"></trkpt>
      <trkpt lat="59.43806" lon="24.7455"></trkpt>
      <trkpt lat="59.43792" lon="24.74653"></trkpt>
      <trkpt lat="59.43754" lon="24.74948"></trkpt>
      <trkpt lat="59.4367" lon="24.74906"></trkpt>
      <trkpt lat="59.43676" lon="24.74638"></trkpt>
      <trkpt lat="59.43694" lon="24.7439"></trkpt>
      <trkpt lat="59.43637" lon="24.74195"></trkpt>
      <trkpt lat="59.43556" lon="24.73989"></trkpt>
      <trkpt lat="59.43584" lon="24.73861"></trkpt>
      <trkpt lat="59.43685" lon="24.7394"></trkpt>
      <trkpt lat="59.43778" lon="24.74152"></trkpt>
      <trkpt lat="59.4379" lon="24.74037"></trkpt>
      <trkpt lat="59.43733" lon="24.73891"></trkpt>
      <trkpt lat="59.4371" lon="24.73831"></trkpt>
      <trkpt lat="59.43598" lon="24.73872"></trkpt>
      <trkpt lat="59.43616" lon="24.74056"></trkpt>
      <trkpt lat="59.43765" lon="24.74332"></trkpt>
      <trkpt lat="59.43738" lon="24.74477"></trkpt>
      <trkpt lat="59.43695" lon="24.74679"></trkpt>
      <trkpt lat="59.43686" lon="24.74922"></trkpt>
      <trkpt lat="59.43663" lon="24.7502"></trkpt>
      <trkpt lat="59.43677" lon="24.75258"></trkpt>
      <trkpt lat="59.43769" lon="24.75368"></trkpt>
      <trkpt lat="59.43931" lon="24.754"></trkpt>
      <trkpt lat="59.44102" lon="24.75377"></trkpt>
      <trkpt lat="59.44101" lon="24.75517"></trkpt>
      <trkpt lat="59.44041" lon="24.75812"></trkpt>
      <trkpt lat="59.43991" lon="24.76104"></trkpt>
      <trkpt lat="59.44043" lon="24.76376"></trkpt>
      <trkpt lat="59.43967" lon="24.76688"></trkpt>
      <trkpt lat="59.43984" lon="24.7712"></trkpt>
      <trkpt lat="59.44054" lon="24.77482"></trkpt>
      <trkpt lat="59.44044" lon="24.77866"></trkpt>
      <trkpt lat="59.44127" lon="24.78054"></trkpt>
      <trkpt lat="59.44171" lon="24.78347"></trkpt>
      <trkpt lat="59.44206" lon="24.78633"></trkpt>
      <trkpt lat="59.44304" lon="24.78801"></trkpt>
      <trkpt lat="59.44309" lon="24.79089"></trkpt>
      <trkpt lat="59.44331" lon="24.79374"></trkpt>
      <trkpt lat="59.44226" lon="24.79542"></trkpt>
      <trkpt lat="59.44076" lon="24.79613"></trkpt>
      <trkpt lat="59.43955" lon="24.79374"></trkpt>
      <trkpt lat="59.43917" lon="24.79385"></trkpt>
      <trkpt lat="59.43885" lon="24.79627"></trkpt>
      <trkpt lat="59.43994" lon="24.7996"></trkpt>
      <trkpt lat="59.44084" lon="24.8009"></trkpt>
      <trkpt lat="59.44189" lon="24.79924"></trkpt>
      <trkpt lat="59.44274" lon="24.80151"></trkpt>
      <trkpt lat="59.44362" lon="24.80258"></trkpt>
      <trkpt lat="59.44331" lon="24.80561"></trkpt>
      <trkpt lat="59.44282" lon="24.80772"></trkpt>
      <trkpt lat="59.44306" lon="24.81127"></trkpt>
      <trkpt lat="59.44459" lon="24.81428"></trkpt>
      <trkpt lat="59.44592" lon="24.81475"></trkpt>
      <trkpt lat="59.4474" lon="24.81484"></trkpt>
      <trkpt lat="59.44893" lon="24.81451"></trkpt>
      <trkpt lat="59.45026" lon="24.81347"></trkpt>
      <trkpt lat="59.45216" lon="24.81276"></trkpt>
      <trkpt lat="59.45404" lon="24.81367"></trkpt>
      <trkpt lat="59.45511" lon="24.81234"></trkpt>
      <trkpt lat="59.45562" lon="24.81129"></trkpt>
      <trkpt lat="59.45529" lon="24.81206"></trkpt>
      <trkpt lat="59.457" lon="24.81315"></trkpt>
      <trkpt lat="59.45822" lon="24.81535"></trkpt>
      <trkpt lat="59.45834" lon="24.81862"></trkpt>
      <trkpt lat="59.45874" lon="24.82082"></trkpt>
      <trkpt lat="59.46037" lon="24.82325"></trkpt>
      <trkpt lat="59.46136" lon="24.82642"></trkpt>
      <trkpt lat="59.46242" lon="24.82576"></trkpt>
      <trkpt lat="59.46361" lon="24.82827"></trkpt>
      <trkpt lat="59.46486" lon="24.83059"></trkpt>
      <trkpt lat="59.46635" lon="24.83322"></trkpt>
      <trkpt lat="59.4678" lon="24.83399"></trkpt>
      <trkpt lat="59.4684" lon="24.83715"></trkpt>
      <trkpt lat="59.46861" lon="24.84114"></trkpt>
      <trkpt lat="59.46782" lon="24.84457"></trkpt>
      <trkpt lat="59.46763" lon="24.84802"></trkpt>
      <trkpt lat="59.46696" lon="24.85134"></trkpt>
      <trkpt lat="59.46634" lon="24.85554"></trkpt>
      <trkpt lat="59.46655" lon="24.85985"></trkpt>
      <trkpt lat="59.46734" lon="24.86361"></trkpt>
      <trkpt lat="59.46822" lon="24.86695"></trkpt>
      <trkpt lat="59.46913" lon="24.87047"></trkpt>
      <trkpt lat="59.47006" lon="24.87358"></trkpt>
      <trkpt lat="59.47138" lon="24.87648"></trkpt>
      <trkpt lat="59.47176" lon="24.87986"></trkpt>
      <trkpt lat="59.47237" lon="24.88301"></trkpt>
      <trkpt lat="59.47299" lon="24.88611"></trkpt>
      <trkpt lat="59.47357" lon="24.8887"></trkpt>
      <trkpt lat="59.4744" lon="24.89156"></trkpt>
      <trkpt lat="59.47422" lon="24.89477"></trkpt>
      <trkpt lat="59.47369" lon="24.8977"></trkpt>
      <trkpt lat="59.47212" lon="24.89978"></trkpt>
      <trkpt lat="59.47037" lon="24.90213"></trkpt>
      <trkpt lat="59.46822" lon="24.90394"></trkpt>
      <trkpt lat="59.46768" lon="24.90652"></trkpt>
      <trkpt lat="59.46927" lon="24.90875"></trkpt>
      <trkpt lat="59.47125" lon="24.91014"></trkpt>
      <trkpt lat="59.47301" lon="24.91276"></trkpt>
      <trkpt lat="59.4743" lon="24.91513"></trkpt>
      <trkpt lat="59.47621" lon="24.91761"></trkpt>
      <trkpt lat="59.47805" lon="24.92139"></trkpt>
      <trkpt lat="59.47944" lon="24.92502"></trkpt>
      <trkpt lat="59.48003" lon="24.9283"></trkpt>
      <trkpt lat="59.48107" lon="24.93093"></trkpt>
      <trkpt lat="59.48161" lon="24.93496"></trkpt>
      <trkpt lat="59.4822" lon="24.93927"></trkpt>
      <trkpt lat="59.48113" lon="24.94311"></trkpt>
      <trkpt lat="59.47977" lon="24.94497"></trkpt>
      <trkpt lat="59.47825" lon="24.9474"></trkpt>
      <trkpt lat="59.47819" lon="24.94758"></trkpt>
      <trkpt lat="59.47974" lon="24.945"></trkpt>
      <trkpt lat="59.48138" lon="24.94435"></trkpt>
      <trkpt lat="59.48157" lon="24.94865"></trkpt>
      <trkpt lat="59.48106" lon="24.95279"></trkpt>
      <trkpt lat="59.48064" lon="24.95624"></trkpt>
      <trkpt lat="59.48024" lon="24.95979"></trkpt>
      <trkpt lat="59.47977" lon="24.96374"></trkpt>
      <trkpt lat="59.47967" lon="24.96741"></trkpt>
      <trkpt lat="59.48009" lon="24.96957"></trkpt>
      <trkpt lat="59.47979" lon="24.97345"></trkpt>
      <trkpt lat="59.47989" lon="24.97782"></trkpt>
      <trkpt lat="59.48014" lon="24.98132"></trkpt>
      <trkpt lat="59.48042" lon="24.98469"></trkpt>
      <trkpt lat="59.48016" lon="24.98804"></trkpt>
      <trkpt lat="59.47938" lon="24.9907"></trkpt>
      <trkpt lat="59.47936" lon="24.99447"></trkpt>
      <trkpt lat="59.47928" lon="24.99815"></trkpt>
      <trkpt lat="59.47905" lon="25.00104"></trkpt>
      <trkpt lat="59.47898" lon="25.00475"></trkpt>
      <trkpt lat="59.47892" lon="25.008"></trkpt>
      <trkpt lat="59.47914" lon="25.01106"></trkpt>
      <trkpt lat="59.47795" lon="25.01259"></trkpt>
      <trkpt lat="59.47645" lon="25.0128"></trkpt>
    </trkseg>
  </trk>
  <trk>
    <name>День 2</name>
    <trkseg>
      <trkpt lat="59.47876" lon="25.01396"></trkpt>
      <trkpt lat="59.47673" lon="25.0176"></trkpt>
      <trkpt lat="59.47288" lon="25.02008"></trkpt>
      <trkpt lat="59.47716" lon="25.02459"></trkpt>
      <trkpt lat="59.48153" lon="25.02805"></trkpt>
      <trkpt lat="59.48287" lon="25.04068"></trkpt>
      <trkpt lat="59.48308" lon="25.05216"></trkpt>
      <trkpt lat="59.48613" lon="25.06347"></trkpt>
      <trkpt lat="59.48734" lon="25.07482"></trkpt>
      <trkpt lat="59.48481" lon="25.08045"></trkpt>
      <trkpt lat="59.48584" lon="25.08954"></trkpt>
      <trkpt lat="59.48172" lon="25.09704"></trkpt>
      <trkpt lat="59.47681" lon="25.09833"></trkpt>
      <trkpt lat="59.47378" lon="25.10105"></trkpt>
      <trkpt lat="59.46938" lon="25.09302"></trkpt>
      <trkpt lat="59.46601" lon="25.08734"></trkpt>
      <trkpt lat="59.45993" lon="25.08877"></trkpt>
      <trkpt lat="59.45578" lon="25.09691"></trkpt>
      <trkpt lat="59.45334" lon="25.10716"></trkpt>
      <trkpt lat="59.44978" lon="25.11683"></trkpt>
      <trkpt lat="59.44548" lon="25.12384"></trkpt>
      <trkpt lat="59.44178" lon="25.13496"></trkpt>
      <trkpt lat="59.43962" lon="25.14697"></trkpt>
      <trkpt lat="59.43975" lon="25.15838"></trkpt>
      <trkpt lat="59.44089" lon="25.16906"></trkpt>
      <trkpt lat="59.4454" lon="25.17289"></trkpt>
      <trkpt lat="59.44934" lon="25.17926"></trkpt>
      <trkpt lat="59.44973" lon="25.17757"></trkpt>
      <trkpt lat="59.44916" lon="25.18485"></trkpt>
      <trkpt lat="59.45166" lon="25.18606"></trkpt>
      <trkpt lat="59.45196" lon="25.19603"></trkpt>
      <trkpt lat="59.4543" lon="25.20294"></trkpt>
      <trkpt lat="59.45746" lon="25.2113"></trkpt>
      <trkpt lat="59.45903" lon="25.22159"></trkpt>
      <trkpt lat="59.46041" lon="25.23254"></trkpt>
      <trkpt lat="59.46444" lon="25.23946"></trkpt>
      <trkpt lat="59.46742" lon="25.24792"></trkpt>
      <trkpt lat="59.46819" lon="25.25809"></trkpt>
      <trkpt lat="59.46858" lon="25.26756"></trkpt>
      <trkpt lat="59.46881" lon="25.2795"></trkpt>
      <trkpt lat="59.46902" lon="25.29052"></trkpt>
      <trkpt lat="59.46911" lon="25.30241"></trkpt>
      <trkpt lat="59.46795" lon="25.31336"></trkpt>
      <trkpt lat="59.46561" lon="25.32236"></trkpt>
      <trkpt lat="59.46297" lon="25.33236"></trkpt>
      <trkpt lat="59.45975" lon="25.342"></trkpt>
      <trkpt lat="59.45731" lon="25.35289"></trkpt>
      <trkpt lat="59.45598" lon="25.36274"></trkpt>
      <trkpt lat="59.45237" lon="25.3715"></trkpt>
      <trkpt lat="59.45176" lon="25.38195"></trkpt>
      <trkpt lat="59.45216" lon="25.39225"></trkpt>
      <trkpt lat="59.45211" lon="25.40193"></trkpt>
      <trkpt lat="59.4522" lon="25.41177"></trkpt>
      <trkpt lat="59.45263" lon="25.42119"></trkpt>
      <trkpt lat="59.45316" lon="25.43112"></trkpt>
      <trkpt lat="59.45449" lon="25.44099"></trkpt>
      <trkpt lat="59.45784" lon="25.44991"></trkpt>
      <trkpt lat="59.46323" lon="25.44909"></trkpt>
      <trkpt lat="59.4691" lon="25.44958"></trkpt>
      <trkpt lat="59.47402" lon="25.45515"></trkpt>
      <trkpt lat="59.47818" lon="25.46364"></trkpt>
      <trkpt lat="59.47971" lon="25.45474"></trkpt>
      <trkpt lat="59.47953" lon="25.45495"></trkpt>
      <trkpt lat="59.47875" lon="25.45715"></trkpt>
      <trkpt lat="59.47842" lon="25.46397"></trkpt>
      <trkpt lat="59.4741" lon="25.45528"></trkpt>
      <trkpt lat="59.46809" lon="25.44917"></trkpt>
      <trkpt lat="59.46079" lon="25.4494"></trkpt>
      <trkpt lat="59.45568" lon="25.44539"></trkpt>
      <trkpt lat="59.4514" lon="25.44259"></trkpt>
      <trkpt lat="59.44733" lon="25.44426"></trkpt>
      <trkpt lat="59.44627" lon="25.44367"></trkpt>
      <trkpt lat="59.44968" lon="25.4424"></trkpt>
      <trkpt lat="59.45423" lon="25.44089"></trkpt>
      <trkpt lat="59.45759" lon="25.44935"></trkpt>
      <trkpt lat="59.46318" lon="25.44914"></trkpt>
      <trkpt lat="59.4689" lon="25.44947"></trkpt>
      <trkpt lat="59.47384" lon="25.45474"></trkpt>
      <trkpt lat="59.47796" lon="25.4632"></trkpt>
      <trkpt lat="59.48289" lon="25.47126"></trkpt>
      <trkpt lat="59.48823" lon="25.47796"></trkpt>
      <trkpt lat="59.49266" lon="25.48639"></trkpt>
      <trkpt lat="59.4949" lon="25.495"></trkpt>
      <trkpt lat="59.49729" lon="25.50338"></trkpt>
      <trkpt lat="59.50071" lon="25.51158"></trkpt>
      <trkpt lat="59.50485" lon="25.51957"></trkpt>
      <trkpt lat="59.51111" lon="25.51919"></trkpt>
      <trkpt lat="59.51598" lon="25.51409"></trkpt>
      <trkpt lat="59.51704" lon="25.5122"></trkpt>
      <trkpt lat="59.51445" lon="25.51791"></trkpt>
      <trkpt lat="59.51482" lon="25.52893"></trkpt>
      <trkpt lat="59.51419" lon="25.54157"></trkpt>
      <trkpt lat="59.51696" lon="25.55214"></trkpt>
      <trkpt lat="59.5211" lon="25.55492"></trkpt>
      <trkpt lat="59.52499" lon="25.56247"></trkpt>
      <trkpt lat="59.5302" lon="25.56758"></trkpt>
      <trkpt lat="59.53538" lon="25.57082"></trkpt>
      <trkpt lat="59.54014" lon="25.5778"></trkpt>
      <trkpt lat="59.54523" lon="25.58164"></trkpt>
      <trkpt lat="59.55019" lon="25.57936"></trkpt>
      <trkpt lat="59.55434" lon="25.57537"></trkpt>
      <trkpt lat="59.55951" lon="25.5819"></trkpt>
      <trkpt lat="59.56397" lon="25.59095"></trkpt>
      <trkpt lat="59.57126" lon="25.59173"></trkpt>
      <trkpt lat="59.57717" lon="25.59942"></trkpt>
      <trkpt lat="59.57765" lon="25.6094"></trkpt>
      <trkpt lat="59.57228" lon="25.61724"></trkpt>
      <trkpt lat="59.56756" lon="25.62557"></trkpt>
      <trkpt lat="59.56374" lon="25.63765"></trkpt>
      <trkpt lat="59.56366" lon="25.64876"></trkpt>
      <trkpt lat="59.56346" lon="25.65971"></trkpt>
      <trkpt lat="59.56252" lon="25.66369"></trkpt>
      <trkpt lat="59.562" lon="25.67481"></trkpt>
      <trkpt lat="59.56303" lon="25.68569"></trkpt>
      <trkpt lat="59.56557" lon="25.69495"></trkpt>
      <trkpt lat="59.56906" lon="25.70372"></trkpt>
      <trkpt lat="59.57288" lon="25.71228"></trkpt>
      <trkpt lat="59.57575" lon="25.7232"></trkpt>
      <trkpt lat="59.57888" lon="25.72502"></trkpt>
      <trkpt lat="59.57633" lon="25.72893"></trkpt>
      <trkpt lat="59.57234" lon="25.73525"></trkpt>
      <trkpt lat="59.56988" lon="25.74401"></trkpt>
      <trkpt lat="59.5697" lon="25.75441"></trkpt>
      <trkpt lat="59.5694" lon="25.76614"></trkpt>
      <trkpt lat="59.56792" lon="25.77607"></trkpt>
      <trkpt lat="59.5653" lon="25.78443"></trkpt>
      <trkpt lat="59.56329" lon="25.79121"></trkpt>
      <trkpt lat="59.559" lon="25.79275"></trkpt>
      <trkpt lat="59.55854" lon="25.80092"></trkpt>
      <trkpt lat="59.55925" lon="25.81089"></trkpt>
      <trkpt lat="59.56091" lon="25.81994"></trkpt>
      <trkpt lat="59.56033" lon="25.82792"></trkpt>
      <trkpt lat="59.5634" lon="25.83405"></trkpt>
      <trkpt lat="59.56628" lon="25.84325"></trkpt>
      <trkpt lat="59.56812" lon="25.85221"></trkpt>
      <trkpt lat="59.56456" lon="25.85624"></trkpt>
      <trkpt lat="59.56382" lon="25.86483"></trkpt>
      <trkpt lat="59.565" lon="25.87528"></trkpt>
      <trkpt lat="59.56644" lon="25.8862"></trkpt>
      <trkpt lat="59.56868" lon="25.89655"></trkpt>
      <trkpt lat="59.571" lon="25.90707"></trkpt>
      <trkpt lat="59.57324" lon="25.917"></trkpt>
      <trkpt lat="59.57565" lon="25.92751"></trkpt>
      <trkpt lat="59.57864" lon="25.91884"></trkpt>
      <trkpt lat="59.58343" lon="25.91037"></trkpt>
      <trkpt lat="59.5884" lon="25.90775"></trkpt>
      <trkpt lat="59.59364" lon="25.91073"></trkpt>
      <trkpt lat="59.59802" lon="25.91663"></trkpt>
      <trkpt lat="59.60253" lon="25.9197"></trkpt>
      <trkpt lat="59.60724" lon="25.91839"></trkpt>
      <trkpt lat="59.60792" lon="25.91828"></trkpt>
    </trkseg>
  </trk>
  <trk>
    <name>День 3</name>
    <trkseg>
      <trkpt lat="59.60835" lon="25.91896"></trkpt>
      <trkpt lat="59.60342" lon="25.91981"></trkpt>
      <trkpt lat="59.59741" lon="25.91544"></trkpt>
      <trkpt lat="59.59066" lon="25.90945"></trkpt>
      <trkpt lat="59.58306" lon="25.91144"></trkpt>
      <trkpt lat="59.57777" lon="25.92168"></trkpt>
      <trkpt lat="59.57553" lon="25.93559"></trkpt>
      <trkpt lat="59.57631" lon="25.94877"></trkpt>
      <trkpt lat="59.57652" lon="25.95877"></trkpt>
      <trkpt lat="59.57797" lon="25.96623"></trkpt>
      <trkpt lat="59.58123" lon="25.96747"></trkpt>
      <trkpt lat="59.578" lon="25.97229"></trkpt>
      <trkpt lat="59.5826" lon="25.98101"></trkpt>
      <trkpt lat="59.58899" lon="25.98686"></trkpt>
      <trkpt lat="59.59642" lon="25.99093"></trkpt>
      <trkpt lat="59.60389" lon="25.99057"></trkpt>
      <trkpt lat="59.60983" lon="25.99865"></trkpt>
      <trkpt lat="59.61519" lon="26.01229"></trkpt>
      <trkpt lat="59.61776" lon="26.02707"></trkpt>
      <trkpt lat="59.61386" lon="26.04086"></trkpt>
      <trkpt lat="59.60692" lon="26.04849"></trkpt>
      <trkpt lat="59.60348" lon="26.06369"></trkpt>
      <trkpt lat="59.60061" lon="26.08"></trkpt>
      <trkpt lat="59.59455" lon="26.08365"></trkpt>
      <trkpt lat="59.58839" lon="26.09324"></trkpt>
      <trkpt lat="59.58337" lon="26.10294"></trkpt>
      <trkpt lat="59.58005" lon="26.11295"></trkpt>
      <trkpt lat="59.57393" lon="26.11259"></trkpt>
      <trkpt lat="59.56797" lon="26.10598"></trkpt>
      <trkpt lat="59.56321" lon="26.09653"></trkpt>
      <trkpt lat="59.55722" lon="26.09146"></trkpt>
      <trkpt lat="59.55045" lon="26.08495"></trkpt>
      <trkpt lat="59.54261" lon="26.08523"></trkpt>
      <trkpt lat="59.53762" lon="26.08776"></trkpt>
      <trkpt lat="59.5389" lon="26.09936"></trkpt>
      <trkpt lat="59.54316" lon="26.11074"></trkpt>
      <trkpt lat="59.54718" lon="26.122"></trkpt>
      <trkpt lat="59.54758" lon="26.13489"></trkpt>
      <trkpt lat="59.5432" lon="26.14787"></trkpt>
      <trkpt lat="59.54322" lon="26.16192"></trkpt>
      <trkpt lat="59.54472" lon="26.17456"></trkpt>
      <trkpt lat="59.54259" lon="26.18931"></trkpt>
      <trkpt lat="59.54454" lon="26.20163"></trkpt>
      <trkpt lat="59.54457" lon="26.21366"></trkpt>
      <trkpt lat="59.54075" lon="26.22634"></trkpt>
      <trkpt lat="59.54293" lon="26.2364"></trkpt>
      <trkpt lat="59.55032" lon="26.23823"></trkpt>
      <trkpt lat="59.55792" lon="26.23976"></trkpt>
      <trkpt lat="59.56592" lon="26.24147"></trkpt>
      <trkpt lat="59.56914" lon="26.25759"></trkpt>
      <trkpt lat="59.5755" lon="26.268"></trkpt>
      <trkpt lat="59.57408" lon="26.27976"></trkpt>
      <trkpt lat="59.56967" lon="26.29233"></trkpt>
      <trkpt lat="59.56739" lon="26.29937"></trkpt>
      <trkpt lat="59.56588" lon="26.30616"></trkpt>
      <trkpt lat="59.56002" lon="26.31432"></trkpt>
      <trkpt lat="59.55502" lon="26.32367"></trkpt>
      <trkpt lat="59.55259" lon="26.33794"></trkpt>
      <trkpt lat="59.55238" lon="26.35211"></trkpt>
      <trkpt lat="59.55157" lon="26.36637"></trkpt>
      <trkpt lat="59.54941" lon="26.38215"></trkpt>
      <trkpt lat="59.54682" lon="26.39463"></trkpt>
      <trkpt lat="59.54376" lon="26.40619"></trkpt>
      <trkpt lat="59.53828" lon="26.41192"></trkpt>
      <trkpt lat="59.53519" lon="26.42685"></trkpt>
      <trkpt lat="59.53033" lon="26.44056"></trkpt>
      <trkpt lat="59.52671" lon="26.45463"></trkpt>
      <trkpt lat="59.53035" lon="26.46495"></trkpt>
      <trkpt lat="59.53455" lon="26.46845"></trkpt>
      <trkpt lat="59.52994" lon="26.46456"></trkpt>
      <trkpt lat="59.5242" lon="26.46589"></trkpt>
      <trkpt lat="59.51779" lon="26.46813"></trkpt>
      <trkpt lat="59.51132" lon="26.47036"></trkpt>
      <trkpt lat="59.50419" lon="26.47766"></trkpt>
      <trkpt lat="59.49709" lon="26.48477"></trkpt>
      <trkpt lat="59.49445" lon="26.49958"></trkpt>
      <trkpt lat="59.49506" lon="26.51158"></trkpt>
      <trkpt lat="59.499" lon="26.51654"></trkpt>
      <trkpt lat="59.49932" lon="26.52653"></trkpt>
      <trkpt lat="59.49877" lon="26.53968"></trkpt>
      <trkpt lat="59.49927" lon="26.54978"></trkpt>
      <trkpt lat="59.49783" lon="26.56165"></trkpt>
      <trkpt lat="59.49368" lon="26.57502"></trkpt>
      <trkpt lat="59.48831" lon="26.58812"></trkpt>
      <trkpt lat="59.48264" lon="26.60173"></trkpt>
      <trkpt lat="59.47713" lon="26.61503"></trkpt>
      <trkpt lat="59.47136" lon="26.629"></trkpt>
      <trkpt lat="59.46563" lon="26.64278"></trkpt>
      <trkpt lat="59.46005" lon="26.65634"></trkpt>
      <trkpt lat="59.45435" lon="26.66989"></trkpt>
      <trkpt lat="59.44846" lon="26.68321"></trkpt>
      <trkpt lat="59.45072" lon="26.6945"></trkpt>
      <trkpt lat="59.45529" lon="26.7059"></trkpt>
      <trkpt lat="59.4603" lon="26.71828"></trkpt>
      <trkpt lat="59.46439" lon="26.73173"></trkpt>
      <trkpt lat="59.46688" lon="26.74321"></trkpt>
      <trkpt lat="59.47002" lon="26.7547"></trkpt>
      <trkpt lat="59.47151" lon="26.77019"></trkpt>
      <trkpt lat="59.47512" lon="26.78349"></trkpt>
      <trkpt lat="59.47471" lon="26.79681"></trkpt>
      <trkpt lat="59.47061" lon="26.81279"></trkpt>
      <trkpt lat="59.46347" lon="26.82584"></trkpt>
      <trkpt lat="59.4576" lon="26.84035"></trkpt>
      <trkpt lat="59.45171" lon="26.85446"></trkpt>
      <trkpt lat="59.44533" lon="26.85373"></trkpt>
      <trkpt lat="59.43946" lon="26.85063"></trkpt>
      <trkpt lat="59.43732" lon="26.86509"></trkpt>
      <trkpt lat="59.43758" lon="26.87952"></trkpt>
      <trkpt lat="59.43765" lon="26.89456"></trkpt>
      <trkpt lat="59.43851" lon="26.9098"></trkpt>
      <trkpt lat="59.4364" lon="26.92432"></trkpt>
      <trkpt lat="59.43326" lon="26.9378"></trkpt>
      <trkpt lat="59.42918" lon="26.95185"></trkpt>
      <trkpt lat="59.43346" lon="26.96439"></trkpt>
      <trkpt lat="59.4332" lon="26.97765"></trkpt>
      <trkpt lat="59.43234" lon="26.99044"></trkpt>
      <trkpt lat="59.43286" lon="26.9964"></trkpt>
      <trkpt lat="59.42892" lon="27.00476"></trkpt>
      <trkpt lat="59.42232" lon="27.00997"></trkpt>
      <trkpt lat="59.41632" lon="27.01605"></trkpt>
      <trkpt lat="59.41518" lon="27.02741"></trkpt>
      <trkpt lat="59.41691" lon="27.03332"></trkpt>
      <trkpt lat="59.41809" lon="27.04331"></trkpt>
      <trkpt lat="59.42046" lon="27.05365"></trkpt>
      <trkpt lat="59.42127" lon="27.06357"></trkpt>
      <trkpt lat="59.42417" lon="27.06992"></trkpt>
      <trkpt lat="59.42522" lon="27.07944"></trkpt>
      <trkpt lat="59.42582" lon="27.0892"></trkpt>
      <trkpt lat="59.42533" lon="27.10032"></trkpt>
      <trkpt lat="59.42432" lon="27.111"></trkpt>
      <trkpt lat="59.42438" lon="27.1234"></trkpt>
      <trkpt lat="59.42402" lon="27.13553"></trkpt>
      <trkpt lat="59.42091" lon="27.14271"></trkpt>
      <trkpt lat="59.42481" lon="27.1529"></trkpt>
      <trkpt lat="59.42952" lon="27.16145"></trkpt>
      <trkpt lat="59.43347" lon="27.17085"></trkpt>
      <trkpt lat="59.43715" lon="27.17969"></trkpt>
      <trkpt lat="59.43846" lon="27.18963"></trkpt>
      <trkpt lat="59.43615" lon="27.20051"></trkpt>
      <trkpt lat="59.43286" lon="27.21108"></trkpt>
      <trkpt lat="59.43008" lon="27.22222"></trkpt>
      <trkpt lat="59.4301" lon="27.23175"></trkpt>
      <trkpt lat="59.43301" lon="27.24342"></trkpt>
      <trkpt lat="59.43553" lon="27.25503"></trkpt>
      <trkpt lat="59.43829" lon="27.26575"></trkpt>
      <trkpt lat="59.43921" lon="27.27695"></trkpt>
      <trkpt lat="59.43763" lon="27.28936"></trkpt>
      <trkpt lat="59.43906" lon="27.30046"></trkpt>
      <trkpt lat="59.44281" lon="27.31036"></trkpt>
      <trkpt lat="59.44316" lon="27.32379"></trkpt>
      <trkpt lat="59.44325" lon="27.33594"></trkpt>
    </trkseg>
  </trk>
  <trk>
    <name>День 4</name>
    <trkseg>
      <trkpt lat="59.44314" lon="27.33601"></trkpt>
      <trkpt lat="59.44408" lon="27.34142"></trkpt>
      <trkpt lat="59.44355" lon="27.34872"></trkpt>
      <trkpt lat="59.4427" lon="27.35543"></trkpt>
      <trkpt lat="59.44125" lon="27.36113"></trkpt>
      <trkpt lat="59.43809" lon="27.36515"></trkpt>
      <trkpt lat="59.43666" lon="27.37051"></trkpt>
      <trkpt lat="59.43695" lon="27.37794"></trkpt>
      <trkpt lat="59.43724" lon="27.38554"></trkpt>
      <trkpt lat="59.43696" lon="27.39321"></trkpt>
      <trkpt lat="59.43794" lon="27.40011"></trkpt>
      <trkpt lat="59.43935" lon="27.40605"></trkpt>
      <trkpt lat="59.4415" lon="27.41295"></trkpt>
      <trkpt lat="59.44153" lon="27.42095"></trkpt>
      <trkpt lat="59.44052" lon="27.42896"></trkpt>
      <trkpt lat="59.4393" lon="27.43608"></trkpt>
      <trkpt lat="59.438" lon="27.44375"></trkpt>
      <trkpt lat="59.43629" lon="27.45186"></trkpt>
      <trkpt lat="59.43499" lon="27.45922"></trkpt>
      <trkpt lat="59.4332" lon="27.46407"></trkpt>
      <trkpt lat="59.43198" lon="27.47158"></trkpt>
      <trkpt lat="59.43083" lon="27.47974"></trkpt>
      <trkpt lat="59.43" lon="27.4868"></trkpt>
      <trkpt lat="59.42856" lon="27.49396"></trkpt>
      <trkpt lat="59.42724" lon="27.50131"></trkpt>
      <trkpt lat="59.42553" lon="27.50706"></trkpt>
      <trkpt lat="59.42509" lon="27.51711"></trkpt>
      <trkpt lat="59.42113" lon="27.51957"></trkpt>
      <trkpt lat="59.41752" lon="27.51745"></trkpt>
      <trkpt lat="59.41443" lon="27.51842"></trkpt>
      <trkpt lat="59.41426" lon="27.52818"></trkpt>
      <trkpt lat="59.4133" lon="27.53568"></trkpt>
      <trkpt lat="59.41239" lon="27.54287"></trkpt>
      <trkpt lat="59.41011" lon="27.54993"></trkpt>
      <trkpt lat="59.40585" lon="27.55586"></trkpt>
      <trkpt lat="59.40237" lon="27.56328"></trkpt>
      <trkpt lat="59.40326" lon="27.57145"></trkpt>
      <trkpt lat="59.40405" lon="27.57946"></trkpt>
      <trkpt lat="59.40437" lon="27.58876"></trkpt>
      <trkpt lat="59.4059" lon="27.59624"></trkpt>
      <trkpt lat="59.4065" lon="27.6029"></trkpt>
      <trkpt lat="59.40795" lon="27.60952"></trkpt>
      <trkpt lat="59.40848" lon="27.6168"></trkpt>
      <trkpt lat="59.41107" lon="27.6213"></trkpt>
      <trkpt lat="59.41399" lon="27.62772"></trkpt>
      <trkpt lat="59.4135" lon="27.63418"></trkpt>
      <trkpt lat="59.41419" lon="27.64099"></trkpt>
      <trkpt lat="59.41372" lon="27.64704"></trkpt>
      <trkpt lat="59.41072" lon="27.64681"></trkpt>
      <trkpt lat="59.4074" lon="27.64654"></trkpt>
      <trkpt lat="59.40416" lon="27.64632"></trkpt>
      <trkpt lat="59.40375" lon="27.65265"></trkpt>
      <trkpt lat="59.40362" lon="27.65927"></trkpt>
      <trkpt lat="59.40273" lon="27.66495"></trkpt>
      <trkpt lat="59.39906" lon="27.66703"></trkpt>
      <trkpt lat="59.39554" lon="27.6683"></trkpt>
      <trkpt lat="59.39245" lon="27.6681"></trkpt>
      <trkpt lat="59.39217" lon="27.67828"></trkpt>
      <trkpt lat="59.39191" lon="27.68833"></trkpt>
      <trkpt lat="59.3917" lon="27.69927"></trkpt>
      <trkpt lat="59.39148" lon="27.70982"></trkpt>
      <trkpt lat="59.39125" lon="27.72095"></trkpt>
      <trkpt lat="59.39121" lon="27.73162"></trkpt>
      <trkpt lat="59.39429" lon="27.73415"></trkpt>
      <trkpt lat="59.39152" lon="27.73818"></trkpt>
      <trkpt lat="59.39124" lon="27.74908"></trkpt>
      <trkpt lat="59.39508" lon="27.74863"></trkpt>
      <trkpt lat="59.39908" lon="27.74918"></trkpt>
      <trkpt lat="59.39748" lon="27.75673"></trkpt>
      <trkpt lat="59.3965" lon="27.76241"></trkpt>
      <trkpt lat="59.39525" lon="27.76885"></trkpt>
      <trkpt lat="59.39375" lon="27.77125"></trkpt>
      <trkpt lat="59.39261" lon="27.7746"></trkpt>
      <trkpt lat="59.39024" lon="27.77956"></trkpt>
      <trkpt lat="59.38948" lon="27.79007"></trkpt>
      <trkpt lat="59.38856" lon="27.8008"></trkpt>
      <trkpt lat="59.38698" lon="27.81249"></trkpt>
      <trkpt lat="59.38547" lon="27.82343"></trkpt>
      <trkpt lat="59.38394" lon="27.83465"></trkpt>
      <trkpt lat="59.38229" lon="27.84635"></trkpt>
      <trkpt lat="59.38101" lon="27.85571"></trkpt>
      <trkpt lat="59.37959" lon="27.866"></trkpt>
      <trkpt lat="59.37858" lon="27.87328"></trkpt>
      <trkpt lat="59.37722" lon="27.88307"></trkpt>
      <trkpt lat="59.37678" lon="27.89504"></trkpt>
      <trkpt lat="59.37696" lon="27.90693"></trkpt>
      <trkpt lat="59.37781" lon="27.91787"></trkpt>
      <trkpt lat="59.38105" lon="27.92142"></trkpt>
      <trkpt lat="59.38517" lon="27.92066"></trkpt>
      <trkpt lat="59.38876" lon="27.92094"></trkpt>
      <trkpt lat="59.39238" lon="27.92312"></trkpt>
      <trkpt lat="59.39562" lon="27.92732"></trkpt>
      <trkpt lat="59.39854" lon="27.93172"></trkpt>
      <trkpt lat="59.40192" lon="27.93647"></trkpt>
      <trkpt lat="59.40646" lon="27.94148"></trkpt>
      <trkpt lat="59.41032" lon="27.94729"></trkpt>
      <trkpt lat="59.41314" lon="27.95563"></trkpt>
      <trkpt lat="59.4168" lon="27.96608"></trkpt>
      <trkpt lat="59.41958" lon="27.97445"></trkpt>
      <trkpt lat="59.42316" lon="27.98105"></trkpt>
      <trkpt lat="59.42661" lon="27.98776"></trkpt>
      <trkpt lat="59.42993" lon="27.99372"></trkpt>
      <trkpt lat="59.4333" lon="27.99934"></trkpt>
      <trkpt lat="59.43619" lon="28.00451"></trkpt>
      <trkpt lat="59.43972" lon="28.01005"></trkpt>
      <trkpt lat="59.44296" lon="28.01522"></trkpt>
      <trkpt lat="59.44628" lon="28.02013"></trkpt>
      <trkpt lat="59.44678" lon="28.01885"></trkpt>
      <trkpt lat="59.44895" lon="28.02377"></trkpt>
      <trkpt lat="59.453" lon="28.02922"></trkpt>
      <trkpt lat="59.45714" lon="28.03481"></trkpt>
      <trkpt lat="59.46147" lon="28.04031"></trkpt>
      <trkpt lat="59.46529" lon="28.04432"></trkpt>
      <trkpt lat="59.46424" lon="28.04364"></trkpt>
      <trkpt lat="59.46093" lon="28.04787"></trkpt>
      <trkpt lat="59.45864" lon="28.05467"></trkpt>
      <trkpt lat="59.45572" lon="28.06355"></trkpt>
      <trkpt lat="59.45253" lon="28.07296"></trkpt>
      <trkpt lat="59.45005" lon="28.08453"></trkpt>
      <trkpt lat="59.44705" lon="28.09466"></trkpt>
      <trkpt lat="59.4435" lon="28.10513"></trkpt>
      <trkpt lat="59.4396" lon="28.11431"></trkpt>
      <trkpt lat="59.43476" lon="28.12111"></trkpt>
      <trkpt lat="59.42988" lon="28.12527"></trkpt>
      <trkpt lat="59.42408" lon="28.1301"></trkpt>
      <trkpt lat="59.41968" lon="28.13562"></trkpt>
      <trkpt lat="59.41554" lon="28.14331"></trkpt>
      <trkpt lat="59.41138" lon="28.15257"></trkpt>
      <trkpt lat="59.40749" lon="28.163"></trkpt>
      <trkpt lat="59.40413" lon="28.1722"></trkpt>
      <trkpt lat="59.4005" lon="28.18099"></trkpt>
      <trkpt lat="59.39718" lon="28.18806"></trkpt>
      <trkpt lat="59.39243" lon="28.19262"></trkpt>
      <trkpt lat="59.38766" lon="28.19687"></trkpt>
      <trkpt lat="59.38561" lon="28.19208"></trkpt>
      <trkpt lat="59.38403" lon="28.1903"></trkpt>
      <trkpt lat="59.38092" lon="28.19077"></trkpt>
      <trkpt lat="59.37743" lon="28.19164"></trkpt>
      <trkpt lat="59.37598" lon="28.19581"></trkpt>
      <trkpt lat="59.3754" lon="28.20046"></trkpt>
      <trkpt lat="59.3761" lon="28.19653"></trkpt>
      <trkpt lat="59.37676" lon="28.20329"></trkpt>
      <trkpt lat="59.37732" lon="28.20909"></trkpt>
      <trkpt lat="59.37648" lon="28.21414"></trkpt>
      <trkpt lat="59.37646" lon="28.22091"></trkpt>
      <trkpt lat="59.37664" lon="28.22129"></trkpt>
      <trkpt lat="59.3754" lon="28.22131"></trkpt>
      <trkpt lat="59.37661" lon="28.22587"></trkpt>
      <trkpt lat="59.37619" lon="28.23234"></trkpt>
      <trkpt lat="59.37217" lon="28.23303"></trkpt>
      <trkpt lat="59.36795" lon="28.23381"></trkpt>
    </trkseg>
  </trk>
</gpx>
