<?xml version="1.0" encoding="UTF-8"?>
<gpx version="1.1" creator="bike-reports.velotrips" xmlns="http://www.opengis.net/gpx/1.1">
  <trk>
    <name>День 1</name>
    <trkseg>
      <trkpt lat="43.77598" lon="11.24734"></trkpt>
      <trkpt lat="43.77477" lon="11.25149"></trkpt>
      <trkpt lat="43.7734" lon="11.25467"></trkpt>
      <trkpt lat="43.77377" lon="11.25719"></trkpt>
      <trkpt lat="43.77443" lon="11.25671"></trkpt>
      <trkpt lat="43.77443" lon="11.25671"></trkpt>
      <trkpt lat="43.77443" lon="11.25671"></trkpt>
      <trkpt lat="43.77443" lon="11.25671"></trkpt>
      <trkpt lat="43.77443" lon="11.25671"></trkpt>
      <trkpt lat="43.77443" lon="11.25671"></trkpt>
      <trkpt lat="43.77443" lon="11.25671"></trkpt>
      <trkpt lat="43.77443" lon="11.25671"></trkpt>
      <trkpt lat="43.77443" lon="11.25671"></trkpt>
      <trkpt lat="43.77271" lon="11.25737"></trkpt>
      <trkpt lat="43.77158" lon="11.25442"></trkpt>
      <trkpt lat="43.76972" lon="11.25566"></trkpt>
      <trkpt lat="43.76965" lon="11.256"></trkpt>
      <trkpt lat="43.76965" lon="11.25608"></trkpt>
      <trkpt lat="43.76961" lon="11.25602"></trkpt>
      <trkpt lat="43.76828" lon="11.2537"></trkpt>
      <trkpt lat="43.76753" lon="11.25598"></trkpt>
      <trkpt lat="43.76745" lon="11.25575"></trkpt>
      <trkpt lat="43.76735" lon="11.25657"></trkpt>
      <trkpt lat="43.767" lon="11.25805"></trkpt>
      <trkpt lat="43.76698" lon="11.25804"></trkpt>
      <trkpt lat="43.76698" lon="11.258"></trkpt>
      <trkpt lat="43.76694" lon="11.25808"></trkpt>
      <trkpt lat="43.76705" lon="11.25789"></trkpt>
      <trkpt lat="43.76709" lon="11.25782"></trkpt>
      <trkpt lat="43.76703" lon="11.25374"></trkpt>
      <trkpt lat="43.76926" lon="11.25406"></trkpt>
      <trkpt lat="43.77008" lon="11.25203"></trkpt>
      <trkpt lat="43.77017" lon="11.24716"></trkpt>
      <trkpt lat="43.77126" lon="11.24243"></trkpt>
      <trkpt lat="43.77407" lon="11.23447"></trkpt>
      <trkpt lat="43.7751" lon="11.22883"></trkpt>
      <trkpt lat="43.78037" lon="11.21959"></trkpt>
      <trkpt lat="43.78612" lon="11.20666"></trkpt>
      <trkpt lat="43.79109" lon="11.19719"></trkpt>
      <trkpt lat="43.79041" lon="11.1819"></trkpt>
      <trkpt lat="43.79039" lon="11.18193"></trkpt>
      <trkpt lat="43.78884" lon="11.16507"></trkpt>
      <trkpt lat="43.78567" lon="11.14502"></trkpt>
      <trkpt lat="43.78485" lon="11.14139"></trkpt>
      <trkpt lat="43.78092" lon="11.12498"></trkpt>
      <trkpt lat="43.77814" lon="11.11361"></trkpt>
      <trkpt lat="43.77311" lon="11.10831"></trkpt>
      <trkpt lat="43.77212" lon="11.09764"></trkpt>
      <trkpt lat="43.77758" lon="11.08252"></trkpt>
      <trkpt lat="43.77858" lon="11.07989"></trkpt>
      <trkpt lat="43.77851" lon="11.07989"></trkpt>
      <trkpt lat="43.77844" lon="11.07989"></trkpt>
      <trkpt lat="43.7783" lon="11.0799"></trkpt>
      <trkpt lat="43.77938" lon="11.07811"></trkpt>
      <trkpt lat="43.77495" lon="11.06867"></trkpt>
      <trkpt lat="43.76656" lon="11.05972"></trkpt>
      <trkpt lat="43.75858" lon="11.05202"></trkpt>
      <trkpt lat="43.76531" lon="11.03582"></trkpt>
      <trkpt lat="43.76195" lon="11.02745"></trkpt>
      <trkpt lat="43.75304" lon="11.03038"></trkpt>
      <trkpt lat="43.742" lon="11.02862"></trkpt>
      <trkpt lat="43.73464" lon="11.01862"></trkpt>
      <trkpt lat="43.73181" lon="11.01778"></trkpt>
      <trkpt lat="43.72858" lon="11.01188"></trkpt>
      <trkpt lat="43.72905" lon="11.00048"></trkpt>
      <trkpt lat="43.7332" lon="10.98911"></trkpt>
      <trkpt lat="43.72813" lon="10.9735"></trkpt>
      <trkpt lat="43.72272" lon="10.96274"></trkpt>
      <trkpt lat="43.71967" lon="10.9585"></trkpt>
      <trkpt lat="43.71831" lon="10.94797"></trkpt>
      <trkpt lat="43.7203" lon="10.94596"></trkpt>
      <trkpt lat="43.72023" lon="10.94776"></trkpt>
      <trkpt lat="43.7199" lon="10.94779"></trkpt>
      <trkpt lat="43.71985" lon="10.94788"></trkpt>
      <trkpt lat="43.71984" lon="10.94785"></trkpt>
      <trkpt lat="43.71982" lon="10.94781"></trkpt>
      <trkpt lat="43.71982" lon="10.94783"></trkpt>
      <trkpt lat="43.71991" lon="10.94795"></trkpt>
      <trkpt lat="43.71985" lon="10.94779"></trkpt>
      <trkpt lat="43.71986" lon="10.94784"></trkpt>
      <trkpt lat="43.71976" lon="10.94829"></trkpt>
      <trkpt lat="43.71972" lon="10.94788"></trkpt>
      <trkpt lat="43.72012" lon="10.94612"></trkpt>
      <trkpt lat="43.72008" lon="10.93373"></trkpt>
      <trkpt lat="43.7202" lon="10.91351"></trkpt>
      <trkpt lat="43.72022" lon="10.89737"></trkpt>
      <trkpt lat="43.72511" lon="10.88089"></trkpt>
      <trkpt lat="43.7219" lon="10.85589"></trkpt>
      <trkpt lat="43.72252" lon="10.83337"></trkpt>
      <trkpt lat="43.72518" lon="10.81839"></trkpt>
      <trkpt lat="43.72873" lon="10.80622"></trkpt>
      <trkpt lat="43.73531" lon="10.79516"></trkpt>
      <trkpt lat="43.73994" lon="10.78191"></trkpt>
      <trkpt lat="43.74446" lon="10.76972"></trkpt>
      <trkpt lat="43.73691" lon="10.75894"></trkpt>
      <trkpt lat="43.73015" lon="10.74747"></trkpt>
      <trkpt lat="43.72674" lon="10.74071"></trkpt>
      <trkpt lat="43.72377" lon="10.73071"></trkpt>
      <trkpt lat="43.7182" lon="10.71804"></trkpt>
      <trkpt lat="43.70934" lon="10.70781"></trkpt>
      <trkpt lat="43.70023" lon="10.69805"></trkpt>
      <trkpt lat="43.69169" lon="10.68846"></trkpt>
      <trkpt lat="43.69095" lon="10.67431"></trkpt>
      <trkpt lat="43.68613" lon="10.65925"></trkpt>
      <trkpt lat="43.68006" lon="10.64267"></trkpt>
      <trkpt lat="43.67656" lon="10.64247"></trkpt>
      <trkpt lat="43.67137" lon="10.63794"></trkpt>
      <trkpt lat="43.66672" lon="10.63634"></trkpt>
      <trkpt lat="43.66536" lon="10.62687"></trkpt>
      <trkpt lat="43.66713" lon="10.60929"></trkpt>
      <trkpt lat="43.66847" lon="10.5965"></trkpt>
      <trkpt lat="43.66855" lon="10.59646"></trkpt>
      <trkpt lat="43.66821" lon="10.59615"></trkpt>
      <trkpt lat="43.6686" lon="10.59687"></trkpt>
      <trkpt lat="43.67209" lon="10.58115"></trkpt>
      <trkpt lat="43.67311" lon="10.57713"></trkpt>
      <trkpt lat="43.67468" lon="10.56346"></trkpt>
      <trkpt lat="43.67666" lon="10.54552"></trkpt>
      <trkpt lat="43.68146" lon="10.52307"></trkpt>
      <trkpt lat="43.68525" lon="10.49887"></trkpt>
      <trkpt lat="43.68829" lon="10.4795"></trkpt>
      <trkpt lat="43.69234" lon="10.45833"></trkpt>
      <trkpt lat="43.69538" lon="10.43988"></trkpt>
      <trkpt lat="43.70296" lon="10.41737"></trkpt>
      <trkpt lat="43.71012" lon="10.40601"></trkpt>
      <trkpt lat="43.71584" lon="10.4019"></trkpt>
      <trkpt lat="43.71979" lon="10.39887"></trkpt>
      <trkpt lat="43.72257" lon="10.39568"></trkpt>
      <trkpt lat="43.72259" lon="10.39572"></trkpt>
      <trkpt lat="43.72199" lon="10.39886"></trkpt>
      <trkpt lat="43.72115" lon="10.4022"></trkpt>
      <trkpt lat="43.71979" lon="10.40252"></trkpt>
      <trkpt lat="43.7196" lon="10.40253"></trkpt>
      <trkpt lat="43.7198" lon="10.40247"></trkpt>
      <trkpt lat="43.71979" lon="10.40243"></trkpt>
      <trkpt lat="43.71902" lon="10.40211"></trkpt>
      <trkpt lat="43.719" lon="10.40213"></trkpt>
      <trkpt lat="43.71905" lon="10.40216"></trkpt>
      <trkpt lat="43.71899" lon="10.4021"></trkpt>
      <trkpt lat="43.71909" lon="10.40221"></trkpt>
      <trkpt lat="43.71912" lon="10.40219"></trkpt>
      <trkpt lat="43.71918" lon="10.40241"></trkpt>
      <trkpt lat="43.71907" lon="10.40232"></trkpt>
      <trkpt lat="43.71892" lon="10.40202"></trkpt>
      <trkpt lat="43.71906" lon="10.40224"></trkpt>
      <trkpt lat="43.71894" lon="10.4021"></trkpt>
      <trkpt lat="43.71619" lon="10.40229"></trkpt>
      <trkpt lat="43.70987" lon="10.39916"></trkpt>
      <trkpt lat="43.70766" lon="10.40287"></trkpt>
      <trkpt lat="43.70745" lon="10.40279"></trkpt>
      <trkpt lat="43.70784" lon="10.40313"></trkpt>
    </trkseg>
  </trk>
  <trk>
    <name>День 2</name>
    <trkseg>
      <trkpt lat="43.72143" lon="10.39708"></trkpt>
      <trkpt lat="43.72255" lon="10.39555"></trkpt>
      <trkpt lat="43.72286" lon="10.39318"></trkpt>
      <trkpt lat="43.72303" lon="10.39229"></trkpt>
      <trkpt lat="43.72306" lon="10.39231"></trkpt>
      <trkpt lat="43.72303" lon="10.39229"></trkpt>
      <trkpt lat="43.72577" lon="10.39066"></trkpt>
      <trkpt lat="43.73367" lon="10.38495"></trkpt>
      <trkpt lat="43.7423" lon="10.37451"></trkpt>
      <trkpt lat="43.75207" lon="10.35779"></trkpt>
      <trkpt lat="43.76436" lon="10.34258"></trkpt>
      <trkpt lat="43.76692" lon="10.32975"></trkpt>
      <trkpt lat="43.76374" lon="10.31302"></trkpt>
      <trkpt lat="43.76907" lon="10.29844"></trkpt>
      <trkpt lat="43.77624" lon="10.28281"></trkpt>
      <trkpt lat="43.7796" lon="10.27259"></trkpt>
      <trkpt lat="43.782" lon="10.2693"></trkpt>
      <trkpt lat="43.78197" lon="10.26937"></trkpt>
      <trkpt lat="43.78197" lon="10.26936"></trkpt>
      <trkpt lat="43.78193" lon="10.26936"></trkpt>
      <trkpt lat="43.78199" lon="10.26942"></trkpt>
      <trkpt lat="43.77843" lon="10.27511"></trkpt>
      <trkpt lat="43.77779" lon="10.27656"></trkpt>
      <trkpt lat="43.77765" lon="10.27996"></trkpt>
      <trkpt lat="43.77768" lon="10.27999"></trkpt>
      <trkpt lat="43.78319" lon="10.27908"></trkpt>
      <trkpt lat="43.79489" lon="10.27731"></trkpt>
      <trkpt lat="43.79746" lon="10.26745"></trkpt>
      <trkpt lat="43.80922" lon="10.26465"></trkpt>
      <trkpt lat="43.81708" lon="10.26276"></trkpt>
      <trkpt lat="43.82569" lon="10.25742"></trkpt>
      <trkpt lat="43.83489" lon="10.25374"></trkpt>
      <trkpt lat="43.84351" lon="10.24965"></trkpt>
      <trkpt lat="43.85322" lon="10.24408"></trkpt>
      <trkpt lat="43.85909" lon="10.24891"></trkpt>
      <trkpt lat="43.86517" lon="10.24883"></trkpt>
      <trkpt lat="43.86541" lon="10.24591"></trkpt>
      <trkpt lat="43.87004" lon="10.2416"></trkpt>
      <trkpt lat="43.87099" lon="10.24093"></trkpt>
      <trkpt lat="43.87062" lon="10.24081"></trkpt>
      <trkpt lat="43.87098" lon="10.24092"></trkpt>
      <trkpt lat="43.87098" lon="10.24096"></trkpt>
      <trkpt lat="43.87098" lon="10.24096"></trkpt>
      <trkpt lat="43.87097" lon="10.24096"></trkpt>
      <trkpt lat="43.87097" lon="10.24098"></trkpt>
      <trkpt lat="43.87098" lon="10.24096"></trkpt>
      <trkpt lat="43.87098" lon="10.24094"></trkpt>
      <trkpt lat="43.87098" lon="10.2409"></trkpt>
      <trkpt lat="43.87096" lon="10.24093"></trkpt>
      <trkpt lat="43.87099" lon="10.24088"></trkpt>
      <trkpt lat="43.87323" lon="10.23971"></trkpt>
      <trkpt lat="43.88236" lon="10.23424"></trkpt>
      <trkpt lat="43.8904" lon="10.22772"></trkpt>
      <trkpt lat="43.90504" lon="10.21684"></trkpt>
      <trkpt lat="43.91767" lon="10.20722"></trkpt>
      <trkpt lat="43.9269" lon="10.20008"></trkpt>
      <trkpt lat="43.92647" lon="10.20105"></trkpt>
      <trkpt lat="43.92651" lon="10.20096"></trkpt>
      <trkpt lat="43.93055" lon="10.19579"></trkpt>
      <trkpt lat="43.94125" lon="10.18539"></trkpt>
      <trkpt lat="43.94183" lon="10.18481"></trkpt>
      <trkpt lat="43.95238" lon="10.17346"></trkpt>
      <trkpt lat="43.96596" lon="10.15781"></trkpt>
      <trkpt lat="43.97794" lon="10.14363"></trkpt>
      <trkpt lat="43.98906" lon="10.1281"></trkpt>
      <trkpt lat="43.98831" lon="10.12669"></trkpt>
      <trkpt lat="43.98836" lon="10.12673"></trkpt>
      <trkpt lat="43.9884" lon="10.12678"></trkpt>
      <trkpt lat="43.98845" lon="10.12682"></trkpt>
      <trkpt lat="43.98849" lon="10.12687"></trkpt>
      <trkpt lat="43.98854" lon="10.12691"></trkpt>
      <trkpt lat="43.98858" lon="10.12695"></trkpt>
      <trkpt lat="43.98862" lon="10.12701"></trkpt>
      <trkpt lat="43.98922" lon="10.12783"></trkpt>
      <trkpt lat="43.9959" lon="10.11806"></trkpt>
      <trkpt lat="44.00276" lon="10.10792"></trkpt>
      <trkpt lat="44.0067" lon="10.09759"></trkpt>
      <trkpt lat="44.00623" lon="10.09702"></trkpt>
      <trkpt lat="44.00875" lon="10.0977"></trkpt>
      <trkpt lat="44.01354" lon="10.0919"></trkpt>
      <trkpt lat="44.01705" lon="10.08887"></trkpt>
      <trkpt lat="44.02215" lon="10.07944"></trkpt>
      <trkpt lat="44.02803" lon="10.06724"></trkpt>
      <trkpt lat="44.03495" lon="10.04677"></trkpt>
      <trkpt lat="44.04057" lon="10.03181"></trkpt>
      <trkpt lat="44.04388" lon="10.02302"></trkpt>
      <trkpt lat="44.05063" lon="10.00654"></trkpt>
      <trkpt lat="44.05527" lon="9.98569"></trkpt>
      <trkpt lat="44.06358" lon="9.97311"></trkpt>
      <trkpt lat="44.07525" lon="9.96306"></trkpt>
      <trkpt lat="44.08181" lon="9.95832"></trkpt>
      <trkpt lat="44.09264" lon="9.9442"></trkpt>
      <trkpt lat="44.09844" lon="9.93103"></trkpt>
      <trkpt lat="44.09471" lon="9.92118"></trkpt>
      <trkpt lat="44.0902" lon="9.91753"></trkpt>
      <trkpt lat="44.08473" lon="9.90902"></trkpt>
      <trkpt lat="44.08722" lon="9.89453"></trkpt>
      <trkpt lat="44.08928" lon="9.87946"></trkpt>
      <trkpt lat="44.0914" lon="9.87254"></trkpt>
      <trkpt lat="44.09607" lon="9.86668"></trkpt>
      <trkpt lat="44.10546" lon="9.86057"></trkpt>
      <trkpt lat="44.11072" lon="9.85355"></trkpt>
      <trkpt lat="44.11123" lon="9.84647"></trkpt>
      <trkpt lat="44.11057" lon="9.83426"></trkpt>
      <trkpt lat="44.10626" lon="9.82854"></trkpt>
      <trkpt lat="44.10248" lon="9.82397"></trkpt>
      <trkpt lat="44.10085" lon="9.82644"></trkpt>
      <trkpt lat="44.09955" lon="9.82772"></trkpt>
      <trkpt lat="44.09992" lon="9.82367"></trkpt>
      <trkpt lat="44.1044" lon="9.81735"></trkpt>
      <trkpt lat="44.1074" lon="9.81786"></trkpt>
      <trkpt lat="44.10757" lon="9.81781"></trkpt>
      <trkpt lat="44.10897" lon="9.81671"></trkpt>
      <trkpt lat="44.10896" lon="9.81673"></trkpt>
      <trkpt lat="44.10895" lon="9.81679"></trkpt>
      <trkpt lat="44.10902" lon="9.81677"></trkpt>
      <trkpt lat="44.10905" lon="9.81669"></trkpt>
      <trkpt lat="44.10898" lon="9.81664"></trkpt>
      <trkpt lat="44.10891" lon="9.8166"></trkpt>
      <trkpt lat="44.10769" lon="9.81582"></trkpt>
      <trkpt lat="44.10717" lon="9.8171"></trkpt>
      <trkpt lat="44.10634" lon="9.81468"></trkpt>
      <trkpt lat="44.10078" lon="9.80814"></trkpt>
      <trkpt lat="44.09714" lon="9.81255"></trkpt>
      <trkpt lat="44.09437" lon="9.81029"></trkpt>
      <trkpt lat="44.09201" lon="9.80812"></trkpt>
      <trkpt lat="44.09241" lon="9.80971"></trkpt>
      <trkpt lat="44.09295" lon="9.81407"></trkpt>
      <trkpt lat="44.09316" lon="9.81168"></trkpt>
      <trkpt lat="44.09196" lon="9.81083"></trkpt>
      <trkpt lat="44.08988" lon="9.8057"></trkpt>
      <trkpt lat="44.09072" lon="9.80269"></trkpt>
      <trkpt lat="44.09567" lon="9.80331"></trkpt>
      <trkpt lat="44.09719" lon="9.79893"></trkpt>
      <trkpt lat="44.0973" lon="9.79377"></trkpt>
      <trkpt lat="44.09595" lon="9.7875"></trkpt>
      <trkpt lat="44.09187" lon="9.78534"></trkpt>
      <trkpt lat="44.09118" lon="9.78271"></trkpt>
      <trkpt lat="44.08739" lon="9.7662"></trkpt>
      <trkpt lat="44.09257" lon="9.76078"></trkpt>
      <trkpt lat="44.09457" lon="9.74571"></trkpt>
      <trkpt lat="44.09681" lon="9.74276"></trkpt>
      <trkpt lat="44.09386" lon="9.74068"></trkpt>
      <trkpt lat="44.09905" lon="9.74081"></trkpt>
      <trkpt lat="44.09993" lon="9.74309"></trkpt>
      <trkpt lat="44.10029" lon="9.74048"></trkpt>
      <trkpt lat="44.09974" lon="9.73862"></trkpt>
      <trkpt lat="44.09863" lon="9.73783"></trkpt>
      <trkpt lat="44.09755" lon="9.73837"></trkpt>
      <trkpt lat="44.09741" lon="9.73843"></trkpt>
      <trkpt lat="44.09833" lon="9.73768"></trkpt>
    </trkseg>
  </trk>
  <trk>
    <name>День 3</name>
    <trkseg>
      <trkpt lat="44.09922" lon="9.73836"></trkpt>
      <trkpt lat="44.10002" lon="9.73935"></trkpt>
      <trkpt lat="44.10018" lon="9.74165"></trkpt>
      <trkpt lat="44.09972" lon="9.7435"></trkpt>
      <trkpt lat="44.09883" lon="9.74081"></trkpt>
      <trkpt lat="44.09652" lon="9.74101"></trkpt>
      <trkpt lat="44.0935" lon="9.74241"></trkpt>
      <trkpt lat="44.09514" lon="9.7416"></trkpt>
      <trkpt lat="44.09787" lon="9.74317"></trkpt>
      <trkpt lat="44.10166" lon="9.75113"></trkpt>
      <trkpt lat="44.10193" lon="9.74397"></trkpt>
      <trkpt lat="44.10893" lon="9.73471"></trkpt>
      <trkpt lat="44.11175" lon="9.73322"></trkpt>
      <trkpt lat="44.11297" lon="9.73463"></trkpt>
      <trkpt lat="44.11418" lon="9.73682"></trkpt>
      <trkpt lat="44.11386" lon="9.73787"></trkpt>
      <trkpt lat="44.11653" lon="9.7365"></trkpt>
      <trkpt lat="44.11575" lon="9.73397"></trkpt>
      <trkpt lat="44.11657" lon="9.73023"></trkpt>
      <trkpt lat="44.11712" lon="9.72639"></trkpt>
      <trkpt lat="44.12015" lon="9.72563"></trkpt>
      <trkpt lat="44.12189" lon="9.72303"></trkpt>
      <trkpt lat="44.12372" lon="9.72494"></trkpt>
      <trkpt lat="44.12585" lon="9.72528"></trkpt>
      <trkpt lat="44.125" lon="9.7206"></trkpt>
      <trkpt lat="44.12674" lon="9.72081"></trkpt>
      <trkpt lat="44.12892" lon="9.71966"></trkpt>
      <trkpt lat="44.13147" lon="9.71334"></trkpt>
      <trkpt lat="44.13294" lon="9.70687"></trkpt>
      <trkpt lat="44.13795" lon="9.70694"></trkpt>
      <trkpt lat="44.14274" lon="9.71113"></trkpt>
      <trkpt lat="44.14681" lon="9.70777"></trkpt>
      <trkpt lat="44.14709" lon="9.70091"></trkpt>
      <trkpt lat="44.14828" lon="9.69516"></trkpt>
      <trkpt lat="44.14924" lon="9.68837"></trkpt>
      <trkpt lat="44.14869" lon="9.68705"></trkpt>
      <trkpt lat="44.14872" lon="9.68696"></trkpt>
      <trkpt lat="44.14578" lon="9.68418"></trkpt>
      <trkpt lat="44.14623" lon="9.68079"></trkpt>
      <trkpt lat="44.14762" lon="9.67632"></trkpt>
      <trkpt lat="44.15169" lon="9.6725"></trkpt>
      <trkpt lat="44.1551" lon="9.66794"></trkpt>
      <trkpt lat="44.16133" lon="9.66069"></trkpt>
      <trkpt lat="44.16456" lon="9.65626"></trkpt>
      <trkpt lat="44.16368" lon="9.65106"></trkpt>
      <trkpt lat="44.16785" lon="9.65287"></trkpt>
      <trkpt lat="44.17168" lon="9.6479"></trkpt>
      <trkpt lat="44.17447" lon="9.64394"></trkpt>
      <trkpt lat="44.17478" lon="9.64213"></trkpt>
      <trkpt lat="44.17619" lon="9.63696"></trkpt>
      <trkpt lat="44.17415" lon="9.63339"></trkpt>
      <trkpt lat="44.17517" lon="9.62813"></trkpt>
      <trkpt lat="44.17557" lon="9.61917"></trkpt>
      <trkpt lat="44.17128" lon="9.61095"></trkpt>
      <trkpt lat="44.1703" lon="9.60842"></trkpt>
      <trkpt lat="44.16926" lon="9.61034"></trkpt>
      <trkpt lat="44.16911" lon="9.61069"></trkpt>
      <trkpt lat="44.16927" lon="9.61037"></trkpt>
      <trkpt lat="44.17247" lon="9.60948"></trkpt>
      <trkpt lat="44.17285" lon="9.61099"></trkpt>
      <trkpt lat="44.17303" lon="9.60869"></trkpt>
      <trkpt lat="44.1754" lon="9.60504"></trkpt>
      <trkpt lat="44.17844" lon="9.6052"></trkpt>
      <trkpt lat="44.1791" lon="9.59947"></trkpt>
      <trkpt lat="44.17719" lon="9.59855"></trkpt>
      <trkpt lat="44.17983" lon="9.59452"></trkpt>
      <trkpt lat="44.1835" lon="9.59072"></trkpt>
      <trkpt lat="44.18598" lon="9.59375"></trkpt>
      <trkpt lat="44.18846" lon="9.5964"></trkpt>
      <trkpt lat="44.19177" lon="9.59715"></trkpt>
      <trkpt lat="44.19349" lon="9.59527"></trkpt>
      <trkpt lat="44.19249" lon="9.59174"></trkpt>
      <trkpt lat="44.19557" lon="9.59241"></trkpt>
      <trkpt lat="44.19874" lon="9.58993"></trkpt>
      <trkpt lat="44.20157" lon="9.59255"></trkpt>
      <trkpt lat="44.20336" lon="9.59469"></trkpt>
      <trkpt lat="44.20462" lon="9.59196"></trkpt>
      <trkpt lat="44.20641" lon="9.59089"></trkpt>
      <trkpt lat="44.20992" lon="9.59078"></trkpt>
      <trkpt lat="44.21179" lon="9.58637"></trkpt>
      <trkpt lat="44.21591" lon="9.58553"></trkpt>
      <trkpt lat="44.22149" lon="9.58938"></trkpt>
      <trkpt lat="44.22873" lon="9.58968"></trkpt>
      <trkpt lat="44.23419" lon="9.58467"></trkpt>
      <trkpt lat="44.23971" lon="9.58175"></trkpt>
      <trkpt lat="44.24468" lon="9.5784"></trkpt>
      <trkpt lat="44.24956" lon="9.56959"></trkpt>
      <trkpt lat="44.25195" lon="9.56138"></trkpt>
      <trkpt lat="44.25527" lon="9.55077"></trkpt>
      <trkpt lat="44.25362" lon="9.54242"></trkpt>
      <trkpt lat="44.25377" lon="9.53408"></trkpt>
      <trkpt lat="44.25398" lon="9.52911"></trkpt>
      <trkpt lat="44.25645" lon="9.52449"></trkpt>
      <trkpt lat="44.25729" lon="9.51417"></trkpt>
      <trkpt lat="44.25895" lon="9.50392"></trkpt>
      <trkpt lat="44.25786" lon="9.49768"></trkpt>
      <trkpt lat="44.25716" lon="9.4872"></trkpt>
      <trkpt lat="44.25567" lon="9.47672"></trkpt>
      <trkpt lat="44.25796" lon="9.47118"></trkpt>
      <trkpt lat="44.25575" lon="9.46327"></trkpt>
      <trkpt lat="44.25962" lon="9.45919"></trkpt>
      <trkpt lat="44.26068" lon="9.45138"></trkpt>
      <trkpt lat="44.26044" lon="9.44605"></trkpt>
      <trkpt lat="44.26389" lon="9.44131"></trkpt>
      <trkpt lat="44.26559" lon="9.43273"></trkpt>
      <trkpt lat="44.26606" lon="9.42709"></trkpt>
      <trkpt lat="44.2685" lon="9.41699"></trkpt>
      <trkpt lat="44.27294" lon="9.40376"></trkpt>
      <trkpt lat="44.27176" lon="9.39682"></trkpt>
      <trkpt lat="44.26979" lon="9.3929"></trkpt>
      <trkpt lat="44.2704" lon="9.3903"></trkpt>
      <trkpt lat="44.27025" lon="9.39358"></trkpt>
      <trkpt lat="44.27057" lon="9.39392"></trkpt>
      <trkpt lat="44.27057" lon="9.394"></trkpt>
      <trkpt lat="44.27049" lon="9.39402"></trkpt>
      <trkpt lat="44.2706" lon="9.39406"></trkpt>
      <trkpt lat="44.27048" lon="9.39403"></trkpt>
      <trkpt lat="44.27047" lon="9.39418"></trkpt>
      <trkpt lat="44.27087" lon="9.39531"></trkpt>
      <trkpt lat="44.27182" lon="9.39904"></trkpt>
      <trkpt lat="44.27192" lon="9.39886"></trkpt>
      <trkpt lat="44.27197" lon="9.39914"></trkpt>
      <trkpt lat="44.27901" lon="9.39232"></trkpt>
      <trkpt lat="44.28508" lon="9.38375"></trkpt>
      <trkpt lat="44.29191" lon="9.37612"></trkpt>
      <trkpt lat="44.30163" lon="9.35615"></trkpt>
      <trkpt lat="44.30828" lon="9.34206"></trkpt>
      <trkpt lat="44.31478" lon="9.32433"></trkpt>
      <trkpt lat="44.32031" lon="9.31707"></trkpt>
      <trkpt lat="44.32124" lon="9.31428"></trkpt>
      <trkpt lat="44.32261" lon="9.31848"></trkpt>
      <trkpt lat="44.32315" lon="9.31475"></trkpt>
      <trkpt lat="44.32361" lon="9.30908"></trkpt>
      <trkpt lat="44.32504" lon="9.3041"></trkpt>
      <trkpt lat="44.32665" lon="9.29764"></trkpt>
      <trkpt lat="44.32717" lon="9.29418"></trkpt>
      <trkpt lat="44.33076" lon="9.28784"></trkpt>
      <trkpt lat="44.3334" lon="9.28198"></trkpt>
      <trkpt lat="44.33389" lon="9.27512"></trkpt>
      <trkpt lat="44.33768" lon="9.26883"></trkpt>
      <trkpt lat="44.33774" lon="9.26638"></trkpt>
      <trkpt lat="44.33982" lon="9.26235"></trkpt>
      <trkpt lat="44.34274" lon="9.25501"></trkpt>
      <trkpt lat="44.34136" lon="9.24741"></trkpt>
      <trkpt lat="44.34366" lon="9.24246"></trkpt>
      <trkpt lat="44.34746" lon="9.23833"></trkpt>
      <trkpt lat="44.34864" lon="9.23066"></trkpt>
      <trkpt lat="44.35194" lon="9.2225"></trkpt>
      <trkpt lat="44.35528" lon="9.21132"></trkpt>
      <trkpt lat="44.3577" lon="9.20954"></trkpt>
      <trkpt lat="44.35769" lon="9.21056"></trkpt>
    </trkseg>
  </trk>
  <trk>
    <name>День 4</name>
    <trkseg>
      <trkpt lat="44.35767" lon="9.21052"></trkpt>
      <trkpt lat="44.35657" lon="9.21074"></trkpt>
      <trkpt lat="44.35661" lon="9.20448"></trkpt>
      <trkpt lat="44.35665" lon="9.19766"></trkpt>
      <trkpt lat="44.35521" lon="9.19346"></trkpt>
      <trkpt lat="44.35171" lon="9.19147"></trkpt>
      <trkpt lat="44.34908" lon="9.18792"></trkpt>
      <trkpt lat="44.34806" lon="9.18465"></trkpt>
      <trkpt lat="44.34796" lon="9.18021"></trkpt>
      <trkpt lat="44.3468" lon="9.17718"></trkpt>
      <trkpt lat="44.34776" lon="9.17779"></trkpt>
      <trkpt lat="44.34772" lon="9.17721"></trkpt>
      <trkpt lat="44.34572" lon="9.17421"></trkpt>
      <trkpt lat="44.34469" lon="9.17235"></trkpt>
      <trkpt lat="44.34415" lon="9.17155"></trkpt>
      <trkpt lat="44.34407" lon="9.17041"></trkpt>
      <trkpt lat="44.34851" lon="9.16413"></trkpt>
      <trkpt lat="44.35267" lon="9.15608"></trkpt>
      <trkpt lat="44.35654" lon="9.15187"></trkpt>
      <trkpt lat="44.35855" lon="9.14778"></trkpt>
      <trkpt lat="44.36129" lon="9.14386"></trkpt>
      <trkpt lat="44.36125" lon="9.14173"></trkpt>
      <trkpt lat="44.36139" lon="9.14221"></trkpt>
      <trkpt lat="44.36143" lon="9.14214"></trkpt>
      <trkpt lat="44.36142" lon="9.1422"></trkpt>
      <trkpt lat="44.36144" lon="9.1422"></trkpt>
      <trkpt lat="44.36152" lon="9.14142"></trkpt>
      <trkpt lat="44.36079" lon="9.13788"></trkpt>
      <trkpt lat="44.36302" lon="9.12828"></trkpt>
      <trkpt lat="44.36559" lon="9.12264"></trkpt>
      <trkpt lat="44.36787" lon="9.11442"></trkpt>
      <trkpt lat="44.37234" lon="9.10279"></trkpt>
      <trkpt lat="44.37239" lon="9.09481"></trkpt>
      <trkpt lat="44.3746" lon="9.0851"></trkpt>
      <trkpt lat="44.37877" lon="9.07074"></trkpt>
      <trkpt lat="44.38025" lon="9.06064"></trkpt>
      <trkpt lat="44.38053" lon="9.05797"></trkpt>
      <trkpt lat="44.38267" lon="9.05194"></trkpt>
      <trkpt lat="44.3853" lon="9.04243"></trkpt>
      <trkpt lat="44.38444" lon="9.0315"></trkpt>
      <trkpt lat="44.38418" lon="9.02745"></trkpt>
      <trkpt lat="44.3837" lon="9.02272"></trkpt>
      <trkpt lat="44.38562" lon="9.01234"></trkpt>
      <trkpt lat="44.38674" lon="9.00259"></trkpt>
      <trkpt lat="44.38854" lon="8.99431"></trkpt>
      <trkpt lat="44.38848" lon="8.99414"></trkpt>
      <trkpt lat="44.39188" lon="8.98668"></trkpt>
      <trkpt lat="44.39479" lon="8.97795"></trkpt>
      <trkpt lat="44.3904" lon="8.9739"></trkpt>
      <trkpt lat="44.39279" lon="8.96404"></trkpt>
      <trkpt lat="44.39279" lon="8.96389"></trkpt>
      <trkpt lat="44.39272" lon="8.96382"></trkpt>
      <trkpt lat="44.39278" lon="8.96383"></trkpt>
      <trkpt lat="44.39129" lon="8.96402"></trkpt>
      <trkpt lat="44.39125" lon="8.9639"></trkpt>
      <trkpt lat="44.3915" lon="8.96437"></trkpt>
      <trkpt lat="44.39252" lon="8.96104"></trkpt>
      <trkpt lat="44.39499" lon="8.94891"></trkpt>
      <trkpt lat="44.39877" lon="8.94496"></trkpt>
      <trkpt lat="44.40253" lon="8.94426"></trkpt>
      <trkpt lat="44.40506" lon="8.93657"></trkpt>
      <trkpt lat="44.40256" lon="8.93145"></trkpt>
      <trkpt lat="44.4085" lon="8.92888"></trkpt>
      <trkpt lat="44.41163" lon="8.92809"></trkpt>
      <trkpt lat="44.41507" lon="8.91474"></trkpt>
      <trkpt lat="44.41225" lon="8.90902"></trkpt>
      <trkpt lat="44.41065" lon="8.90611"></trkpt>
      <trkpt lat="44.40852" lon="8.89796"></trkpt>
      <trkpt lat="44.41218" lon="8.88791"></trkpt>
      <trkpt lat="44.41518" lon="8.88073"></trkpt>
      <trkpt lat="44.41577" lon="8.87025"></trkpt>
      <trkpt lat="44.41941" lon="8.85908"></trkpt>
      <trkpt lat="44.42362" lon="8.84436"></trkpt>
      <trkpt lat="44.42745" lon="8.83473"></trkpt>
      <trkpt lat="44.42493" lon="8.82139"></trkpt>
      <trkpt lat="44.42362" lon="8.80701"></trkpt>
      <trkpt lat="44.42563" lon="8.79469"></trkpt>
      <trkpt lat="44.42738" lon="8.78206"></trkpt>
      <trkpt lat="44.42811" lon="8.76766"></trkpt>
      <trkpt lat="44.42844" lon="8.75411"></trkpt>
      <trkpt lat="44.42752" lon="8.74367"></trkpt>
      <trkpt lat="44.42463" lon="8.73746"></trkpt>
      <trkpt lat="44.42164" lon="8.7316"></trkpt>
      <trkpt lat="44.41638" lon="8.71649"></trkpt>
      <trkpt lat="44.41283" lon="8.70369"></trkpt>
      <trkpt lat="44.40598" lon="8.68853"></trkpt>
      <trkpt lat="44.40015" lon="8.68505"></trkpt>
      <trkpt lat="44.39381" lon="8.68035"></trkpt>
      <trkpt lat="44.39101" lon="8.66882"></trkpt>
      <trkpt lat="44.39108" lon="8.6688"></trkpt>
      <trkpt lat="44.39088" lon="8.66075"></trkpt>
      <trkpt lat="44.38951" lon="8.64734"></trkpt>
      <trkpt lat="44.38114" lon="8.63527"></trkpt>
      <trkpt lat="44.37807" lon="8.62869"></trkpt>
      <trkpt lat="44.37691" lon="8.62734"></trkpt>
      <trkpt lat="44.37417" lon="8.62493"></trkpt>
      <trkpt lat="44.37297" lon="8.62002"></trkpt>
      <trkpt lat="44.36869" lon="8.60731"></trkpt>
      <trkpt lat="44.36353" lon="8.59806"></trkpt>
      <trkpt lat="44.36069" lon="8.58744"></trkpt>
      <trkpt lat="44.3599" lon="8.57977"></trkpt>
      <trkpt lat="44.35971" lon="8.57829"></trkpt>
      <trkpt lat="44.3597" lon="8.57827"></trkpt>
      <trkpt lat="44.35967" lon="8.57817"></trkpt>
      <trkpt lat="44.35971" lon="8.57812"></trkpt>
      <trkpt lat="44.3594" lon="8.57719"></trkpt>
      <trkpt lat="44.35426" lon="8.56535"></trkpt>
      <trkpt lat="44.34903" lon="8.56669"></trkpt>
      <trkpt lat="44.34632" lon="8.56151"></trkpt>
      <trkpt lat="44.34459" lon="8.55061"></trkpt>
      <trkpt lat="44.34026" lon="8.54294"></trkpt>
      <trkpt lat="44.33462" lon="8.53509"></trkpt>
      <trkpt lat="44.33254" lon="8.52002"></trkpt>
      <trkpt lat="44.329" lon="8.50794"></trkpt>
      <trkpt lat="44.32118" lon="8.49575"></trkpt>
      <trkpt lat="44.31047" lon="8.48533"></trkpt>
      <trkpt lat="44.30653" lon="8.48463"></trkpt>
      <trkpt lat="44.302" lon="8.48049"></trkpt>
      <trkpt lat="44.29912" lon="8.47108"></trkpt>
      <trkpt lat="44.29575" lon="8.46105"></trkpt>
      <trkpt lat="44.28949" lon="8.45165"></trkpt>
      <trkpt lat="44.27904" lon="8.44227"></trkpt>
      <trkpt lat="44.27096" lon="8.4388"></trkpt>
      <trkpt lat="44.27099" lon="8.43861"></trkpt>
      <trkpt lat="44.27086" lon="8.43869"></trkpt>
      <trkpt lat="44.27094" lon="8.43854"></trkpt>
      <trkpt lat="44.27088" lon="8.43877"></trkpt>
      <trkpt lat="44.27089" lon="8.43907"></trkpt>
      <trkpt lat="44.27094" lon="8.4391"></trkpt>
      <trkpt lat="44.27093" lon="8.43923"></trkpt>
      <trkpt lat="44.27094" lon="8.43904"></trkpt>
      <trkpt lat="44.27092" lon="8.43913"></trkpt>
      <trkpt lat="44.26246" lon="8.44596"></trkpt>
      <trkpt lat="44.25673" lon="8.45162"></trkpt>
      <trkpt lat="44.24688" lon="8.44507"></trkpt>
      <trkpt lat="44.24119" lon="8.44434"></trkpt>
      <trkpt lat="44.23757" lon="8.43968"></trkpt>
      <trkpt lat="44.23149" lon="8.42502"></trkpt>
      <trkpt lat="44.22557" lon="8.41754"></trkpt>
      <trkpt lat="44.22558" lon="8.41661"></trkpt>
      <trkpt lat="44.22022" lon="8.41497"></trkpt>
      <trkpt lat="44.20906" lon="8.41745"></trkpt>
      <trkpt lat="44.1995" lon="8.41767"></trkpt>
      <trkpt lat="44.19715" lon="8.42455"></trkpt>
      <trkpt lat="44.19185" lon="8.41991"></trkpt>
      <trkpt lat="44.1863" lon="8.40811"></trkpt>
      <trkpt lat="44.1816" lon="8.39048"></trkpt>
      <trkpt lat="44.179" lon="8.37601"></trkpt>
      <trkpt lat="44.17391" lon="8.36668"></trkpt>
      <trkpt lat="44.17202" lon="8.35627"></trkpt>
      <trkpt lat="44.17204" lon="8.35646"></trkpt>
    </trkseg>
  </trk>
  <trk>
    <name>День 5</name>
    <trkseg>
      <trkpt lat="44.17205" lon="8.35637"></trkpt>
      <trkpt lat="44.17089" lon="8.35266"></trkpt>
      <trkpt lat="44.16969" lon="8.34582"></trkpt>
      <trkpt lat="44.16826" lon="8.34039"></trkpt>
      <trkpt lat="44.16146" lon="8.32997"></trkpt>
      <trkpt lat="44.15799" lon="8.31042"></trkpt>
      <trkpt lat="44.1515" lon="8.28907"></trkpt>
      <trkpt lat="44.14873" lon="8.28435"></trkpt>
      <trkpt lat="44.14593" lon="8.27708"></trkpt>
      <trkpt lat="44.13804" lon="8.26736"></trkpt>
      <trkpt lat="44.13042" lon="8.26297"></trkpt>
      <trkpt lat="44.12375" lon="8.25668"></trkpt>
      <trkpt lat="44.11647" lon="8.2482"></trkpt>
      <trkpt lat="44.10758" lon="8.2399"></trkpt>
      <trkpt lat="44.10052" lon="8.23555"></trkpt>
      <trkpt lat="44.09355" lon="8.2305"></trkpt>
      <trkpt lat="44.07947" lon="8.2207"></trkpt>
      <trkpt lat="44.07014" lon="8.2161"></trkpt>
      <trkpt lat="44.07016" lon="8.21606"></trkpt>
      <trkpt lat="44.06885" lon="8.21542"></trkpt>
      <trkpt lat="44.06876" lon="8.2154"></trkpt>
      <trkpt lat="44.06677" lon="8.21433"></trkpt>
      <trkpt lat="44.05447" lon="8.209"></trkpt>
      <trkpt lat="44.04587" lon="8.20693"></trkpt>
      <trkpt lat="44.04479" lon="8.21188"></trkpt>
      <trkpt lat="44.04258" lon="8.21478"></trkpt>
      <trkpt lat="44.04254" lon="8.21481"></trkpt>
      <trkpt lat="44.04246" lon="8.21468"></trkpt>
      <trkpt lat="44.04229" lon="8.21475"></trkpt>
      <trkpt lat="44.04237" lon="8.21454"></trkpt>
      <trkpt lat="44.04252" lon="8.21485"></trkpt>
      <trkpt lat="44.0425" lon="8.21482"></trkpt>
      <trkpt lat="44.0425" lon="8.21483"></trkpt>
      <trkpt lat="44.0427" lon="8.21483"></trkpt>
      <trkpt lat="44.04196" lon="8.21268"></trkpt>
      <trkpt lat="44.03674" lon="8.21102"></trkpt>
      <trkpt lat="44.03228" lon="8.20369"></trkpt>
      <trkpt lat="44.02514" lon="8.19602"></trkpt>
      <trkpt lat="44.01809" lon="8.19105"></trkpt>
      <trkpt lat="44.01458" lon="8.18225"></trkpt>
      <trkpt lat="44.01015" lon="8.1774"></trkpt>
      <trkpt lat="44.00769" lon="8.17333"></trkpt>
      <trkpt lat="44.00205" lon="8.1678"></trkpt>
      <trkpt lat="44.00168" lon="8.16759"></trkpt>
      <trkpt lat="44.00143" lon="8.16752"></trkpt>
      <trkpt lat="43.99206" lon="8.16277"></trkpt>
      <trkpt lat="43.97701" lon="8.1579"></trkpt>
      <trkpt lat="43.96891" lon="8.16223"></trkpt>
      <trkpt lat="43.96472" lon="8.16603"></trkpt>
      <trkpt lat="43.96152" lon="8.16882"></trkpt>
      <trkpt lat="43.95429" lon="8.17052"></trkpt>
      <trkpt lat="43.95284" lon="8.15784"></trkpt>
      <trkpt lat="43.95173" lon="8.15208"></trkpt>
      <trkpt lat="43.95086" lon="8.14905"></trkpt>
      <trkpt lat="43.95067" lon="8.14743"></trkpt>
      <trkpt lat="43.95079" lon="8.14719"></trkpt>
      <trkpt lat="43.95076" lon="8.14727"></trkpt>
      <trkpt lat="43.95059" lon="8.14705"></trkpt>
      <trkpt lat="43.95091" lon="8.14738"></trkpt>
      <trkpt lat="43.95076" lon="8.1471"></trkpt>
      <trkpt lat="43.94908" lon="8.14086"></trkpt>
      <trkpt lat="43.94373" lon="8.13658"></trkpt>
      <trkpt lat="43.93877" lon="8.13418"></trkpt>
      <trkpt lat="43.9309" lon="8.13064"></trkpt>
      <trkpt lat="43.9267" lon="8.12325"></trkpt>
      <trkpt lat="43.9242" lon="8.10942"></trkpt>
      <trkpt lat="43.91928" lon="8.09514"></trkpt>
      <trkpt lat="43.90795" lon="8.08151"></trkpt>
      <trkpt lat="43.90101" lon="8.07664"></trkpt>
      <trkpt lat="43.89843" lon="8.07827"></trkpt>
      <trkpt lat="43.90122" lon="8.07495"></trkpt>
      <trkpt lat="43.89847" lon="8.07463"></trkpt>
      <trkpt lat="43.89663" lon="8.07458"></trkpt>
      <trkpt lat="43.89509" lon="8.07469"></trkpt>
      <trkpt lat="43.89264" lon="8.0719"></trkpt>
      <trkpt lat="43.88983" lon="8.06168"></trkpt>
      <trkpt lat="43.889" lon="8.05587"></trkpt>
      <trkpt lat="43.88838" lon="8.04669"></trkpt>
      <trkpt lat="43.88908" lon="8.04271"></trkpt>
      <trkpt lat="43.88788" lon="8.03658"></trkpt>
      <trkpt lat="43.88245" lon="8.0233"></trkpt>
      <trkpt lat="43.87667" lon="8.01849"></trkpt>
      <trkpt lat="43.87414" lon="8.01809"></trkpt>
      <trkpt lat="43.8736" lon="8.01735"></trkpt>
      <trkpt lat="43.87188" lon="8.01054"></trkpt>
      <trkpt lat="43.86964" lon="8.00193"></trkpt>
      <trkpt lat="43.86448" lon="7.98555"></trkpt>
      <trkpt lat="43.86162" lon="7.97337"></trkpt>
      <trkpt lat="43.85319" lon="7.96469"></trkpt>
      <trkpt lat="43.84525" lon="7.93501"></trkpt>
      <trkpt lat="43.84276" lon="7.91559"></trkpt>
      <trkpt lat="43.83727" lon="7.90498"></trkpt>
      <trkpt lat="43.83858" lon="7.89249"></trkpt>
      <trkpt lat="43.83687" lon="7.8752"></trkpt>
      <trkpt lat="43.83314" lon="7.85771"></trkpt>
      <trkpt lat="43.83264" lon="7.85624"></trkpt>
      <trkpt lat="43.82974" lon="7.84723"></trkpt>
      <trkpt lat="43.82355" lon="7.84024"></trkpt>
      <trkpt lat="43.81744" lon="7.82766"></trkpt>
      <trkpt lat="43.82039" lon="7.82072"></trkpt>
      <trkpt lat="43.82329" lon="7.8034"></trkpt>
      <trkpt lat="43.82059" lon="7.78909"></trkpt>
      <trkpt lat="43.81675" lon="7.77936"></trkpt>
      <trkpt lat="43.81389" lon="7.77573"></trkpt>
      <trkpt lat="43.81269" lon="7.76774"></trkpt>
      <trkpt lat="43.81127" lon="7.76479"></trkpt>
      <trkpt lat="43.81393" lon="7.77028"></trkpt>
      <trkpt lat="43.81539" lon="7.77337"></trkpt>
      <trkpt lat="43.81678" lon="7.7739"></trkpt>
      <trkpt lat="43.8173" lon="7.77367"></trkpt>
      <trkpt lat="43.81757" lon="7.77406"></trkpt>
      <trkpt lat="43.81752" lon="7.77408"></trkpt>
      <trkpt lat="43.81755" lon="7.77397"></trkpt>
      <trkpt lat="43.81753" lon="7.77399"></trkpt>
      <trkpt lat="43.81664" lon="7.77428"></trkpt>
      <trkpt lat="43.81569" lon="7.77406"></trkpt>
      <trkpt lat="43.81468" lon="7.77646"></trkpt>
      <trkpt lat="43.8111" lon="7.76528"></trkpt>
      <trkpt lat="43.80708" lon="7.75164"></trkpt>
      <trkpt lat="43.79947" lon="7.72314"></trkpt>
      <trkpt lat="43.80078" lon="7.71628"></trkpt>
      <trkpt lat="43.80139" lon="7.7093"></trkpt>
      <trkpt lat="43.79974" lon="7.69907"></trkpt>
      <trkpt lat="43.7928" lon="7.6926"></trkpt>
      <trkpt lat="43.78567" lon="7.68335"></trkpt>
      <trkpt lat="43.78103" lon="7.67583"></trkpt>
      <trkpt lat="43.77738" lon="7.67358"></trkpt>
      <trkpt lat="43.7782" lon="7.66339"></trkpt>
      <trkpt lat="43.78101" lon="7.65206"></trkpt>
      <trkpt lat="43.78336" lon="7.63862"></trkpt>
      <trkpt lat="43.78695" lon="7.63122"></trkpt>
      <trkpt lat="43.78692" lon="7.62934"></trkpt>
      <trkpt lat="43.78512" lon="7.62666"></trkpt>
      <trkpt lat="43.78565" lon="7.6204"></trkpt>
      <trkpt lat="43.78813" lon="7.60864"></trkpt>
      <trkpt lat="43.79285" lon="7.60531"></trkpt>
      <trkpt lat="43.78991" lon="7.60151"></trkpt>
      <trkpt lat="43.79175" lon="7.60383"></trkpt>
      <trkpt lat="43.79345" lon="7.60017"></trkpt>
      <trkpt lat="43.79541" lon="7.59307"></trkpt>
      <trkpt lat="43.79353" lon="7.57693"></trkpt>
      <trkpt lat="43.79361" lon="7.56717"></trkpt>
      <trkpt lat="43.79473" lon="7.5632"></trkpt>
      <trkpt lat="43.79266" lon="7.56278"></trkpt>
      <trkpt lat="43.78368" lon="7.5539"></trkpt>
      <trkpt lat="43.785" lon="7.54103"></trkpt>
      <trkpt lat="43.78456" lon="7.52958"></trkpt>
      <trkpt lat="43.78359" lon="7.51487"></trkpt>
      <trkpt lat="43.77902" lon="7.50761"></trkpt>
      <trkpt lat="43.77631" lon="7.49708"></trkpt>
      <trkpt lat="43.7747" lon="7.49299"></trkpt>
    </trkseg>
  </trk>
</gpx>
