<?xml version="1.0" encoding="UTF-8"?>
<gpx version="1.1" creator="bike-reports.velotrips" xmlns="http://www.opengis.net/gpx/1.1">
  <trk>
    <name>День 1</name>
    <trkseg>
      <trkpt lat="54.69426" lon="20.49665"></trkpt>
      <trkpt lat="54.69402" lon="20.50271"></trkpt>
      <trkpt lat="54.69877" lon="20.50344"></trkpt>
      <trkpt lat="54.70189" lon="20.50487"></trkpt>
      <trkpt lat="54.70668" lon="20.50719"></trkpt>
      <trkpt lat="54.70667" lon="20.51164"></trkpt>
      <trkpt lat="54.70542" lon="20.51409"></trkpt>
      <trkpt lat="54.7032" lon="20.51527"></trkpt>
      <trkpt lat="54.70452" lon="20.51405"></trkpt>
      <trkpt lat="54.70466" lon="20.5145"></trkpt>
      <trkpt lat="54.70437" lon="20.51458"></trkpt>
      <trkpt lat="54.70237" lon="20.51477"></trkpt>
      <trkpt lat="54.70431" lon="20.51358"></trkpt>
      <trkpt lat="54.70474" lon="20.50793"></trkpt>
      <trkpt lat="54.70841" lon="20.50802"></trkpt>
      <trkpt lat="54.70986" lon="20.50904"></trkpt>
      <trkpt lat="54.71024" lon="20.51271"></trkpt>
      <trkpt lat="54.71024" lon="20.51318"></trkpt>
      <trkpt lat="54.71038" lon="20.51241"></trkpt>
      <trkpt lat="54.71133" lon="20.51042"></trkpt>
      <trkpt lat="54.71561" lon="20.50373"></trkpt>
      <trkpt lat="54.71936" lon="20.50133"></trkpt>
      <trkpt lat="54.71843" lon="20.49774"></trkpt>
      <trkpt lat="54.71756" lon="20.49631"></trkpt>
      <trkpt lat="54.71898" lon="20.4935"></trkpt>
      <trkpt lat="54.72058" lon="20.49661"></trkpt>
      <trkpt lat="54.72028" lon="20.49944"></trkpt>
      <trkpt lat="54.72041" lon="20.50102"></trkpt>
      <trkpt lat="54.72352" lon="20.49891"></trkpt>
      <trkpt lat="54.7258" lon="20.49625"></trkpt>
      <trkpt lat="54.72887" lon="20.49239"></trkpt>
      <trkpt lat="54.73275" lon="20.48638"></trkpt>
      <trkpt lat="54.73533" lon="20.48254"></trkpt>
      <trkpt lat="54.73795" lon="20.47985"></trkpt>
      <trkpt lat="54.74031" lon="20.47625"></trkpt>
      <trkpt lat="54.7428" lon="20.47081"></trkpt>
      <trkpt lat="54.74529" lon="20.46469"></trkpt>
      <trkpt lat="54.74836" lon="20.45919"></trkpt>
      <trkpt lat="54.75064" lon="20.45489"></trkpt>
      <trkpt lat="54.75308" lon="20.44993"></trkpt>
      <trkpt lat="54.75285" lon="20.44335"></trkpt>
      <trkpt lat="54.75311" lon="20.44395"></trkpt>
      <trkpt lat="54.7523" lon="20.44294"></trkpt>
      <trkpt lat="54.7525" lon="20.44545"></trkpt>
      <trkpt lat="54.75326" lon="20.44997"></trkpt>
      <trkpt lat="54.75846" lon="20.44457"></trkpt>
      <trkpt lat="54.76176" lon="20.44148"></trkpt>
      <trkpt lat="54.76487" lon="20.43835"></trkpt>
      <trkpt lat="54.76837" lon="20.42899"></trkpt>
      <trkpt lat="54.77291" lon="20.42159"></trkpt>
      <trkpt lat="54.78002" lon="20.41549"></trkpt>
      <trkpt lat="54.78387" lon="20.41158"></trkpt>
      <trkpt lat="54.78763" lon="20.40025"></trkpt>
      <trkpt lat="54.79348" lon="20.38425"></trkpt>
      <trkpt lat="54.79807" lon="20.37526"></trkpt>
      <trkpt lat="54.80353" lon="20.36605"></trkpt>
      <trkpt lat="54.80845" lon="20.35793"></trkpt>
      <trkpt lat="54.81114" lon="20.35231"></trkpt>
      <trkpt lat="54.81327" lon="20.3422"></trkpt>
      <trkpt lat="54.81583" lon="20.32913"></trkpt>
      <trkpt lat="54.81838" lon="20.31702"></trkpt>
      <trkpt lat="54.81975" lon="20.30986"></trkpt>
      <trkpt lat="54.82012" lon="20.3022"></trkpt>
      <trkpt lat="54.81867" lon="20.28978"></trkpt>
      <trkpt lat="54.81781" lon="20.28225"></trkpt>
      <trkpt lat="54.81669" lon="20.27328"></trkpt>
      <trkpt lat="54.81585" lon="20.26576"></trkpt>
      <trkpt lat="54.8153" lon="20.26123"></trkpt>
      <trkpt lat="54.81527" lon="20.2531"></trkpt>
      <trkpt lat="54.81556" lon="20.24626"></trkpt>
      <trkpt lat="54.81676" lon="20.24213"></trkpt>
      <trkpt lat="54.81767" lon="20.23365"></trkpt>
      <trkpt lat="54.81918" lon="20.2254"></trkpt>
      <trkpt lat="54.81958" lon="20.21646"></trkpt>
      <trkpt lat="54.81923" lon="20.20974"></trkpt>
      <trkpt lat="54.81614" lon="20.1987"></trkpt>
      <trkpt lat="54.81467" lon="20.18574"></trkpt>
      <trkpt lat="54.81487" lon="20.17464"></trkpt>
      <trkpt lat="54.81475" lon="20.16385"></trkpt>
      <trkpt lat="54.81359" lon="20.15086"></trkpt>
      <trkpt lat="54.81295" lon="20.14016"></trkpt>
      <trkpt lat="54.81289" lon="20.12592"></trkpt>
      <trkpt lat="54.81307" lon="20.11832"></trkpt>
      <trkpt lat="54.81347" lon="20.10378"></trkpt>
      <trkpt lat="54.8139" lon="20.09307"></trkpt>
      <trkpt lat="54.81187" lon="20.0822"></trkpt>
      <trkpt lat="54.81073" lon="20.0755"></trkpt>
      <trkpt lat="54.80914" lon="20.06719"></trkpt>
      <trkpt lat="54.80338" lon="20.05844"></trkpt>
      <trkpt lat="54.80589" lon="20.05227"></trkpt>
      <trkpt lat="54.80858" lon="20.0483"></trkpt>
      <trkpt lat="54.81213" lon="20.04223"></trkpt>
      <trkpt lat="54.81593" lon="20.03669"></trkpt>
      <trkpt lat="54.82122" lon="20.02913"></trkpt>
      <trkpt lat="54.82529" lon="20.0183"></trkpt>
      <trkpt lat="54.82927" lon="20.01085"></trkpt>
      <trkpt lat="54.83189" lon="20.01053"></trkpt>
      <trkpt lat="54.83612" lon="20.00896"></trkpt>
      <trkpt lat="54.8398" lon="20.0059"></trkpt>
      <trkpt lat="54.84096" lon="19.9947"></trkpt>
      <trkpt lat="54.84372" lon="19.98719"></trkpt>
      <trkpt lat="54.84605" lon="19.97797"></trkpt>
      <trkpt lat="54.84726" lon="19.97079"></trkpt>
      <trkpt lat="54.84939" lon="19.96167"></trkpt>
      <trkpt lat="54.85381" lon="19.95272"></trkpt>
      <trkpt lat="54.85602" lon="19.94764"></trkpt>
      <trkpt lat="54.86003" lon="19.94198"></trkpt>
      <trkpt lat="54.8646" lon="19.93888"></trkpt>
      <trkpt lat="54.86646" lon="19.93761"></trkpt>
      <trkpt lat="54.86709" lon="19.93407"></trkpt>
      <trkpt lat="54.86766" lon="19.93876"></trkpt>
      <trkpt lat="54.87123" lon="19.93814"></trkpt>
      <trkpt lat="54.87416" lon="19.93746"></trkpt>
      <trkpt lat="54.87833" lon="19.93754"></trkpt>
      <trkpt lat="54.88235" lon="19.93553"></trkpt>
      <trkpt lat="54.88502" lon="19.93706"></trkpt>
      <trkpt lat="54.89053" lon="19.93925"></trkpt>
      <trkpt lat="54.89584" lon="19.94135"></trkpt>
      <trkpt lat="54.89497" lon="19.94739"></trkpt>
      <trkpt lat="54.89927" lon="19.9489"></trkpt>
      <trkpt lat="54.90254" lon="19.9541"></trkpt>
      <trkpt lat="54.90561" lon="19.95934"></trkpt>
      <trkpt lat="54.91159" lon="19.96013"></trkpt>
      <trkpt lat="54.91445" lon="19.96111"></trkpt>
      <trkpt lat="54.91338" lon="19.96819"></trkpt>
      <trkpt lat="54.91135" lon="19.97423"></trkpt>
      <trkpt lat="54.90994" lon="19.98144"></trkpt>
      <trkpt lat="54.90953" lon="19.99093"></trkpt>
      <trkpt lat="54.91148" lon="20.00486"></trkpt>
      <trkpt lat="54.91335" lon="20.00528"></trkpt>
      <trkpt lat="54.91827" lon="20.00428"></trkpt>
      <trkpt lat="54.92188" lon="20.00336"></trkpt>
      <trkpt lat="54.92446" lon="20.00281"></trkpt>
      <trkpt lat="54.92779" lon="20.00205"></trkpt>
      <trkpt lat="54.93048" lon="20.01049"></trkpt>
      <trkpt lat="54.93424" lon="20.01846"></trkpt>
      <trkpt lat="54.93743" lon="20.02504"></trkpt>
      <trkpt lat="54.9409" lon="20.03497"></trkpt>
      <trkpt lat="54.94227" lon="20.04663"></trkpt>
      <trkpt lat="54.94298" lon="20.05943"></trkpt>
      <trkpt lat="54.9438" lon="20.07363"></trkpt>
      <trkpt lat="54.94277" lon="20.08083"></trkpt>
      <trkpt lat="54.93999" lon="20.08359"></trkpt>
      <trkpt lat="54.9408" lon="20.09351"></trkpt>
      <trkpt lat="54.94157" lon="20.10048"></trkpt>
      <trkpt lat="54.94096" lon="20.10804"></trkpt>
      <trkpt lat="54.93926" lon="20.11814"></trkpt>
      <trkpt lat="54.94025" lon="20.12815"></trkpt>
      <trkpt lat="54.9417" lon="20.13545"></trkpt>
      <trkpt lat="54.94362" lon="20.14519"></trkpt>
      <trkpt lat="54.94334" lon="20.14584"></trkpt>
    </trkseg>
  </trk>
  <trk>
    <name>День 2</name>
    <trkseg>
      <trkpt lat="54.94342" lon="20.14617"></trkpt>
      <trkpt lat="54.94417" lon="20.14654"></trkpt>
      <trkpt lat="54.94447" lon="20.14295"></trkpt>
      <trkpt lat="54.94548" lon="20.14375"></trkpt>
      <trkpt lat="54.94572" lon="20.14621"></trkpt>
      <trkpt lat="54.9459" lon="20.15033"></trkpt>
      <trkpt lat="54.94615" lon="20.15296"></trkpt>
      <trkpt lat="54.94545" lon="20.15524"></trkpt>
      <trkpt lat="54.94401" lon="20.15601"></trkpt>
      <trkpt lat="54.94297" lon="20.15446"></trkpt>
      <trkpt lat="54.942" lon="20.15586"></trkpt>
      <trkpt lat="54.94276" lon="20.15897"></trkpt>
      <trkpt lat="54.94304" lon="20.16509"></trkpt>
      <trkpt lat="54.94329" lon="20.16943"></trkpt>
      <trkpt lat="54.9447" lon="20.17418"></trkpt>
      <trkpt lat="54.94422" lon="20.17494"></trkpt>
      <trkpt lat="54.94291" lon="20.17697"></trkpt>
      <trkpt lat="54.94656" lon="20.18766"></trkpt>
      <trkpt lat="54.94987" lon="20.18862"></trkpt>
      <trkpt lat="54.95063" lon="20.19625"></trkpt>
      <trkpt lat="54.95145" lon="20.20173"></trkpt>
      <trkpt lat="54.95281" lon="20.20794"></trkpt>
      <trkpt lat="54.95193" lon="20.21405"></trkpt>
      <trkpt lat="54.95401" lon="20.22058"></trkpt>
      <trkpt lat="54.95365" lon="20.22728"></trkpt>
      <trkpt lat="54.95356" lon="20.2324"></trkpt>
      <trkpt lat="54.95217" lon="20.23957"></trkpt>
      <trkpt lat="54.95101" lon="20.24644"></trkpt>
      <trkpt lat="54.95065" lon="20.25452"></trkpt>
      <trkpt lat="54.951" lon="20.26304"></trkpt>
      <trkpt lat="54.9515" lon="20.27196"></trkpt>
      <trkpt lat="54.9508" lon="20.27855"></trkpt>
      <trkpt lat="54.94599" lon="20.29071"></trkpt>
      <trkpt lat="54.94301" lon="20.29622"></trkpt>
      <trkpt lat="54.94211" lon="20.30075"></trkpt>
      <trkpt lat="54.94013" lon="20.30601"></trkpt>
      <trkpt lat="54.94063" lon="20.3067"></trkpt>
      <trkpt lat="54.93834" lon="20.30603"></trkpt>
      <trkpt lat="54.93508" lon="20.31861"></trkpt>
      <trkpt lat="54.93174" lon="20.3259"></trkpt>
      <trkpt lat="54.92678" lon="20.32377"></trkpt>
      <trkpt lat="54.92482" lon="20.32394"></trkpt>
      <trkpt lat="54.92102" lon="20.32454"></trkpt>
      <trkpt lat="54.92127" lon="20.33096"></trkpt>
      <trkpt lat="54.92041" lon="20.34739"></trkpt>
      <trkpt lat="54.92031" lon="20.36491"></trkpt>
      <trkpt lat="54.92133" lon="20.37204"></trkpt>
      <trkpt lat="54.92292" lon="20.38168"></trkpt>
      <trkpt lat="54.92328" lon="20.39187"></trkpt>
      <trkpt lat="54.92168" lon="20.3969"></trkpt>
      <trkpt lat="54.92439" lon="20.39823"></trkpt>
      <trkpt lat="54.9282" lon="20.40042"></trkpt>
      <trkpt lat="54.92917" lon="20.41015"></trkpt>
      <trkpt lat="54.92887" lon="20.42116"></trkpt>
      <trkpt lat="54.93162" lon="20.43018"></trkpt>
      <trkpt lat="54.93346" lon="20.43542"></trkpt>
      <trkpt lat="54.93594" lon="20.4427"></trkpt>
      <trkpt lat="54.94046" lon="20.45578"></trkpt>
      <trkpt lat="54.94332" lon="20.46394"></trkpt>
      <trkpt lat="54.94759" lon="20.46881"></trkpt>
      <trkpt lat="54.95124" lon="20.47029"></trkpt>
      <trkpt lat="54.9552" lon="20.47099"></trkpt>
      <trkpt lat="54.95892" lon="20.47242"></trkpt>
      <trkpt lat="54.95885" lon="20.4729"></trkpt>
      <trkpt lat="54.96021" lon="20.4763"></trkpt>
      <trkpt lat="54.96149" lon="20.48033"></trkpt>
      <trkpt lat="54.96226" lon="20.47964"></trkpt>
      <trkpt lat="54.9635" lon="20.48194"></trkpt>
      <trkpt lat="54.96303" lon="20.47826"></trkpt>
      <trkpt lat="54.9633" lon="20.4738"></trkpt>
      <trkpt lat="54.96278" lon="20.47778"></trkpt>
      <trkpt lat="54.96404" lon="20.48265"></trkpt>
      <trkpt lat="54.96428" lon="20.48371"></trkpt>
      <trkpt lat="54.96141" lon="20.48481"></trkpt>
      <trkpt lat="54.96126" lon="20.48734"></trkpt>
      <trkpt lat="54.96361" lon="20.49216"></trkpt>
      <trkpt lat="54.96536" lon="20.49651"></trkpt>
      <trkpt lat="54.96872" lon="20.50584"></trkpt>
      <trkpt lat="54.97241" lon="20.51395"></trkpt>
      <trkpt lat="54.9766" lon="20.52272"></trkpt>
      <trkpt lat="54.9771" lon="20.52556"></trkpt>
      <trkpt lat="54.97919" lon="20.53204"></trkpt>
      <trkpt lat="54.98131" lon="20.53855"></trkpt>
      <trkpt lat="54.98395" lon="20.54545"></trkpt>
      <trkpt lat="54.98637" lon="20.55128"></trkpt>
      <trkpt lat="54.98597" lon="20.55169"></trkpt>
      <trkpt lat="54.9891" lon="20.55952"></trkpt>
      <trkpt lat="54.98424" lon="20.5629"></trkpt>
      <trkpt lat="54.98124" lon="20.56451"></trkpt>
      <trkpt lat="54.98293" lon="20.5639"></trkpt>
      <trkpt lat="54.98862" lon="20.5601"></trkpt>
      <trkpt lat="54.99246" lon="20.5647"></trkpt>
      <trkpt lat="54.9974" lon="20.57742"></trkpt>
      <trkpt lat="55.00101" lon="20.58635"></trkpt>
      <trkpt lat="55.00404" lon="20.59377"></trkpt>
      <trkpt lat="55.00582" lon="20.60405"></trkpt>
      <trkpt lat="55.00887" lon="20.61275"></trkpt>
      <trkpt lat="55.0124" lon="20.61859"></trkpt>
      <trkpt lat="55.01551" lon="20.61831"></trkpt>
      <trkpt lat="55.01788" lon="20.61915"></trkpt>
      <trkpt lat="55.02307" lon="20.62334"></trkpt>
      <trkpt lat="55.02447" lon="20.62621"></trkpt>
      <trkpt lat="55.02978" lon="20.63518"></trkpt>
      <trkpt lat="55.03389" lon="20.64329"></trkpt>
      <trkpt lat="55.03701" lon="20.649"></trkpt>
      <trkpt lat="55.03977" lon="20.65309"></trkpt>
      <trkpt lat="55.0427" lon="20.66305"></trkpt>
      <trkpt lat="55.04627" lon="20.6715"></trkpt>
      <trkpt lat="55.05128" lon="20.67895"></trkpt>
      <trkpt lat="55.05377" lon="20.68516"></trkpt>
      <trkpt lat="55.05302" lon="20.69072"></trkpt>
      <trkpt lat="55.05144" lon="20.69264"></trkpt>
      <trkpt lat="55.05403" lon="20.68817"></trkpt>
      <trkpt lat="55.05521" lon="20.6846"></trkpt>
      <trkpt lat="55.05817" lon="20.68954"></trkpt>
      <trkpt lat="55.05988" lon="20.69326"></trkpt>
      <trkpt lat="55.06195" lon="20.69684"></trkpt>
      <trkpt lat="55.06498" lon="20.70142"></trkpt>
      <trkpt lat="55.06844" lon="20.70512"></trkpt>
      <trkpt lat="55.07298" lon="20.70978"></trkpt>
      <trkpt lat="55.07521" lon="20.71437"></trkpt>
      <trkpt lat="55.0783" lon="20.71823"></trkpt>
      <trkpt lat="55.08569" lon="20.72721"></trkpt>
      <trkpt lat="55.08982" lon="20.73266"></trkpt>
      <trkpt lat="55.09337" lon="20.73833"></trkpt>
      <trkpt lat="55.09669" lon="20.7419"></trkpt>
      <trkpt lat="55.10181" lon="20.7461"></trkpt>
      <trkpt lat="55.10603" lon="20.75093"></trkpt>
      <trkpt lat="55.11157" lon="20.75815"></trkpt>
      <trkpt lat="55.11774" lon="20.76465"></trkpt>
      <trkpt lat="55.12264" lon="20.77102"></trkpt>
      <trkpt lat="55.12784" lon="20.77759"></trkpt>
      <trkpt lat="55.1321" lon="20.78596"></trkpt>
      <trkpt lat="55.1341" lon="20.79305"></trkpt>
      <trkpt lat="55.13797" lon="20.8076"></trkpt>
      <trkpt lat="55.14337" lon="20.81426"></trkpt>
      <trkpt lat="55.15004" lon="20.81911"></trkpt>
      <trkpt lat="55.15122" lon="20.81678"></trkpt>
      <trkpt lat="55.15065" lon="20.8145"></trkpt>
      <trkpt lat="55.1501" lon="20.81364"></trkpt>
      <trkpt lat="55.14823" lon="20.81181"></trkpt>
      <trkpt lat="55.1497" lon="20.81309"></trkpt>
      <trkpt lat="55.15078" lon="20.81573"></trkpt>
      <trkpt lat="55.15081" lon="20.8196"></trkpt>
      <trkpt lat="55.15418" lon="20.82366"></trkpt>
      <trkpt lat="55.15497" lon="20.83366"></trkpt>
      <trkpt lat="55.15758" lon="20.84149"></trkpt>
      <trkpt lat="55.15692" lon="20.84542"></trkpt>
      <trkpt lat="55.15599" lon="20.83655"></trkpt>
      <trkpt lat="55.15445" lon="20.82621"></trkpt>
      <trkpt lat="55.15277" lon="20.82656"></trkpt>
    </trkseg>
  </trk>
  <trk>
    <name>День 3</name>
    <trkseg>
      <trkpt lat="55.15395" lon="20.82612"></trkpt>
      <trkpt lat="55.15525" lon="20.83423"></trkpt>
      <trkpt lat="55.15773" lon="20.84248"></trkpt>
      <trkpt lat="55.15795" lon="20.84734"></trkpt>
      <trkpt lat="55.15785" lon="20.84739"></trkpt>
      <trkpt lat="55.15957" lon="20.84218"></trkpt>
      <trkpt lat="55.16629" lon="20.83436"></trkpt>
      <trkpt lat="55.17285" lon="20.84084"></trkpt>
      <trkpt lat="55.17921" lon="20.85036"></trkpt>
      <trkpt lat="55.18386" lon="20.85455"></trkpt>
      <trkpt lat="55.18217" lon="20.86033"></trkpt>
      <trkpt lat="55.1803" lon="20.86258"></trkpt>
      <trkpt lat="55.1806" lon="20.86186"></trkpt>
      <trkpt lat="55.18241" lon="20.85949"></trkpt>
      <trkpt lat="55.18404" lon="20.85525"></trkpt>
      <trkpt lat="55.19227" lon="20.86094"></trkpt>
      <trkpt lat="55.19779" lon="20.8672"></trkpt>
      <trkpt lat="55.20234" lon="20.87127"></trkpt>
      <trkpt lat="55.20806" lon="20.87659"></trkpt>
      <trkpt lat="55.21512" lon="20.88283"></trkpt>
      <trkpt lat="55.21852" lon="20.88694"></trkpt>
      <trkpt lat="55.2188" lon="20.8865"></trkpt>
      <trkpt lat="55.22247" lon="20.89203"></trkpt>
      <trkpt lat="55.22067" lon="20.89522"></trkpt>
      <trkpt lat="55.22093" lon="20.89859"></trkpt>
      <trkpt lat="55.22113" lon="20.90173"></trkpt>
      <trkpt lat="55.22158" lon="20.90575"></trkpt>
      <trkpt lat="55.22138" lon="20.90499"></trkpt>
      <trkpt lat="55.22112" lon="20.9004"></trkpt>
      <trkpt lat="55.22074" lon="20.89648"></trkpt>
      <trkpt lat="55.22194" lon="20.89243"></trkpt>
      <trkpt lat="55.22224" lon="20.89113"></trkpt>
      <trkpt lat="55.22247" lon="20.89105"></trkpt>
      <trkpt lat="55.22246" lon="20.89074"></trkpt>
      <trkpt lat="55.22377" lon="20.89314"></trkpt>
      <trkpt lat="55.23042" lon="20.90141"></trkpt>
      <trkpt lat="55.23855" lon="20.91175"></trkpt>
      <trkpt lat="55.24748" lon="20.92288"></trkpt>
      <trkpt lat="55.24604" lon="20.93133"></trkpt>
      <trkpt lat="55.2448" lon="20.93667"></trkpt>
      <trkpt lat="55.2469" lon="20.94053"></trkpt>
      <trkpt lat="55.24536" lon="20.93698"></trkpt>
      <trkpt lat="55.24548" lon="20.93264"></trkpt>
      <trkpt lat="55.24797" lon="20.92508"></trkpt>
      <trkpt lat="55.25258" lon="20.92904"></trkpt>
      <trkpt lat="55.26232" lon="20.94192"></trkpt>
      <trkpt lat="55.26791" lon="20.94847"></trkpt>
      <trkpt lat="55.27597" lon="20.95907"></trkpt>
      <trkpt lat="55.27926" lon="20.9633"></trkpt>
      <trkpt lat="55.28136" lon="20.96621"></trkpt>
      <trkpt lat="55.28544" lon="20.97085"></trkpt>
      <trkpt lat="55.29395" lon="20.97306"></trkpt>
      <trkpt lat="55.30019" lon="20.97868"></trkpt>
      <trkpt lat="55.30409" lon="20.97925"></trkpt>
      <trkpt lat="55.30733" lon="20.97986"></trkpt>
      <trkpt lat="55.3101" lon="20.98864"></trkpt>
      <trkpt lat="55.31516" lon="20.99203"></trkpt>
      <trkpt lat="55.3225" lon="20.99656"></trkpt>
      <trkpt lat="55.33232" lon="21.0023"></trkpt>
      <trkpt lat="55.34417" lon="21.01041"></trkpt>
      <trkpt lat="55.35117" lon="21.01536"></trkpt>
      <trkpt lat="55.35827" lon="21.02082"></trkpt>
      <trkpt lat="55.36455" lon="21.02591"></trkpt>
      <trkpt lat="55.37085" lon="21.03039"></trkpt>
      <trkpt lat="55.37663" lon="21.03522"></trkpt>
      <trkpt lat="55.37698" lon="21.03451"></trkpt>
      <trkpt lat="55.38286" lon="21.04138"></trkpt>
      <trkpt lat="55.38779" lon="21.04355"></trkpt>
      <trkpt lat="55.39153" lon="21.04686"></trkpt>
      <trkpt lat="55.39941" lon="21.05351"></trkpt>
      <trkpt lat="55.40506" lon="21.05771"></trkpt>
      <trkpt lat="55.41005" lon="21.06061"></trkpt>
      <trkpt lat="55.41537" lon="21.06344"></trkpt>
      <trkpt lat="55.42018" lon="21.06583"></trkpt>
      <trkpt lat="55.4273" lon="21.06921"></trkpt>
      <trkpt lat="55.43619" lon="21.07241"></trkpt>
      <trkpt lat="55.44005" lon="21.07156"></trkpt>
      <trkpt lat="55.44541" lon="21.07214"></trkpt>
      <trkpt lat="55.45074" lon="21.07449"></trkpt>
      <trkpt lat="55.45588" lon="21.07717"></trkpt>
      <trkpt lat="55.46061" lon="21.0808"></trkpt>
      <trkpt lat="55.46482" lon="21.08312"></trkpt>
      <trkpt lat="55.46796" lon="21.08434"></trkpt>
      <trkpt lat="55.47467" lon="21.08685"></trkpt>
      <trkpt lat="55.47838" lon="21.0882"></trkpt>
      <trkpt lat="55.48348" lon="21.09001"></trkpt>
      <trkpt lat="55.48606" lon="21.0841"></trkpt>
      <trkpt lat="55.49129" lon="21.08609"></trkpt>
      <trkpt lat="55.4973" lon="21.08836"></trkpt>
      <trkpt lat="55.50325" lon="21.0906"></trkpt>
      <trkpt lat="55.50921" lon="21.09193"></trkpt>
      <trkpt lat="55.51256" lon="21.09284"></trkpt>
      <trkpt lat="55.52033" lon="21.0952"></trkpt>
      <trkpt lat="55.52723" lon="21.09739"></trkpt>
      <trkpt lat="55.53576" lon="21.10001"></trkpt>
      <trkpt lat="55.53966" lon="21.10074"></trkpt>
      <trkpt lat="55.5429" lon="21.10032"></trkpt>
      <trkpt lat="55.55059" lon="21.10158"></trkpt>
      <trkpt lat="55.55698" lon="21.10245"></trkpt>
      <trkpt lat="55.55839" lon="21.10681"></trkpt>
      <trkpt lat="55.55971" lon="21.11234"></trkpt>
      <trkpt lat="55.56353" lon="21.11232"></trkpt>
      <trkpt lat="55.57004" lon="21.11309"></trkpt>
      <trkpt lat="55.57556" lon="21.1136"></trkpt>
      <trkpt lat="55.58131" lon="21.11377"></trkpt>
      <trkpt lat="55.58567" lon="21.11332"></trkpt>
      <trkpt lat="55.59114" lon="21.11318"></trkpt>
      <trkpt lat="55.59507" lon="21.1153"></trkpt>
      <trkpt lat="55.59998" lon="21.11747"></trkpt>
      <trkpt lat="55.6034" lon="21.11817"></trkpt>
      <trkpt lat="55.60758" lon="21.11656"></trkpt>
      <trkpt lat="55.61128" lon="21.1188"></trkpt>
      <trkpt lat="55.61487" lon="21.12288"></trkpt>
      <trkpt lat="55.61905" lon="21.12127"></trkpt>
      <trkpt lat="55.62302" lon="21.11921"></trkpt>
      <trkpt lat="55.62834" lon="21.11878"></trkpt>
      <trkpt lat="55.63351" lon="21.11634"></trkpt>
      <trkpt lat="55.63841" lon="21.11676"></trkpt>
      <trkpt lat="55.64277" lon="21.11802"></trkpt>
      <trkpt lat="55.64242" lon="21.10948"></trkpt>
      <trkpt lat="55.64733" lon="21.1078"></trkpt>
      <trkpt lat="55.65269" lon="21.10772"></trkpt>
      <trkpt lat="55.66051" lon="21.10714"></trkpt>
      <trkpt lat="55.66486" lon="21.10612"></trkpt>
      <trkpt lat="55.6712" lon="21.10566"></trkpt>
      <trkpt lat="55.67702" lon="21.10481"></trkpt>
      <trkpt lat="55.67877" lon="21.11091"></trkpt>
      <trkpt lat="55.68024" lon="21.11963"></trkpt>
      <trkpt lat="55.68438" lon="21.12974"></trkpt>
      <trkpt lat="55.6855" lon="21.13044"></trkpt>
      <trkpt lat="55.68766" lon="21.14008"></trkpt>
      <trkpt lat="55.68812" lon="21.14492"></trkpt>
      <trkpt lat="55.68216" lon="21.15035"></trkpt>
      <trkpt lat="55.67814" lon="21.15215"></trkpt>
      <trkpt lat="55.67356" lon="21.15601"></trkpt>
      <trkpt lat="55.66933" lon="21.15952"></trkpt>
      <trkpt lat="55.66615" lon="21.16229"></trkpt>
      <trkpt lat="55.66237" lon="21.16556"></trkpt>
      <trkpt lat="55.65989" lon="21.16768"></trkpt>
      <trkpt lat="55.65566" lon="21.17139"></trkpt>
      <trkpt lat="55.65538" lon="21.18057"></trkpt>
      <trkpt lat="55.65066" lon="21.18351"></trkpt>
      <trkpt lat="55.6477" lon="21.18442"></trkpt>
      <trkpt lat="55.64447" lon="21.18029"></trkpt>
      <trkpt lat="55.64383" lon="21.17259"></trkpt>
      <trkpt lat="55.64129" lon="21.15733"></trkpt>
      <trkpt lat="55.64821" lon="21.15076"></trkpt>
      <trkpt lat="55.65149" lon="21.1502"></trkpt>
      <trkpt lat="55.65576" lon="21.14959"></trkpt>
      <trkpt lat="55.65934" lon="21.14794"></trkpt>
      <trkpt lat="55.66103" lon="21.14621"></trkpt>
    </trkseg>
  </trk>
  <trk>
    <name>День 4</name>
    <trkseg>
      <trkpt lat="54.33698" lon="10.16993"></trkpt>
      <trkpt lat="54.33692" lon="10.17012"></trkpt>
      <trkpt lat="54.33692" lon="10.17071"></trkpt>
      <trkpt lat="54.33689" lon="10.17091"></trkpt>
      <trkpt lat="54.33662" lon="10.17137"></trkpt>
      <trkpt lat="54.33655" lon="10.1714"></trkpt>
      <trkpt lat="54.33639" lon="10.17162"></trkpt>
      <trkpt lat="54.33627" lon="10.1717"></trkpt>
      <trkpt lat="54.33621" lon="10.17189"></trkpt>
      <trkpt lat="54.3362" lon="10.17209"></trkpt>
      <trkpt lat="54.33612" lon="10.17226"></trkpt>
      <trkpt lat="54.33595" lon="10.17234"></trkpt>
      <trkpt lat="54.33577" lon="10.17247"></trkpt>
      <trkpt lat="54.33568" lon="10.17249"></trkpt>
      <trkpt lat="54.3355" lon="10.17268"></trkpt>
      <trkpt lat="54.33512" lon="10.17328"></trkpt>
      <trkpt lat="54.33483" lon="10.17358"></trkpt>
      <trkpt lat="54.33474" lon="10.17365"></trkpt>
      <trkpt lat="54.33469" lon="10.17366"></trkpt>
      <trkpt lat="54.33456" lon="10.17376"></trkpt>
      <trkpt lat="54.33398" lon="10.17459"></trkpt>
      <trkpt lat="54.33387" lon="10.17469"></trkpt>
      <trkpt lat="54.33373" lon="10.1745"></trkpt>
      <trkpt lat="54.33364" lon="10.17449"></trkpt>
      <trkpt lat="54.33347" lon="10.17461"></trkpt>
      <trkpt lat="54.3332" lon="10.17494"></trkpt>
      <trkpt lat="54.33311" lon="10.17499"></trkpt>
      <trkpt lat="54.33283" lon="10.17504"></trkpt>
      <trkpt lat="54.33256" lon="10.17519"></trkpt>
      <trkpt lat="54.3325" lon="10.17527"></trkpt>
      <trkpt lat="54.33244" lon="10.17539"></trkpt>
      <trkpt lat="54.33243" lon="10.17556"></trkpt>
      <trkpt lat="54.33249" lon="10.17578"></trkpt>
      <trkpt lat="54.33264" lon="10.17607"></trkpt>
      <trkpt lat="54.33266" lon="10.17636"></trkpt>
      <trkpt lat="54.33257" lon="10.17671"></trkpt>
      <trkpt lat="54.33239" lon="10.17701"></trkpt>
      <trkpt lat="54.33231" lon="10.17708"></trkpt>
      <trkpt lat="54.33223" lon="10.17707"></trkpt>
      <trkpt lat="54.33208" lon="10.17694"></trkpt>
      <trkpt lat="54.332" lon="10.17694"></trkpt>
      <trkpt lat="54.33187" lon="10.17699"></trkpt>
      <trkpt lat="54.33173" lon="10.17698"></trkpt>
      <trkpt lat="54.33143" lon="10.17681"></trkpt>
      <trkpt lat="54.33123" lon="10.17652"></trkpt>
      <trkpt lat="54.33101" lon="10.17633"></trkpt>
      <trkpt lat="54.33095" lon="10.1763"></trkpt>
      <trkpt lat="54.33083" lon="10.17629"></trkpt>
      <trkpt lat="54.33071" lon="10.17637"></trkpt>
      <trkpt lat="54.33058" lon="10.17684"></trkpt>
      <trkpt lat="54.33052" lon="10.17686"></trkpt>
      <trkpt lat="54.33039" lon="10.17715"></trkpt>
      <trkpt lat="54.33019" lon="10.17735"></trkpt>
      <trkpt lat="54.33011" lon="10.17748"></trkpt>
      <trkpt lat="54.33006" lon="10.17766"></trkpt>
      <trkpt lat="54.33004" lon="10.1779"></trkpt>
      <trkpt lat="54.33006" lon="10.17872"></trkpt>
      <trkpt lat="54.33003" lon="10.17895"></trkpt>
      <trkpt lat="54.32995" lon="10.17923"></trkpt>
      <trkpt lat="54.32995" lon="10.17939"></trkpt>
      <trkpt lat="54.32984" lon="10.17934"></trkpt>
      <trkpt lat="54.3296" lon="10.17934"></trkpt>
      <trkpt lat="54.32952" lon="10.17939"></trkpt>
      <trkpt lat="54.32952" lon="10.18035"></trkpt>
      <trkpt lat="54.32957" lon="10.18092"></trkpt>
      <trkpt lat="54.32956" lon="10.18105"></trkpt>
      <trkpt lat="54.32944" lon="10.18136"></trkpt>
      <trkpt lat="54.32943" lon="10.18151"></trkpt>
      <trkpt lat="54.32935" lon="10.18161"></trkpt>
      <trkpt lat="54.32943" lon="10.18167"></trkpt>
      <trkpt lat="54.32977" lon="10.18148"></trkpt>
      <trkpt lat="54.32992" lon="10.18126"></trkpt>
      <trkpt lat="54.32997" lon="10.18114"></trkpt>
      <trkpt lat="54.32998" lon="10.18094"></trkpt>
      <trkpt lat="54.33005" lon="10.18103"></trkpt>
      <trkpt lat="54.33008" lon="10.18168"></trkpt>
      <trkpt lat="54.33004" lon="10.18185"></trkpt>
      <trkpt lat="54.32997" lon="10.18198"></trkpt>
      <trkpt lat="54.32939" lon="10.18268"></trkpt>
      <trkpt lat="54.32918" lon="10.18314"></trkpt>
      <trkpt lat="54.32899" lon="10.18374"></trkpt>
      <trkpt lat="54.32896" lon="10.18392"></trkpt>
      <trkpt lat="54.32896" lon="10.1841"></trkpt>
      <trkpt lat="54.32908" lon="10.18453"></trkpt>
      <trkpt lat="54.32857" lon="10.1855"></trkpt>
      <trkpt lat="54.32851" lon="10.1858"></trkpt>
      <trkpt lat="54.32836" lon="10.18626"></trkpt>
      <trkpt lat="54.32828" lon="10.18679"></trkpt>
      <trkpt lat="54.32823" lon="10.18692"></trkpt>
      <trkpt lat="54.32809" lon="10.1869"></trkpt>
      <trkpt lat="54.32757" lon="10.18665"></trkpt>
      <trkpt lat="54.32727" lon="10.18661"></trkpt>
      <trkpt lat="54.32653" lon="10.18671"></trkpt>
      <trkpt lat="54.32644" lon="10.18665"></trkpt>
      <trkpt lat="54.32635" lon="10.18654"></trkpt>
      <trkpt lat="54.32626" lon="10.18625"></trkpt>
      <trkpt lat="54.32618" lon="10.18546"></trkpt>
      <trkpt lat="54.32615" lon="10.1846"></trkpt>
      <trkpt lat="54.32618" lon="10.1839"></trkpt>
      <trkpt lat="54.32617" lon="10.18355"></trkpt>
      <trkpt lat="54.32611" lon="10.18323"></trkpt>
      <trkpt lat="54.32613" lon="10.18309"></trkpt>
    </trkseg>
  </trk>
  <trk>
    <name>День 5</name>
    <trkseg>
      <trkpt lat="54.32601" lon="10.18246"></trkpt>
      <trkpt lat="54.32582" lon="10.17553"></trkpt>
      <trkpt lat="54.32198" lon="10.16663"></trkpt>
      <trkpt lat="54.31842" lon="10.16437"></trkpt>
      <trkpt lat="54.31599" lon="10.15269"></trkpt>
      <trkpt lat="54.31659" lon="10.1442"></trkpt>
      <trkpt lat="54.31385" lon="10.13837"></trkpt>
      <trkpt lat="54.3149" lon="10.13601"></trkpt>
      <trkpt lat="54.31652" lon="10.13196"></trkpt>
      <trkpt lat="54.32017" lon="10.13518"></trkpt>
      <trkpt lat="54.32173" lon="10.1399"></trkpt>
      <trkpt lat="54.32343" lon="10.13953"></trkpt>
      <trkpt lat="54.32302" lon="10.13932"></trkpt>
      <trkpt lat="54.32545" lon="10.14008"></trkpt>
      <trkpt lat="54.32439" lon="10.1402"></trkpt>
      <trkpt lat="54.32497" lon="10.14265"></trkpt>
      <trkpt lat="54.32737" lon="10.14471"></trkpt>
      <trkpt lat="54.32573" lon="10.14502"></trkpt>
      <trkpt lat="54.3215" lon="10.142"></trkpt>
      <trkpt lat="54.32204" lon="10.13723"></trkpt>
      <trkpt lat="54.32274" lon="10.13329"></trkpt>
      <trkpt lat="54.32139" lon="10.13471"></trkpt>
      <trkpt lat="54.31995" lon="10.13389"></trkpt>
      <trkpt lat="54.31762" lon="10.13271"></trkpt>
      <trkpt lat="54.31468" lon="10.13038"></trkpt>
      <trkpt lat="54.31152" lon="10.12787"></trkpt>
      <trkpt lat="54.30965" lon="10.1365"></trkpt>
      <trkpt lat="54.31259" lon="10.14016"></trkpt>
      <trkpt lat="54.31676" lon="10.14475"></trkpt>
      <trkpt lat="54.31582" lon="10.15262"></trkpt>
      <trkpt lat="54.31889" lon="10.16546"></trkpt>
      <trkpt lat="54.32349" lon="10.17019"></trkpt>
      <trkpt lat="54.32567" lon="10.17499"></trkpt>
      <trkpt lat="54.32581" lon="10.18247"></trkpt>
      <trkpt lat="54.32608" lon="10.18646"></trkpt>
      <trkpt lat="54.32326" lon="10.19814"></trkpt>
      <trkpt lat="54.31508" lon="10.20087"></trkpt>
      <trkpt lat="54.31085" lon="10.19929"></trkpt>
      <trkpt lat="54.30827" lon="10.2004"></trkpt>
      <trkpt lat="54.30046" lon="10.20681"></trkpt>
      <trkpt lat="54.29493" lon="10.21278"></trkpt>
      <trkpt lat="54.28944" lon="10.22629"></trkpt>
      <trkpt lat="54.28774" lon="10.23301"></trkpt>
      <trkpt lat="54.28555" lon="10.24115"></trkpt>
      <trkpt lat="54.2831" lon="10.24382"></trkpt>
      <trkpt lat="54.28117" lon="10.2528"></trkpt>
      <trkpt lat="54.28079" lon="10.25857"></trkpt>
      <trkpt lat="54.28097" lon="10.26603"></trkpt>
      <trkpt lat="54.28082" lon="10.27588"></trkpt>
      <trkpt lat="54.27905" lon="10.28683"></trkpt>
      <trkpt lat="54.27707" lon="10.29871"></trkpt>
      <trkpt lat="54.27846" lon="10.30712"></trkpt>
      <trkpt lat="54.27884" lon="10.31455"></trkpt>
      <trkpt lat="54.28104" lon="10.32904"></trkpt>
      <trkpt lat="54.28107" lon="10.33675"></trkpt>
      <trkpt lat="54.28087" lon="10.35063"></trkpt>
      <trkpt lat="54.28545" lon="10.36392"></trkpt>
      <trkpt lat="54.28892" lon="10.37087"></trkpt>
      <trkpt lat="54.29105" lon="10.38135"></trkpt>
      <trkpt lat="54.28921" lon="10.39069"></trkpt>
      <trkpt lat="54.28921" lon="10.40488"></trkpt>
      <trkpt lat="54.28917" lon="10.4134"></trkpt>
      <trkpt lat="54.29087" lon="10.41976"></trkpt>
      <trkpt lat="54.28996" lon="10.42897"></trkpt>
      <trkpt lat="54.28921" lon="10.42986"></trkpt>
      <trkpt lat="54.29002" lon="10.43599"></trkpt>
      <trkpt lat="54.28996" lon="10.4453"></trkpt>
      <trkpt lat="54.28661" lon="10.45383"></trkpt>
      <trkpt lat="54.28359" lon="10.46019"></trkpt>
      <trkpt lat="54.28155" lon="10.47094"></trkpt>
      <trkpt lat="54.28453" lon="10.47869"></trkpt>
      <trkpt lat="54.29026" lon="10.48523"></trkpt>
      <trkpt lat="54.2923" lon="10.49291"></trkpt>
      <trkpt lat="54.29272" lon="10.50488"></trkpt>
      <trkpt lat="54.29243" lon="10.51552"></trkpt>
      <trkpt lat="54.29646" lon="10.52445"></trkpt>
      <trkpt lat="54.29899" lon="10.53643"></trkpt>
      <trkpt lat="54.29719" lon="10.54819"></trkpt>
      <trkpt lat="54.29589" lon="10.5602"></trkpt>
      <trkpt lat="54.29584" lon="10.57085"></trkpt>
      <trkpt lat="54.29311" lon="10.58287"></trkpt>
      <trkpt lat="54.29309" lon="10.58941"></trkpt>
      <trkpt lat="54.29231" lon="10.59376"></trkpt>
      <trkpt lat="54.29088" lon="10.60113"></trkpt>
      <trkpt lat="54.28937" lon="10.61036"></trkpt>
      <trkpt lat="54.28766" lon="10.61916"></trkpt>
      <trkpt lat="54.29013" lon="10.62996"></trkpt>
      <trkpt lat="54.2891" lon="10.64078"></trkpt>
      <trkpt lat="54.2869" lon="10.64568"></trkpt>
      <trkpt lat="54.28376" lon="10.65664"></trkpt>
      <trkpt lat="54.28115" lon="10.66644"></trkpt>
      <trkpt lat="54.28131" lon="10.67534"></trkpt>
      <trkpt lat="54.28334" lon="10.68964"></trkpt>
      <trkpt lat="54.28545" lon="10.70152"></trkpt>
      <trkpt lat="54.28752" lon="10.70812"></trkpt>
      <trkpt lat="54.29266" lon="10.71677"></trkpt>
      <trkpt lat="54.2929" lon="10.71805"></trkpt>
      <trkpt lat="54.29542" lon="10.72435"></trkpt>
      <trkpt lat="54.29713" lon="10.73021"></trkpt>
      <trkpt lat="54.30031" lon="10.74168"></trkpt>
      <trkpt lat="54.30041" lon="10.7487"></trkpt>
      <trkpt lat="54.30073" lon="10.75793"></trkpt>
      <trkpt lat="54.29858" lon="10.77033"></trkpt>
      <trkpt lat="54.29696" lon="10.77621"></trkpt>
      <trkpt lat="54.29247" lon="10.78849"></trkpt>
      <trkpt lat="54.28921" lon="10.79864"></trkpt>
      <trkpt lat="54.28796" lon="10.80815"></trkpt>
      <trkpt lat="54.28842" lon="10.8208"></trkpt>
      <trkpt lat="54.28836" lon="10.83351"></trkpt>
      <trkpt lat="54.28885" lon="10.84372"></trkpt>
      <trkpt lat="54.288" lon="10.85644"></trkpt>
      <trkpt lat="54.28728" lon="10.86774"></trkpt>
      <trkpt lat="54.28618" lon="10.87846"></trkpt>
      <trkpt lat="54.28513" lon="10.88207"></trkpt>
      <trkpt lat="54.28953" lon="10.88571"></trkpt>
      <trkpt lat="54.29086" lon="10.88984"></trkpt>
      <trkpt lat="54.29247" lon="10.88702"></trkpt>
      <trkpt lat="54.2951" lon="10.88657"></trkpt>
      <trkpt lat="54.2999" lon="10.88723"></trkpt>
      <trkpt lat="54.30231" lon="10.8935"></trkpt>
      <trkpt lat="54.30492" lon="10.90065"></trkpt>
      <trkpt lat="54.30738" lon="10.90613"></trkpt>
      <trkpt lat="54.30796" lon="10.91234"></trkpt>
      <trkpt lat="54.30825" lon="10.92308"></trkpt>
      <trkpt lat="54.30872" lon="10.9292"></trkpt>
      <trkpt lat="54.31089" lon="10.93664"></trkpt>
      <trkpt lat="54.31311" lon="10.94086"></trkpt>
      <trkpt lat="54.31399" lon="10.94643"></trkpt>
      <trkpt lat="54.31502" lon="10.95613"></trkpt>
      <trkpt lat="54.31565" lon="10.96668"></trkpt>
      <trkpt lat="54.3173" lon="10.97615"></trkpt>
      <trkpt lat="54.32078" lon="10.98457"></trkpt>
      <trkpt lat="54.32328" lon="10.99687"></trkpt>
      <trkpt lat="54.32338" lon="11.00432"></trkpt>
      <trkpt lat="54.32419" lon="11.01387"></trkpt>
      <trkpt lat="54.32361" lon="11.01458"></trkpt>
      <trkpt lat="54.32464" lon="11.02317"></trkpt>
      <trkpt lat="54.32835" lon="11.0311"></trkpt>
      <trkpt lat="54.33226" lon="11.03062"></trkpt>
      <trkpt lat="54.33405" lon="11.03296"></trkpt>
      <trkpt lat="54.33441" lon="11.04416"></trkpt>
      <trkpt lat="54.33538" lon="11.04971"></trkpt>
      <trkpt lat="54.33973" lon="11.0509"></trkpt>
      <trkpt lat="54.34221" lon="11.05022"></trkpt>
      <trkpt lat="54.34414" lon="11.0505"></trkpt>
      <trkpt lat="54.34433" lon="11.06069"></trkpt>
      <trkpt lat="54.34371" lon="11.06801"></trkpt>
      <trkpt lat="54.34425" lon="11.0706"></trkpt>
      <trkpt lat="54.34352" lon="11.06279"></trkpt>
      <trkpt lat="54.34317" lon="11.0638"></trkpt>
      <trkpt lat="54.34335" lon="11.06464"></trkpt>
    </trkseg>
  </trk>
  <trk>
    <name>День 6</name>
    <trkseg>
      <trkpt lat="54.34338" lon="11.06463"></trkpt>
      <trkpt lat="54.34433" lon="11.06071"></trkpt>
      <trkpt lat="54.3443" lon="11.05376"></trkpt>
      <trkpt lat="54.3457" lon="11.04935"></trkpt>
      <trkpt lat="54.34689" lon="11.04523"></trkpt>
      <trkpt lat="54.35401" lon="11.04412"></trkpt>
      <trkpt lat="54.36005" lon="11.04259"></trkpt>
      <trkpt lat="54.36315" lon="11.04698"></trkpt>
      <trkpt lat="54.36383" lon="11.05573"></trkpt>
      <trkpt lat="54.36451" lon="11.06775"></trkpt>
      <trkpt lat="54.36739" lon="11.08214"></trkpt>
      <trkpt lat="54.36919" lon="11.08407"></trkpt>
      <trkpt lat="54.36901" lon="11.08408"></trkpt>
      <trkpt lat="54.36923" lon="11.08406"></trkpt>
      <trkpt lat="54.37241" lon="11.085"></trkpt>
      <trkpt lat="54.377" lon="11.08562"></trkpt>
      <trkpt lat="54.38021" lon="11.08748"></trkpt>
      <trkpt lat="54.38275" lon="11.09323"></trkpt>
      <trkpt lat="54.38779" lon="11.09637"></trkpt>
      <trkpt lat="54.39168" lon="11.10548"></trkpt>
      <trkpt lat="54.39652" lon="11.10939"></trkpt>
      <trkpt lat="54.39642" lon="11.10876"></trkpt>
      <trkpt lat="54.39671" lon="11.1092"></trkpt>
      <trkpt lat="54.40688" lon="11.11544"></trkpt>
      <trkpt lat="54.40778" lon="11.11581"></trkpt>
      <trkpt lat="54.40441" lon="11.11497"></trkpt>
      <trkpt lat="54.4046" lon="11.11864"></trkpt>
      <trkpt lat="54.40346" lon="11.12669"></trkpt>
      <trkpt lat="54.40424" lon="11.13237"></trkpt>
      <trkpt lat="54.41122" lon="11.13534"></trkpt>
      <trkpt lat="54.41562" lon="11.13704"></trkpt>
      <trkpt lat="54.41911" lon="11.13741"></trkpt>
      <trkpt lat="54.42055" lon="11.14354"></trkpt>
      <trkpt lat="54.42369" lon="11.14712"></trkpt>
      <trkpt lat="54.42343" lon="11.14752"></trkpt>
      <trkpt lat="54.42652" lon="11.14992"></trkpt>
      <trkpt lat="54.42852" lon="11.15696"></trkpt>
      <trkpt lat="54.43084" lon="11.16269"></trkpt>
      <trkpt lat="54.43243" lon="11.17073"></trkpt>
      <trkpt lat="54.43317" lon="11.1807"></trkpt>
      <trkpt lat="54.4344" lon="11.19157"></trkpt>
      <trkpt lat="54.43563" lon="11.19703"></trkpt>
      <trkpt lat="54.43706" lon="11.1974"></trkpt>
      <trkpt lat="54.43872" lon="11.19759"></trkpt>
      <trkpt lat="54.44103" lon="11.19228"></trkpt>
      <trkpt lat="54.44398" lon="11.19069"></trkpt>
      <trkpt lat="54.4456" lon="11.19913"></trkpt>
      <trkpt lat="54.44975" lon="11.20352"></trkpt>
      <trkpt lat="54.45472" lon="11.20883"></trkpt>
      <trkpt lat="54.46024" lon="11.20995"></trkpt>
      <trkpt lat="54.46302" lon="11.21003"></trkpt>
      <trkpt lat="54.4688" lon="11.20986"></trkpt>
      <trkpt lat="54.47407" lon="11.20968"></trkpt>
      <trkpt lat="54.47812" lon="11.20994"></trkpt>
      <trkpt lat="54.48237" lon="11.20999"></trkpt>
      <trkpt lat="54.48545" lon="11.21007"></trkpt>
      <trkpt lat="54.48932" lon="11.20985"></trkpt>
      <trkpt lat="54.49426" lon="11.21094"></trkpt>
      <trkpt lat="54.49671" lon="11.21969"></trkpt>
      <trkpt lat="54.50061" lon="11.22599"></trkpt>
      <trkpt lat="54.4991" lon="11.22433"></trkpt>
      <trkpt lat="54.49964" lon="11.2233"></trkpt>
      <trkpt lat="54.50146" lon="11.2247"></trkpt>
      <trkpt lat="54.65517" lon="11.35313"></trkpt>
      <trkpt lat="54.65766" lon="11.35722"></trkpt>
      <trkpt lat="54.6585" lon="11.36031"></trkpt>
      <trkpt lat="54.65887" lon="11.36325"></trkpt>
      <trkpt lat="54.661" lon="11.36743"></trkpt>
      <trkpt lat="54.65998" lon="11.36558"></trkpt>
      <trkpt lat="54.65976" lon="11.36508"></trkpt>
      <trkpt lat="54.65972" lon="11.36316"></trkpt>
      <trkpt lat="54.66245" lon="11.35947"></trkpt>
      <trkpt lat="54.66715" lon="11.37072"></trkpt>
      <trkpt lat="54.67031" lon="11.37652"></trkpt>
      <trkpt lat="54.67432" lon="11.37918"></trkpt>
      <trkpt lat="54.68144" lon="11.3815"></trkpt>
      <trkpt lat="54.68468" lon="11.38253"></trkpt>
      <trkpt lat="54.68728" lon="11.38287"></trkpt>
      <trkpt lat="54.68729" lon="11.38424"></trkpt>
      <trkpt lat="54.68826" lon="11.38738"></trkpt>
      <trkpt lat="54.68886" lon="11.39238"></trkpt>
      <trkpt lat="54.69106" lon="11.39344"></trkpt>
      <trkpt lat="54.69493" lon="11.39493"></trkpt>
      <trkpt lat="54.69836" lon="11.39535"></trkpt>
      <trkpt lat="54.70139" lon="11.3966"></trkpt>
      <trkpt lat="54.70472" lon="11.40172"></trkpt>
      <trkpt lat="54.70659" lon="11.40494"></trkpt>
      <trkpt lat="54.70851" lon="11.40976"></trkpt>
      <trkpt lat="54.70972" lon="11.41314"></trkpt>
      <trkpt lat="54.71231" lon="11.41764"></trkpt>
      <trkpt lat="54.71473" lon="11.42131"></trkpt>
      <trkpt lat="54.71636" lon="11.42383"></trkpt>
      <trkpt lat="54.71978" lon="11.42879"></trkpt>
      <trkpt lat="54.72208" lon="11.43125"></trkpt>
      <trkpt lat="54.72428" lon="11.43137"></trkpt>
      <trkpt lat="54.72652" lon="11.43138"></trkpt>
      <trkpt lat="54.73016" lon="11.43303"></trkpt>
      <trkpt lat="54.73396" lon="11.43352"></trkpt>
      <trkpt lat="54.73768" lon="11.43517"></trkpt>
      <trkpt lat="54.74111" lon="11.43765"></trkpt>
      <trkpt lat="54.74568" lon="11.44102"></trkpt>
      <trkpt lat="54.74895" lon="11.4432"></trkpt>
      <trkpt lat="54.7519" lon="11.44444"></trkpt>
      <trkpt lat="54.75391" lon="11.44752"></trkpt>
      <trkpt lat="54.75745" lon="11.4543"></trkpt>
      <trkpt lat="54.75966" lon="11.45805"></trkpt>
      <trkpt lat="54.76228" lon="11.46287"></trkpt>
      <trkpt lat="54.76438" lon="11.46696"></trkpt>
      <trkpt lat="54.76712" lon="11.4718"></trkpt>
      <trkpt lat="54.77108" lon="11.47771"></trkpt>
      <trkpt lat="54.77478" lon="11.48529"></trkpt>
      <trkpt lat="54.77638" lon="11.48658"></trkpt>
      <trkpt lat="54.77623" lon="11.48574"></trkpt>
      <trkpt lat="54.7768" lon="11.49327"></trkpt>
      <trkpt lat="54.77656" lon="11.49863"></trkpt>
      <trkpt lat="54.77905" lon="11.50173"></trkpt>
      <trkpt lat="54.77974" lon="11.50968"></trkpt>
      <trkpt lat="54.77747" lon="11.51686"></trkpt>
      <trkpt lat="54.77854" lon="11.5205"></trkpt>
      <trkpt lat="54.78011" lon="11.52729"></trkpt>
      <trkpt lat="54.78138" lon="11.5333"></trkpt>
      <trkpt lat="54.78317" lon="11.5411"></trkpt>
      <trkpt lat="54.78449" lon="11.54645"></trkpt>
      <trkpt lat="54.78603" lon="11.55266"></trkpt>
      <trkpt lat="54.7888" lon="11.56447"></trkpt>
      <trkpt lat="54.79017" lon="11.57043"></trkpt>
      <trkpt lat="54.79103" lon="11.58014"></trkpt>
      <trkpt lat="54.79163" lon="11.58694"></trkpt>
      <trkpt lat="54.79527" lon="11.59688"></trkpt>
      <trkpt lat="54.79728" lon="11.60195"></trkpt>
      <trkpt lat="54.79862" lon="11.60969"></trkpt>
      <trkpt lat="54.79922" lon="11.61908"></trkpt>
      <trkpt lat="54.79957" lon="11.62481"></trkpt>
      <trkpt lat="54.80029" lon="11.63316"></trkpt>
      <trkpt lat="54.80078" lon="11.63728"></trkpt>
      <trkpt lat="54.80261" lon="11.6436"></trkpt>
      <trkpt lat="54.80265" lon="11.65019"></trkpt>
      <trkpt lat="54.80627" lon="11.65659"></trkpt>
      <trkpt lat="54.81293" lon="11.66834"></trkpt>
      <trkpt lat="54.81754" lon="11.67641"></trkpt>
      <trkpt lat="54.82431" lon="11.68822"></trkpt>
      <trkpt lat="54.82851" lon="11.69564"></trkpt>
      <trkpt lat="54.8339" lon="11.70523"></trkpt>
      <trkpt lat="54.8413" lon="11.71162"></trkpt>
      <trkpt lat="54.84627" lon="11.71491"></trkpt>
      <trkpt lat="54.85054" lon="11.71845"></trkpt>
      <trkpt lat="54.85403" lon="11.72298"></trkpt>
      <trkpt lat="54.85905" lon="11.72924"></trkpt>
      <trkpt lat="54.86506" lon="11.73616"></trkpt>
      <trkpt lat="54.86685" lon="11.73372"></trkpt>
      <trkpt lat="54.86572" lon="11.73546"></trkpt>
    </trkseg>
  </trk>
  <trk>
    <name>День 7</name>
    <trkseg>
      <trkpt lat="54.86523" lon="11.73632"></trkpt>
      <trkpt lat="54.87009" lon="11.74326"></trkpt>
      <trkpt lat="54.87105" lon="11.75191"></trkpt>
      <trkpt lat="54.87499" lon="11.75773"></trkpt>
      <trkpt lat="54.87947" lon="11.76796"></trkpt>
      <trkpt lat="54.88324" lon="11.77402"></trkpt>
      <trkpt lat="54.88677" lon="11.78004"></trkpt>
      <trkpt lat="54.88953" lon="11.78472"></trkpt>
      <trkpt lat="54.89357" lon="11.79196"></trkpt>
      <trkpt lat="54.89785" lon="11.79973"></trkpt>
      <trkpt lat="54.90502" lon="11.80907"></trkpt>
      <trkpt lat="54.91083" lon="11.81652"></trkpt>
      <trkpt lat="54.91412" lon="11.82064"></trkpt>
      <trkpt lat="54.91926" lon="11.82729"></trkpt>
      <trkpt lat="54.92275" lon="11.83168"></trkpt>
      <trkpt lat="54.92606" lon="11.83585"></trkpt>
      <trkpt lat="54.93139" lon="11.84277"></trkpt>
      <trkpt lat="54.93769" lon="11.85076"></trkpt>
      <trkpt lat="54.94234" lon="11.8566"></trkpt>
      <trkpt lat="54.94912" lon="11.86484"></trkpt>
      <trkpt lat="54.9533" lon="11.86984"></trkpt>
      <trkpt lat="54.96146" lon="11.87906"></trkpt>
      <trkpt lat="54.96758" lon="11.88596"></trkpt>
      <trkpt lat="54.97246" lon="11.89148"></trkpt>
      <trkpt lat="54.97609" lon="11.8953"></trkpt>
      <trkpt lat="54.9806" lon="11.89556"></trkpt>
      <trkpt lat="54.98414" lon="11.89018"></trkpt>
      <trkpt lat="54.99057" lon="11.88345"></trkpt>
      <trkpt lat="54.99759" lon="11.89048"></trkpt>
      <trkpt lat="55.00052" lon="11.89286"></trkpt>
      <trkpt lat="54.99865" lon="11.89978"></trkpt>
      <trkpt lat="55.0028" lon="11.90509"></trkpt>
      <trkpt lat="55.00766" lon="11.91007"></trkpt>
      <trkpt lat="55.00829" lon="11.91077"></trkpt>
      <trkpt lat="55.00921" lon="11.90802"></trkpt>
      <trkpt lat="55.00847" lon="11.90976"></trkpt>
      <trkpt lat="55.0098" lon="11.9074"></trkpt>
      <trkpt lat="55.00973" lon="11.90732"></trkpt>
      <trkpt lat="55.01214" lon="11.90285"></trkpt>
      <trkpt lat="55.01092" lon="11.90796"></trkpt>
      <trkpt lat="55.01048" lon="11.91278"></trkpt>
      <trkpt lat="55.01266" lon="11.91863"></trkpt>
      <trkpt lat="55.01958" lon="11.92918"></trkpt>
      <trkpt lat="55.02421" lon="11.9357"></trkpt>
      <trkpt lat="55.03053" lon="11.94355"></trkpt>
      <trkpt lat="55.03325" lon="11.94685"></trkpt>
      <trkpt lat="55.03728" lon="11.95106"></trkpt>
      <trkpt lat="55.04423" lon="11.95142"></trkpt>
      <trkpt lat="55.04897" lon="11.95161"></trkpt>
      <trkpt lat="55.05379" lon="11.95223"></trkpt>
      <trkpt lat="55.05926" lon="11.95369"></trkpt>
      <trkpt lat="55.06324" lon="11.95462"></trkpt>
      <trkpt lat="55.07079" lon="11.95667"></trkpt>
      <trkpt lat="55.07451" lon="11.95767"></trkpt>
      <trkpt lat="55.07786" lon="11.95854"></trkpt>
      <trkpt lat="55.08284" lon="11.95942"></trkpt>
      <trkpt lat="55.08503" lon="11.95977"></trkpt>
      <trkpt lat="55.08899" lon="11.96091"></trkpt>
      <trkpt lat="55.09533" lon="11.96283"></trkpt>
      <trkpt lat="55.10283" lon="11.96478"></trkpt>
      <trkpt lat="55.10912" lon="11.96636"></trkpt>
      <trkpt lat="55.11495" lon="11.96776"></trkpt>
      <trkpt lat="55.11998" lon="11.96918"></trkpt>
      <trkpt lat="55.12392" lon="11.97017"></trkpt>
      <trkpt lat="55.13124" lon="11.97195"></trkpt>
      <trkpt lat="55.13557" lon="11.9731"></trkpt>
      <trkpt lat="55.14125" lon="11.97444"></trkpt>
      <trkpt lat="55.14553" lon="11.97548"></trkpt>
      <trkpt lat="55.14896" lon="11.97636"></trkpt>
      <trkpt lat="55.1549" lon="11.97802"></trkpt>
      <trkpt lat="55.15866" lon="11.97883"></trkpt>
      <trkpt lat="55.16356" lon="11.9802"></trkpt>
      <trkpt lat="55.16679" lon="11.98102"></trkpt>
      <trkpt lat="55.17168" lon="11.98222"></trkpt>
      <trkpt lat="55.17679" lon="11.9832"></trkpt>
      <trkpt lat="55.17682" lon="11.98124"></trkpt>
      <trkpt lat="55.17686" lon="11.98352"></trkpt>
      <trkpt lat="55.18219" lon="11.98487"></trkpt>
      <trkpt lat="55.18741" lon="11.9862"></trkpt>
      <trkpt lat="55.19358" lon="11.98777"></trkpt>
      <trkpt lat="55.19848" lon="11.98895"></trkpt>
      <trkpt lat="55.20492" lon="11.9907"></trkpt>
      <trkpt lat="55.21144" lon="11.99407"></trkpt>
      <trkpt lat="55.21804" lon="11.99788"></trkpt>
      <trkpt lat="55.22335" lon="12.00062"></trkpt>
      <trkpt lat="55.22727" lon="12.00302"></trkpt>
      <trkpt lat="55.23226" lon="12.00603"></trkpt>
      <trkpt lat="55.23481" lon="12.00738"></trkpt>
      <trkpt lat="55.23744" lon="12.00904"></trkpt>
      <trkpt lat="55.24119" lon="12.01113"></trkpt>
      <trkpt lat="55.24462" lon="12.01319"></trkpt>
      <trkpt lat="55.24654" lon="12.01414"></trkpt>
      <trkpt lat="55.2502" lon="12.01625"></trkpt>
      <trkpt lat="55.2532" lon="12.01798"></trkpt>
      <trkpt lat="55.25851" lon="12.02107"></trkpt>
      <trkpt lat="55.25919" lon="12.02152"></trkpt>
      <trkpt lat="55.25908" lon="12.02205"></trkpt>
      <trkpt lat="55.25912" lon="12.02161"></trkpt>
      <trkpt lat="55.26264" lon="12.02332"></trkpt>
      <trkpt lat="55.26865" lon="12.02672"></trkpt>
      <trkpt lat="55.27479" lon="12.03019"></trkpt>
      <trkpt lat="55.27891" lon="12.03247"></trkpt>
      <trkpt lat="55.28156" lon="12.03407"></trkpt>
      <trkpt lat="55.28536" lon="12.03619"></trkpt>
      <trkpt lat="55.29059" lon="12.03917"></trkpt>
      <trkpt lat="55.29474" lon="12.04161"></trkpt>
      <trkpt lat="55.29903" lon="12.04386"></trkpt>
      <trkpt lat="55.30342" lon="12.04658"></trkpt>
      <trkpt lat="55.30782" lon="12.0491"></trkpt>
      <trkpt lat="55.31269" lon="12.05184"></trkpt>
      <trkpt lat="55.32051" lon="12.05622"></trkpt>
      <trkpt lat="55.32975" lon="12.06155"></trkpt>
      <trkpt lat="55.33717" lon="12.06574"></trkpt>
      <trkpt lat="55.34084" lon="12.06785"></trkpt>
      <trkpt lat="55.34416" lon="12.0697"></trkpt>
      <trkpt lat="55.34667" lon="12.07026"></trkpt>
      <trkpt lat="55.35035" lon="12.07185"></trkpt>
      <trkpt lat="55.35371" lon="12.07352"></trkpt>
      <trkpt lat="55.35937" lon="12.07944"></trkpt>
      <trkpt lat="55.36406" lon="12.08444"></trkpt>
      <trkpt lat="55.36932" lon="12.09019"></trkpt>
      <trkpt lat="55.3742" lon="12.09541"></trkpt>
      <trkpt lat="55.38139" lon="12.10318"></trkpt>
      <trkpt lat="55.39099" lon="12.11351"></trkpt>
      <trkpt lat="55.39595" lon="12.11884"></trkpt>
      <trkpt lat="55.39913" lon="12.12222"></trkpt>
      <trkpt lat="55.40332" lon="12.12672"></trkpt>
      <trkpt lat="55.40643" lon="12.13015"></trkpt>
      <trkpt lat="55.41154" lon="12.13558"></trkpt>
      <trkpt lat="55.41412" lon="12.13845"></trkpt>
      <trkpt lat="55.41872" lon="12.14326"></trkpt>
      <trkpt lat="55.42206" lon="12.14685"></trkpt>
      <trkpt lat="55.42675" lon="12.15178"></trkpt>
      <trkpt lat="55.43055" lon="12.15576"></trkpt>
      <trkpt lat="55.43429" lon="12.15971"></trkpt>
      <trkpt lat="55.4376" lon="12.16333"></trkpt>
      <trkpt lat="55.44125" lon="12.16711"></trkpt>
      <trkpt lat="55.44429" lon="12.17039"></trkpt>
      <trkpt lat="55.4484" lon="12.17464"></trkpt>
      <trkpt lat="55.45078" lon="12.17738"></trkpt>
      <trkpt lat="55.45464" lon="12.18151"></trkpt>
      <trkpt lat="55.45641" lon="12.1819"></trkpt>
      <trkpt lat="55.45913" lon="12.1839"></trkpt>
      <trkpt lat="55.46063" lon="12.18459"></trkpt>
      <trkpt lat="55.46432" lon="12.18512"></trkpt>
      <trkpt lat="55.46774" lon="12.187"></trkpt>
      <trkpt lat="55.46839" lon="12.18936"></trkpt>
      <trkpt lat="55.46972" lon="12.19224"></trkpt>
      <trkpt lat="55.47091" lon="12.19345"></trkpt>
      <trkpt lat="55.47011" lon="12.19181"></trkpt>
      <trkpt lat="55.4701" lon="12.19198"></trkpt>
    </trkseg>
  </trk>
  <trk>
    <name>День 8</name>
    <trkseg>
      <trkpt lat="55.47002" lon="12.19214"></trkpt>
      <trkpt lat="55.47174" lon="12.19142"></trkpt>
      <trkpt lat="55.47341" lon="12.19373"></trkpt>
      <trkpt lat="55.47335" lon="12.19167"></trkpt>
      <trkpt lat="55.47428" lon="12.19266"></trkpt>
      <trkpt lat="55.47409" lon="12.19089"></trkpt>
      <trkpt lat="55.47435" lon="12.19297"></trkpt>
      <trkpt lat="55.47653" lon="12.19488"></trkpt>
      <trkpt lat="55.47673" lon="12.19331"></trkpt>
      <trkpt lat="55.47677" lon="12.18867"></trkpt>
      <trkpt lat="55.47663" lon="12.18415"></trkpt>
      <trkpt lat="55.47986" lon="12.1857"></trkpt>
      <trkpt lat="55.48234" lon="12.18687"></trkpt>
      <trkpt lat="55.48399" lon="12.18758"></trkpt>
      <trkpt lat="55.4862" lon="12.18868"></trkpt>
      <trkpt lat="55.48764" lon="12.18941"></trkpt>
      <trkpt lat="55.49104" lon="12.19095"></trkpt>
      <trkpt lat="55.49417" lon="12.19243"></trkpt>
      <trkpt lat="55.49709" lon="12.19408"></trkpt>
      <trkpt lat="55.50102" lon="12.19699"></trkpt>
      <trkpt lat="55.504" lon="12.19928"></trkpt>
      <trkpt lat="55.50742" lon="12.20201"></trkpt>
      <trkpt lat="55.51048" lon="12.20341"></trkpt>
      <trkpt lat="55.51221" lon="12.20466"></trkpt>
      <trkpt lat="55.51616" lon="12.20759"></trkpt>
      <trkpt lat="55.51806" lon="12.20984"></trkpt>
      <trkpt lat="55.52136" lon="12.21346"></trkpt>
      <trkpt lat="55.52319" lon="12.21517"></trkpt>
      <trkpt lat="55.52484" lon="12.21667"></trkpt>
      <trkpt lat="55.52676" lon="12.21808"></trkpt>
      <trkpt lat="55.52952" lon="12.21996"></trkpt>
      <trkpt lat="55.5316" lon="12.22154"></trkpt>
      <trkpt lat="55.53289" lon="12.22265"></trkpt>
      <trkpt lat="55.53405" lon="12.22431"></trkpt>
      <trkpt lat="55.53489" lon="12.22527"></trkpt>
      <trkpt lat="55.53619" lon="12.22679"></trkpt>
      <trkpt lat="55.53743" lon="12.22797"></trkpt>
      <trkpt lat="55.53893" lon="12.22961"></trkpt>
      <trkpt lat="55.54209" lon="12.23295"></trkpt>
      <trkpt lat="55.54356" lon="12.2347"></trkpt>
      <trkpt lat="55.54655" lon="12.238"></trkpt>
      <trkpt lat="55.54979" lon="12.24253"></trkpt>
      <trkpt lat="55.55282" lon="12.24737"></trkpt>
      <trkpt lat="55.55473" lon="12.25007"></trkpt>
      <trkpt lat="55.55568" lon="12.25237"></trkpt>
      <trkpt lat="55.5553" lon="12.25463"></trkpt>
      <trkpt lat="55.5565" lon="12.25348"></trkpt>
      <trkpt lat="55.55794" lon="12.25631"></trkpt>
      <trkpt lat="55.5598" lon="12.2616"></trkpt>
      <trkpt lat="55.56084" lon="12.26451"></trkpt>
      <trkpt lat="55.56327" lon="12.26966"></trkpt>
      <trkpt lat="55.56481" lon="12.27384"></trkpt>
      <trkpt lat="55.56725" lon="12.27887"></trkpt>
      <trkpt lat="55.56924" lon="12.28292"></trkpt>
      <trkpt lat="55.57065" lon="12.28584"></trkpt>
      <trkpt lat="55.57218" lon="12.28903"></trkpt>
      <trkpt lat="55.57357" lon="12.2918"></trkpt>
      <trkpt lat="55.57516" lon="12.29497"></trkpt>
      <trkpt lat="55.57922" lon="12.30259"></trkpt>
      <trkpt lat="55.58035" lon="12.30586"></trkpt>
      <trkpt lat="55.58232" lon="12.31126"></trkpt>
      <trkpt lat="55.58349" lon="12.31513"></trkpt>
      <trkpt lat="55.58489" lon="12.31901"></trkpt>
      <trkpt lat="55.5864" lon="12.32355"></trkpt>
      <trkpt lat="55.58828" lon="12.3292"></trkpt>
      <trkpt lat="55.59" lon="12.33449"></trkpt>
      <trkpt lat="55.59145" lon="12.33803"></trkpt>
      <trkpt lat="55.59471" lon="12.34419"></trkpt>
      <trkpt lat="55.59728" lon="12.34731"></trkpt>
      <trkpt lat="55.59929" lon="12.34917"></trkpt>
      <trkpt lat="55.6007" lon="12.35029"></trkpt>
      <trkpt lat="55.60262" lon="12.35201"></trkpt>
      <trkpt lat="55.60598" lon="12.35592"></trkpt>
      <trkpt lat="55.60994" lon="12.3609"></trkpt>
      <trkpt lat="55.61266" lon="12.36626"></trkpt>
      <trkpt lat="55.61407" lon="12.36973"></trkpt>
      <trkpt lat="55.61534" lon="12.37335"></trkpt>
      <trkpt lat="55.61721" lon="12.37979"></trkpt>
      <trkpt lat="55.61817" lon="12.38563"></trkpt>
      <trkpt lat="55.61826" lon="12.39472"></trkpt>
      <trkpt lat="55.61824" lon="12.4031"></trkpt>
      <trkpt lat="55.61783" lon="12.4128"></trkpt>
      <trkpt lat="55.61773" lon="12.41901"></trkpt>
      <trkpt lat="55.61771" lon="12.43063"></trkpt>
      <trkpt lat="55.61705" lon="12.43929"></trkpt>
      <trkpt lat="55.61733" lon="12.44464"></trkpt>
      <trkpt lat="55.61834" lon="12.45102"></trkpt>
      <trkpt lat="55.61972" lon="12.45734"></trkpt>
      <trkpt lat="55.62089" lon="12.46116"></trkpt>
      <trkpt lat="55.62238" lon="12.4656"></trkpt>
      <trkpt lat="55.62561" lon="12.47532"></trkpt>
      <trkpt lat="55.62722" lon="12.48068"></trkpt>
      <trkpt lat="55.62837" lon="12.48409"></trkpt>
      <trkpt lat="55.63134" lon="12.48865"></trkpt>
      <trkpt lat="55.63324" lon="12.4909"></trkpt>
      <trkpt lat="55.63482" lon="12.49291"></trkpt>
      <trkpt lat="55.63661" lon="12.49484"></trkpt>
      <trkpt lat="55.63766" lon="12.49613"></trkpt>
      <trkpt lat="55.63908" lon="12.49776"></trkpt>
      <trkpt lat="55.64068" lon="12.4998"></trkpt>
      <trkpt lat="55.64393" lon="12.50258"></trkpt>
      <trkpt lat="55.64544" lon="12.504"></trkpt>
      <trkpt lat="55.64924" lon="12.50692"></trkpt>
      <trkpt lat="55.65032" lon="12.51201"></trkpt>
      <trkpt lat="55.65" lon="12.52359"></trkpt>
      <trkpt lat="55.65035" lon="12.52928"></trkpt>
      <trkpt lat="55.65142" lon="12.53271"></trkpt>
      <trkpt lat="55.65226" lon="12.53533"></trkpt>
      <trkpt lat="55.65302" lon="12.53791"></trkpt>
      <trkpt lat="55.65373" lon="12.54126"></trkpt>
      <trkpt lat="55.65266" lon="12.54494"></trkpt>
      <trkpt lat="55.65139" lon="12.5528"></trkpt>
      <trkpt lat="55.65245" lon="12.54824"></trkpt>
      <trkpt lat="55.65368" lon="12.54318"></trkpt>
      <trkpt lat="55.65559" lon="12.54471"></trkpt>
      <trkpt lat="55.65668" lon="12.55132"></trkpt>
      <trkpt lat="55.6578" lon="12.55696"></trkpt>
      <trkpt lat="55.65894" lon="12.55731"></trkpt>
      <trkpt lat="55.66049" lon="12.5574"></trkpt>
      <trkpt lat="55.66258" lon="12.56161"></trkpt>
      <trkpt lat="55.66412" lon="12.56453"></trkpt>
      <trkpt lat="55.6654" lon="12.56702"></trkpt>
      <trkpt lat="55.66668" lon="12.56946"></trkpt>
      <trkpt lat="55.66835" lon="12.57245"></trkpt>
      <trkpt lat="55.67072" lon="12.57746"></trkpt>
      <trkpt lat="55.67135" lon="12.57832"></trkpt>
      <trkpt lat="55.67352" lon="12.58235"></trkpt>
      <trkpt lat="55.67423" lon="12.58508"></trkpt>
      <trkpt lat="55.67532" lon="12.58729"></trkpt>
      <trkpt lat="55.6769" lon="12.58635"></trkpt>
      <trkpt lat="55.67953" lon="12.58558"></trkpt>
      <trkpt lat="55.681" lon="12.58766"></trkpt>
      <trkpt lat="55.68366" lon="12.59001"></trkpt>
      <trkpt lat="55.68506" lon="12.59072"></trkpt>
      <trkpt lat="55.68698" lon="12.5926"></trkpt>
      <trkpt lat="55.68795" lon="12.5951"></trkpt>
      <trkpt lat="55.68835" lon="12.59784"></trkpt>
      <trkpt lat="55.69079" lon="12.5985"></trkpt>
      <trkpt lat="55.69276" lon="12.59902"></trkpt>
      <trkpt lat="55.69358" lon="12.59669"></trkpt>
      <trkpt lat="55.69466" lon="12.59354"></trkpt>
      <trkpt lat="55.69646" lon="12.59048"></trkpt>
      <trkpt lat="55.6986" lon="12.59046"></trkpt>
      <trkpt lat="55.69962" lon="12.59048"></trkpt>
      <trkpt lat="55.70215" lon="12.58867"></trkpt>
      <trkpt lat="55.70431" lon="12.58759"></trkpt>
      <trkpt lat="55.70696" lon="12.58626"></trkpt>
      <trkpt lat="55.70889" lon="12.58622"></trkpt>
      <trkpt lat="55.70895" lon="12.58747"></trkpt>
      <trkpt lat="55.70953" lon="12.58771"></trkpt>
      <trkpt lat="55.70935" lon="12.58779"></trkpt>
    </trkseg>
  </trk>
  <trk>
    <name>День 9</name>
    <trkseg>
      <trkpt lat="55.70942" lon="12.58713"></trkpt>
      <trkpt lat="55.7095" lon="12.5874"></trkpt>
      <trkpt lat="55.70947" lon="12.58698"></trkpt>
      <trkpt lat="55.70904" lon="12.58667"></trkpt>
      <trkpt lat="55.70849" lon="12.58624"></trkpt>
      <trkpt lat="55.70808" lon="12.58629"></trkpt>
      <trkpt lat="55.70772" lon="12.58605"></trkpt>
      <trkpt lat="55.70733" lon="12.58632"></trkpt>
      <trkpt lat="55.70652" lon="12.58668"></trkpt>
      <trkpt lat="55.7065" lon="12.58665"></trkpt>
      <trkpt lat="55.70669" lon="12.58662"></trkpt>
      <trkpt lat="55.70688" lon="12.5879"></trkpt>
      <trkpt lat="55.70682" lon="12.58846"></trkpt>
      <trkpt lat="55.70713" lon="12.58973"></trkpt>
      <trkpt lat="55.70729" lon="12.59058"></trkpt>
      <trkpt lat="55.70673" lon="12.59106"></trkpt>
      <trkpt lat="55.70587" lon="12.59126"></trkpt>
      <trkpt lat="55.70577" lon="12.59131"></trkpt>
      <trkpt lat="55.70484" lon="12.59161"></trkpt>
      <trkpt lat="55.70433" lon="12.59175"></trkpt>
      <trkpt lat="55.70381" lon="12.59194"></trkpt>
      <trkpt lat="55.70328" lon="12.59198"></trkpt>
      <trkpt lat="55.70237" lon="12.59212"></trkpt>
      <trkpt lat="55.70186" lon="12.59218"></trkpt>
      <trkpt lat="55.70104" lon="12.59213"></trkpt>
      <trkpt lat="55.7005" lon="12.59226"></trkpt>
      <trkpt lat="55.69924" lon="12.59261"></trkpt>
      <trkpt lat="55.69854" lon="12.59277"></trkpt>
      <trkpt lat="55.69664" lon="12.59314"></trkpt>
      <trkpt lat="55.69604" lon="12.59356"></trkpt>
      <trkpt lat="55.69567" lon="12.59381"></trkpt>
      <trkpt lat="55.6952" lon="12.59361"></trkpt>
      <trkpt lat="55.69485" lon="12.59332"></trkpt>
      <trkpt lat="55.69473" lon="12.59321"></trkpt>
      <trkpt lat="55.69363" lon="12.59149"></trkpt>
      <trkpt lat="55.69292" lon="12.59043"></trkpt>
      <trkpt lat="55.69282" lon="12.59036"></trkpt>
      <trkpt lat="55.69192" lon="12.58876"></trkpt>
      <trkpt lat="55.69078" lon="12.587"></trkpt>
      <trkpt lat="55.69045" lon="12.58683"></trkpt>
      <trkpt lat="55.68979" lon="12.58666"></trkpt>
      <trkpt lat="55.68886" lon="12.58594"></trkpt>
      <trkpt lat="55.68692" lon="12.58435"></trkpt>
      <trkpt lat="55.68667" lon="12.58412"></trkpt>
      <trkpt lat="55.68641" lon="12.58398"></trkpt>
      <trkpt lat="55.68536" lon="12.5831"></trkpt>
      <trkpt lat="55.68438" lon="12.58226"></trkpt>
      <trkpt lat="55.68385" lon="12.58186"></trkpt>
      <trkpt lat="55.68294" lon="12.58092"></trkpt>
      <trkpt lat="55.68243" lon="12.5802"></trkpt>
      <trkpt lat="55.682" lon="12.5797"></trkpt>
      <trkpt lat="55.68138" lon="12.57897"></trkpt>
      <trkpt lat="55.68096" lon="12.57831"></trkpt>
      <trkpt lat="55.68004" lon="12.57891"></trkpt>
      <trkpt lat="55.67976" lon="12.57936"></trkpt>
      <trkpt lat="55.67995" lon="12.58042"></trkpt>
      <trkpt lat="55.68012" lon="12.5806"></trkpt>
      <trkpt lat="55.6801" lon="12.58152"></trkpt>
      <trkpt lat="55.68034" lon="12.58179"></trkpt>
      <trkpt lat="55.67989" lon="12.58221"></trkpt>
      <trkpt lat="55.67952" lon="12.58236"></trkpt>
      <trkpt lat="55.67868" lon="12.58298"></trkpt>
      <trkpt lat="55.67812" lon="12.58342"></trkpt>
      <trkpt lat="55.67797" lon="12.58383"></trkpt>
      <trkpt lat="55.67778" lon="12.58414"></trkpt>
      <trkpt lat="55.67711" lon="12.58427"></trkpt>
      <trkpt lat="55.67664" lon="12.58435"></trkpt>
      <trkpt lat="55.67566" lon="12.58468"></trkpt>
      <trkpt lat="55.67419" lon="12.58788"></trkpt>
      <trkpt lat="55.67391" lon="12.58826"></trkpt>
      <trkpt lat="55.67332" lon="12.58956"></trkpt>
      <trkpt lat="55.67273" lon="12.59055"></trkpt>
      <trkpt lat="55.67258" lon="12.59082"></trkpt>
      <trkpt lat="55.67228" lon="12.5909"></trkpt>
      <trkpt lat="55.67195" lon="12.59149"></trkpt>
      <trkpt lat="55.67163" lon="12.59312"></trkpt>
      <trkpt lat="55.67018" lon="12.59487"></trkpt>
      <trkpt lat="55.66951" lon="12.59531"></trkpt>
      <trkpt lat="55.66897" lon="12.59549"></trkpt>
      <trkpt lat="55.66883" lon="12.59591"></trkpt>
      <trkpt lat="55.66811" lon="12.59659"></trkpt>
      <trkpt lat="55.66593" lon="12.59888"></trkpt>
      <trkpt lat="55.66562" lon="12.59917"></trkpt>
      <trkpt lat="55.66523" lon="12.5996"></trkpt>
      <trkpt lat="55.66483" lon="12.59997"></trkpt>
      <trkpt lat="55.66445" lon="12.60009"></trkpt>
      <trkpt lat="55.66419" lon="12.60074"></trkpt>
      <trkpt lat="55.6636" lon="12.60117"></trkpt>
      <trkpt lat="55.66289" lon="12.60195"></trkpt>
      <trkpt lat="55.66253" lon="12.60251"></trkpt>
      <trkpt lat="55.66152" lon="12.60372"></trkpt>
      <trkpt lat="55.66062" lon="12.60465"></trkpt>
      <trkpt lat="55.66046" lon="12.6049"></trkpt>
      <trkpt lat="55.65997" lon="12.60537"></trkpt>
      <trkpt lat="55.65922" lon="12.60653"></trkpt>
      <trkpt lat="55.65866" lon="12.60707"></trkpt>
      <trkpt lat="55.65815" lon="12.60762"></trkpt>
      <trkpt lat="55.65643" lon="12.60917"></trkpt>
      <trkpt lat="55.65568" lon="12.60956"></trkpt>
      <trkpt lat="55.65515" lon="12.60999"></trkpt>
      <trkpt lat="55.65442" lon="12.61051"></trkpt>
      <trkpt lat="55.65325" lon="12.61113"></trkpt>
      <trkpt lat="55.65249" lon="12.61145"></trkpt>
      <trkpt lat="55.65207" lon="12.61173"></trkpt>
      <trkpt lat="55.65123" lon="12.61198"></trkpt>
      <trkpt lat="55.65104" lon="12.61206"></trkpt>
      <trkpt lat="55.65017" lon="12.61248"></trkpt>
      <trkpt lat="55.64934" lon="12.61296"></trkpt>
      <trkpt lat="55.64902" lon="12.61301"></trkpt>
      <trkpt lat="55.64831" lon="12.61332"></trkpt>
      <trkpt lat="55.64702" lon="12.614"></trkpt>
      <trkpt lat="55.64632" lon="12.61419"></trkpt>
      <trkpt lat="55.64573" lon="12.61446"></trkpt>
      <trkpt lat="55.64508" lon="12.61473"></trkpt>
      <trkpt lat="55.64437" lon="12.61512"></trkpt>
      <trkpt lat="55.64419" lon="12.61522"></trkpt>
      <trkpt lat="55.64355" lon="12.61554"></trkpt>
      <trkpt lat="55.6414" lon="12.61665"></trkpt>
      <trkpt lat="55.64047" lon="12.61711"></trkpt>
      <trkpt lat="55.63994" lon="12.61738"></trkpt>
      <trkpt lat="55.63887" lon="12.61784"></trkpt>
      <trkpt lat="55.63754" lon="12.61849"></trkpt>
      <trkpt lat="55.63682" lon="12.61873"></trkpt>
      <trkpt lat="55.63612" lon="12.61912"></trkpt>
      <trkpt lat="55.63511" lon="12.61967"></trkpt>
      <trkpt lat="55.6349" lon="12.61985"></trkpt>
      <trkpt lat="55.63429" lon="12.6201"></trkpt>
      <trkpt lat="55.63352" lon="12.62061"></trkpt>
      <trkpt lat="55.63351" lon="12.62089"></trkpt>
      <trkpt lat="55.63369" lon="12.62448"></trkpt>
      <trkpt lat="55.63374" lon="12.62543"></trkpt>
      <trkpt lat="55.6332" lon="12.62573"></trkpt>
      <trkpt lat="55.63248" lon="12.62607"></trkpt>
      <trkpt lat="55.63174" lon="12.62643"></trkpt>
      <trkpt lat="55.63168" lon="12.62673"></trkpt>
      <trkpt lat="55.63205" lon="12.63045"></trkpt>
      <trkpt lat="55.63198" lon="12.63169"></trkpt>
      <trkpt lat="55.63109" lon="12.63204"></trkpt>
      <trkpt lat="55.63114" lon="12.6355"></trkpt>
      <trkpt lat="55.63118" lon="12.63679"></trkpt>
      <trkpt lat="55.63122" lon="12.63845"></trkpt>
      <trkpt lat="55.63094" lon="12.63874"></trkpt>
      <trkpt lat="55.63083" lon="12.64063"></trkpt>
      <trkpt lat="55.63098" lon="12.64435"></trkpt>
      <trkpt lat="55.6311" lon="12.64518"></trkpt>
      <trkpt lat="55.63045" lon="12.64539"></trkpt>
      <trkpt lat="55.63057" lon="12.64528"></trkpt>
      <trkpt lat="55.63043" lon="12.64569"></trkpt>
      <trkpt lat="55.62972" lon="12.6471"></trkpt>
      <trkpt lat="55.62925" lon="12.64677"></trkpt>
      <trkpt lat="55.6292" lon="12.64701"></trkpt>
    </trkseg>
  </trk>
</gpx>
