<?xml version="1.0" encoding="UTF-8"?>
<gpx version="1.1" creator="bike-reports.velotrips" xmlns="http://www.opengis.net/gpx/1.1">
  <trk>
    <name>День 1</name>
    <trkseg>
      <trkpt lat="48.28962" lon="14.29115"></trkpt>
      <trkpt lat="48.28976" lon="14.29159"></trkpt>
      <trkpt lat="48.29021" lon="14.29123"></trkpt>
      <trkpt lat="48.29102" lon="14.29041"></trkpt>
      <trkpt lat="48.29274" lon="14.29195"></trkpt>
      <trkpt lat="48.29362" lon="14.29209"></trkpt>
      <trkpt lat="48.29509" lon="14.29195"></trkpt>
      <trkpt lat="48.29606" lon="14.29198"></trkpt>
      <trkpt lat="48.29731" lon="14.29176"></trkpt>
      <trkpt lat="48.29838" lon="14.29159"></trkpt>
      <trkpt lat="48.29891" lon="14.28967"></trkpt>
      <trkpt lat="48.29872" lon="14.28828"></trkpt>
      <trkpt lat="48.29986" lon="14.28741"></trkpt>
      <trkpt lat="48.30024" lon="14.2866"></trkpt>
      <trkpt lat="48.30015" lon="14.28622"></trkpt>
      <trkpt lat="48.30025" lon="14.28624"></trkpt>
      <trkpt lat="48.30014" lon="14.28647"></trkpt>
      <trkpt lat="48.30016" lon="14.28537"></trkpt>
      <trkpt lat="48.30173" lon="14.28467"></trkpt>
      <trkpt lat="48.30311" lon="14.28462"></trkpt>
      <trkpt lat="48.30433" lon="14.28492"></trkpt>
      <trkpt lat="48.30468" lon="14.28642"></trkpt>
      <trkpt lat="48.30544" lon="14.28663"></trkpt>
      <trkpt lat="48.30538" lon="14.28635"></trkpt>
      <trkpt lat="48.30537" lon="14.28646"></trkpt>
      <trkpt lat="48.30541" lon="14.28703"></trkpt>
      <trkpt lat="48.30657" lon="14.28635"></trkpt>
      <trkpt lat="48.30769" lon="14.28543"></trkpt>
      <trkpt lat="48.30914" lon="14.28438"></trkpt>
      <trkpt lat="48.30967" lon="14.28503"></trkpt>
      <trkpt lat="48.30902" lon="14.28342"></trkpt>
      <trkpt lat="48.30826" lon="14.28112"></trkpt>
      <trkpt lat="48.30787" lon="14.27916"></trkpt>
      <trkpt lat="48.30693" lon="14.27648"></trkpt>
      <trkpt lat="48.30619" lon="14.27369"></trkpt>
      <trkpt lat="48.30615" lon="14.27161"></trkpt>
      <trkpt lat="48.30669" lon="14.26889"></trkpt>
      <trkpt lat="48.30781" lon="14.26586"></trkpt>
      <trkpt lat="48.30855" lon="14.26223"></trkpt>
      <trkpt lat="48.30947" lon="14.25914"></trkpt>
      <trkpt lat="48.31033" lon="14.25671"></trkpt>
      <trkpt lat="48.31098" lon="14.25295"></trkpt>
      <trkpt lat="48.31136" lon="14.24879"></trkpt>
      <trkpt lat="48.31184" lon="14.24603"></trkpt>
      <trkpt lat="48.31155" lon="14.24327"></trkpt>
      <trkpt lat="48.31181" lon="14.24071"></trkpt>
      <trkpt lat="48.31158" lon="14.23804"></trkpt>
      <trkpt lat="48.31143" lon="14.23616"></trkpt>
      <trkpt lat="48.31091" lon="14.23339"></trkpt>
      <trkpt lat="48.31129" lon="14.22956"></trkpt>
      <trkpt lat="48.31205" lon="14.22568"></trkpt>
      <trkpt lat="48.31239" lon="14.22248"></trkpt>
      <trkpt lat="48.31258" lon="14.21949"></trkpt>
      <trkpt lat="48.31267" lon="14.21867"></trkpt>
      <trkpt lat="48.3128" lon="14.21898"></trkpt>
      <trkpt lat="48.31385" lon="14.21628"></trkpt>
      <trkpt lat="48.31553" lon="14.21361"></trkpt>
      <trkpt lat="48.31772" lon="14.21045"></trkpt>
      <trkpt lat="48.32012" lon="14.20835"></trkpt>
      <trkpt lat="48.32198" lon="14.2053"></trkpt>
      <trkpt lat="48.32385" lon="14.20241"></trkpt>
      <trkpt lat="48.32556" lon="14.19918"></trkpt>
      <trkpt lat="48.32793" lon="14.19656"></trkpt>
      <trkpt lat="48.32997" lon="14.1946"></trkpt>
      <trkpt lat="48.33133" lon="14.19327"></trkpt>
      <trkpt lat="48.33196" lon="14.19156"></trkpt>
      <trkpt lat="48.33359" lon="14.18903"></trkpt>
      <trkpt lat="48.3343" lon="14.18648"></trkpt>
      <trkpt lat="48.33457" lon="14.18389"></trkpt>
      <trkpt lat="48.33362" lon="14.18279"></trkpt>
      <trkpt lat="48.33211" lon="14.17953"></trkpt>
      <trkpt lat="48.33073" lon="14.17705"></trkpt>
      <trkpt lat="48.32977" lon="14.17484"></trkpt>
      <trkpt lat="48.32928" lon="14.17181"></trkpt>
      <trkpt lat="48.33067" lon="14.17038"></trkpt>
      <trkpt lat="48.33073" lon="14.16816"></trkpt>
      <trkpt lat="48.32973" lon="14.1646"></trkpt>
      <trkpt lat="48.32844" lon="14.16154"></trkpt>
      <trkpt lat="48.32684" lon="14.1588"></trkpt>
      <trkpt lat="48.32553" lon="14.15474"></trkpt>
      <trkpt lat="48.32424" lon="14.15071"></trkpt>
      <trkpt lat="48.32227" lon="14.14727"></trkpt>
      <trkpt lat="48.32139" lon="14.14533"></trkpt>
      <trkpt lat="48.32132" lon="14.14483"></trkpt>
      <trkpt lat="48.31993" lon="14.14231"></trkpt>
      <trkpt lat="48.31876" lon="14.13912"></trkpt>
      <trkpt lat="48.31667" lon="14.13757"></trkpt>
      <trkpt lat="48.31521" lon="14.13633"></trkpt>
      <trkpt lat="48.31395" lon="14.1325"></trkpt>
      <trkpt lat="48.31261" lon="14.12836"></trkpt>
      <trkpt lat="48.31151" lon="14.1242"></trkpt>
      <trkpt lat="48.31083" lon="14.12011"></trkpt>
      <trkpt lat="48.31063" lon="14.11607"></trkpt>
      <trkpt lat="48.31123" lon="14.11179"></trkpt>
      <trkpt lat="48.31238" lon="14.1079"></trkpt>
      <trkpt lat="48.31374" lon="14.10402"></trkpt>
      <trkpt lat="48.31479" lon="14.1014"></trkpt>
      <trkpt lat="48.31567" lon="14.09879"></trkpt>
      <trkpt lat="48.31667" lon="14.09454"></trkpt>
      <trkpt lat="48.31728" lon="14.09021"></trkpt>
      <trkpt lat="48.31795" lon="14.08586"></trkpt>
      <trkpt lat="48.31848" lon="14.08144"></trkpt>
      <trkpt lat="48.31878" lon="14.07744"></trkpt>
      <trkpt lat="48.31935" lon="14.07293"></trkpt>
      <trkpt lat="48.32056" lon="14.06878"></trkpt>
      <trkpt lat="48.32189" lon="14.06476"></trkpt>
      <trkpt lat="48.3236" lon="14.06176"></trkpt>
      <trkpt lat="48.32531" lon="14.05851"></trkpt>
      <trkpt lat="48.32657" lon="14.05496"></trkpt>
      <trkpt lat="48.32782" lon="14.05104"></trkpt>
      <trkpt lat="48.32892" lon="14.04762"></trkpt>
      <trkpt lat="48.33024" lon="14.04665"></trkpt>
      <trkpt lat="48.33146" lon="14.04683"></trkpt>
      <trkpt lat="48.33129" lon="14.04999"></trkpt>
      <trkpt lat="48.33339" lon="14.05056"></trkpt>
      <trkpt lat="48.33585" lon="14.05126"></trkpt>
      <trkpt lat="48.33835" lon="14.05257"></trkpt>
      <trkpt lat="48.3405" lon="14.05349"></trkpt>
      <trkpt lat="48.34276" lon="14.05368"></trkpt>
      <trkpt lat="48.34423" lon="14.05247"></trkpt>
      <trkpt lat="48.34439" lon="14.049"></trkpt>
      <trkpt lat="48.34428" lon="14.045"></trkpt>
      <trkpt lat="48.34335" lon="14.04129"></trkpt>
      <trkpt lat="48.34232" lon="14.03735"></trkpt>
      <trkpt lat="48.34222" lon="14.03362"></trkpt>
      <trkpt lat="48.34359" lon="14.03119"></trkpt>
      <trkpt lat="48.34599" lon="14.02937"></trkpt>
      <trkpt lat="48.34831" lon="14.02756"></trkpt>
      <trkpt lat="48.35047" lon="14.02748"></trkpt>
      <trkpt lat="48.3526" lon="14.02682"></trkpt>
      <trkpt lat="48.35492" lon="14.02833"></trkpt>
      <trkpt lat="48.35731" lon="14.02867"></trkpt>
      <trkpt lat="48.35971" lon="14.02891"></trkpt>
      <trkpt lat="48.36142" lon="14.02901"></trkpt>
      <trkpt lat="48.36207" lon="14.02844"></trkpt>
      <trkpt lat="48.36238" lon="14.02678"></trkpt>
      <trkpt lat="48.3628" lon="14.02498"></trkpt>
      <trkpt lat="48.36308" lon="14.02371"></trkpt>
      <trkpt lat="48.36353" lon="14.02424"></trkpt>
      <trkpt lat="48.36531" lon="14.02511"></trkpt>
      <trkpt lat="48.36664" lon="14.02572"></trkpt>
      <trkpt lat="48.36839" lon="14.02667"></trkpt>
      <trkpt lat="48.36931" lon="14.02711"></trkpt>
      <trkpt lat="48.36934" lon="14.02704"></trkpt>
      <trkpt lat="48.36936" lon="14.02709"></trkpt>
      <trkpt lat="48.37043" lon="14.02774"></trkpt>
      <trkpt lat="48.37083" lon="14.02824"></trkpt>
      <trkpt lat="48.3714" lon="14.0285"></trkpt>
      <trkpt lat="48.37199" lon="14.02856"></trkpt>
      <trkpt lat="48.37238" lon="14.02863"></trkpt>
      <trkpt lat="48.37239" lon="14.02861"></trkpt>
    </trkseg>
  </trk>
  <trk>
    <name>День 2</name>
    <trkseg>
      <trkpt lat="48.37238" lon="14.02864"></trkpt>
      <trkpt lat="48.37025" lon="14.01927"></trkpt>
      <trkpt lat="48.37576" lon="13.99998"></trkpt>
      <trkpt lat="48.37836" lon="13.98122"></trkpt>
      <trkpt lat="48.37286" lon="13.96077"></trkpt>
      <trkpt lat="48.37996" lon="13.94609"></trkpt>
      <trkpt lat="48.38779" lon="13.93772"></trkpt>
      <trkpt lat="48.39276" lon="13.9279"></trkpt>
      <trkpt lat="48.39721" lon="13.91921"></trkpt>
      <trkpt lat="48.40386" lon="13.90131"></trkpt>
      <trkpt lat="48.41789" lon="13.87491"></trkpt>
      <trkpt lat="48.42719" lon="13.85579"></trkpt>
      <trkpt lat="48.43384" lon="13.84362"></trkpt>
      <trkpt lat="48.44353" lon="13.82965"></trkpt>
      <trkpt lat="48.45543" lon="13.81333"></trkpt>
      <trkpt lat="48.46407" lon="13.79767"></trkpt>
      <trkpt lat="48.46739" lon="13.77852"></trkpt>
      <trkpt lat="48.4769" lon="13.76643"></trkpt>
      <trkpt lat="48.48451" lon="13.75183"></trkpt>
      <trkpt lat="48.49668" lon="13.73464"></trkpt>
      <trkpt lat="48.50911" lon="13.73024"></trkpt>
      <trkpt lat="48.5151" lon="13.71139"></trkpt>
      <trkpt lat="48.52134" lon="13.69674"></trkpt>
      <trkpt lat="48.52926" lon="13.67595"></trkpt>
      <trkpt lat="48.53794" lon="13.65765"></trkpt>
      <trkpt lat="48.54972" lon="13.64505"></trkpt>
      <trkpt lat="48.5543" lon="13.623"></trkpt>
      <trkpt lat="48.56337" lon="13.60759"></trkpt>
      <trkpt lat="48.56543" lon="13.58949"></trkpt>
      <trkpt lat="48.55837" lon="13.57465"></trkpt>
      <trkpt lat="48.56596" lon="13.55626"></trkpt>
      <trkpt lat="48.57396" lon="13.53898"></trkpt>
      <trkpt lat="48.58396" lon="13.52254"></trkpt>
      <trkpt lat="48.58322" lon="13.5049"></trkpt>
      <trkpt lat="48.57275" lon="13.49522"></trkpt>
      <trkpt lat="48.57156" lon="13.47987"></trkpt>
      <trkpt lat="48.57146" lon="13.47106"></trkpt>
      <trkpt lat="48.57396" lon="13.46706"></trkpt>
      <trkpt lat="48.57483" lon="13.4652"></trkpt>
      <trkpt lat="48.57491" lon="13.46739"></trkpt>
      <trkpt lat="48.57489" lon="13.46845"></trkpt>
      <trkpt lat="48.57535" lon="13.46964"></trkpt>
      <trkpt lat="48.57417" lon="13.47356"></trkpt>
      <trkpt lat="48.57477" lon="13.4708"></trkpt>
      <trkpt lat="48.57473" lon="13.4684"></trkpt>
      <trkpt lat="48.57513" lon="13.46891"></trkpt>
      <trkpt lat="48.57508" lon="13.46901"></trkpt>
      <trkpt lat="48.5751" lon="13.46888"></trkpt>
      <trkpt lat="48.57509" lon="13.46897"></trkpt>
      <trkpt lat="48.57508" lon="13.46903"></trkpt>
      <trkpt lat="48.57514" lon="13.46883"></trkpt>
      <trkpt lat="48.57515" lon="13.46889"></trkpt>
      <trkpt lat="48.57516" lon="13.46886"></trkpt>
      <trkpt lat="48.57562" lon="13.46552"></trkpt>
      <trkpt lat="48.57607" lon="13.46058"></trkpt>
      <trkpt lat="48.57566" lon="13.45552"></trkpt>
      <trkpt lat="48.57523" lon="13.45126"></trkpt>
      <trkpt lat="48.5733" lon="13.43718"></trkpt>
      <trkpt lat="48.57398" lon="13.41748"></trkpt>
      <trkpt lat="48.58132" lon="13.41024"></trkpt>
      <trkpt lat="48.58971" lon="13.39704"></trkpt>
      <trkpt lat="48.59867" lon="13.37743"></trkpt>
      <trkpt lat="48.60116" lon="13.35995"></trkpt>
      <trkpt lat="48.60437" lon="13.3443"></trkpt>
      <trkpt lat="48.60742" lon="13.32506"></trkpt>
      <trkpt lat="48.60954" lon="13.30384"></trkpt>
      <trkpt lat="48.61304" lon="13.28438"></trkpt>
      <trkpt lat="48.60836" lon="13.26438"></trkpt>
      <trkpt lat="48.61196" lon="13.24425"></trkpt>
      <trkpt lat="48.62092" lon="13.22608"></trkpt>
      <trkpt lat="48.62767" lon="13.21497"></trkpt>
      <trkpt lat="48.63453" lon="13.20012"></trkpt>
      <trkpt lat="48.64015" lon="13.18463"></trkpt>
      <trkpt lat="48.64797" lon="13.17105"></trkpt>
      <trkpt lat="48.65705" lon="13.15594"></trkpt>
      <trkpt lat="48.66278" lon="13.13765"></trkpt>
      <trkpt lat="48.66905" lon="13.12376"></trkpt>
      <trkpt lat="48.67779" lon="13.11568"></trkpt>
      <trkpt lat="48.68823" lon="13.11187"></trkpt>
      <trkpt lat="48.70052" lon="13.11107"></trkpt>
      <trkpt lat="48.70998" lon="13.10571"></trkpt>
      <trkpt lat="48.71618" lon="13.09204"></trkpt>
      <trkpt lat="48.72276" lon="13.07697"></trkpt>
      <trkpt lat="48.72419" lon="13.07477"></trkpt>
      <trkpt lat="48.72823" lon="13.0658"></trkpt>
      <trkpt lat="48.72906" lon="13.04722"></trkpt>
      <trkpt lat="48.73849" lon="13.03802"></trkpt>
      <trkpt lat="48.75281" lon="13.03729"></trkpt>
      <trkpt lat="48.76234" lon="13.02209"></trkpt>
      <trkpt lat="48.77128" lon="13.01301"></trkpt>
      <trkpt lat="48.78375" lon="13.00844"></trkpt>
      <trkpt lat="48.7923" lon="13.00272"></trkpt>
      <trkpt lat="48.79957" lon="12.98874"></trkpt>
      <trkpt lat="48.81006" lon="12.97838"></trkpt>
      <trkpt lat="48.81945" lon="12.96965"></trkpt>
      <trkpt lat="48.82705" lon="12.96143"></trkpt>
      <trkpt lat="48.82218" lon="12.94912"></trkpt>
      <trkpt lat="48.8241" lon="12.93025"></trkpt>
      <trkpt lat="48.82213" lon="12.92036"></trkpt>
      <trkpt lat="48.82154" lon="12.90456"></trkpt>
      <trkpt lat="48.8199" lon="12.88648"></trkpt>
      <trkpt lat="48.82361" lon="12.86687"></trkpt>
      <trkpt lat="48.82297" lon="12.85004"></trkpt>
      <trkpt lat="48.82172" lon="12.83087"></trkpt>
      <trkpt lat="48.81721" lon="12.81178"></trkpt>
      <trkpt lat="48.81842" lon="12.7927"></trkpt>
      <trkpt lat="48.82701" lon="12.77981"></trkpt>
      <trkpt lat="48.83125" lon="12.77182"></trkpt>
      <trkpt lat="48.8407" lon="12.75396"></trkpt>
      <trkpt lat="48.83575" lon="12.73594"></trkpt>
      <trkpt lat="48.83263" lon="12.71858"></trkpt>
      <trkpt lat="48.83797" lon="12.70157"></trkpt>
      <trkpt lat="48.83973" lon="12.68066"></trkpt>
      <trkpt lat="48.84128" lon="12.65971"></trkpt>
      <trkpt lat="48.84137" lon="12.63828"></trkpt>
      <trkpt lat="48.84476" lon="12.62499"></trkpt>
      <trkpt lat="48.85201" lon="12.61038"></trkpt>
      <trkpt lat="48.86511" lon="12.59894"></trkpt>
      <trkpt lat="48.87562" lon="12.58485"></trkpt>
      <trkpt lat="48.88212" lon="12.57185"></trkpt>
      <trkpt lat="48.88448" lon="12.56157"></trkpt>
      <trkpt lat="48.89512" lon="12.55171"></trkpt>
      <trkpt lat="48.90086" lon="12.53077"></trkpt>
      <trkpt lat="48.91259" lon="12.51587"></trkpt>
      <trkpt lat="48.92621" lon="12.50687"></trkpt>
      <trkpt lat="48.93418" lon="12.49145"></trkpt>
      <trkpt lat="48.9429" lon="12.46858"></trkpt>
      <trkpt lat="48.95544" lon="12.45151"></trkpt>
      <trkpt lat="48.96569" lon="12.44054"></trkpt>
      <trkpt lat="48.97039" lon="12.4241"></trkpt>
      <trkpt lat="48.96813" lon="12.3955"></trkpt>
      <trkpt lat="48.96189" lon="12.37563"></trkpt>
      <trkpt lat="48.95696" lon="12.35931"></trkpt>
      <trkpt lat="48.96498" lon="12.34307"></trkpt>
      <trkpt lat="48.97033" lon="12.32645"></trkpt>
      <trkpt lat="48.97439" lon="12.30691"></trkpt>
      <trkpt lat="48.97758" lon="12.28513"></trkpt>
      <trkpt lat="48.98136" lon="12.27061"></trkpt>
      <trkpt lat="48.98745" lon="12.25534"></trkpt>
      <trkpt lat="48.99569" lon="12.24234"></trkpt>
      <trkpt lat="48.9999" lon="12.22581"></trkpt>
      <trkpt lat="49.00296" lon="12.20705"></trkpt>
      <trkpt lat="49.00516" lon="12.1873"></trkpt>
      <trkpt lat="49.00668" lon="12.17427"></trkpt>
      <trkpt lat="49.01264" lon="12.15668"></trkpt>
      <trkpt lat="49.01365" lon="12.14037"></trkpt>
      <trkpt lat="49.01527" lon="12.1196"></trkpt>
      <trkpt lat="49.0195" lon="12.1028"></trkpt>
      <trkpt lat="49.02229" lon="12.08682"></trkpt>
      <trkpt lat="49.02422" lon="12.07408"></trkpt>
      <trkpt lat="49.02353" lon="12.06006"></trkpt>
    </trkseg>
  </trk>
  <trk>
    <name>День 3</name>
    <trkseg>
      <trkpt lat="49.02372" lon="12.06003"></trkpt>
      <trkpt lat="49.02342" lon="12.05582"></trkpt>
      <trkpt lat="49.02161" lon="12.04422"></trkpt>
      <trkpt lat="49.01575" lon="12.04073"></trkpt>
      <trkpt lat="49.00935" lon="12.0373"></trkpt>
      <trkpt lat="49.00373" lon="12.03136"></trkpt>
      <trkpt lat="49.00797" lon="12.02747"></trkpt>
      <trkpt lat="49.01483" lon="12.02637"></trkpt>
      <trkpt lat="49.01462" lon="12.02388"></trkpt>
      <trkpt lat="49.01836" lon="12.01074"></trkpt>
      <trkpt lat="49.02252" lon="11.99829"></trkpt>
      <trkpt lat="49.02737" lon="11.98654"></trkpt>
      <trkpt lat="49.03143" lon="11.9833"></trkpt>
      <trkpt lat="49.03243" lon="11.97953"></trkpt>
      <trkpt lat="49.03384" lon="11.97826"></trkpt>
      <trkpt lat="49.03512" lon="11.97778"></trkpt>
      <trkpt lat="49.03404" lon="11.97452"></trkpt>
      <trkpt lat="49.03769" lon="11.96699"></trkpt>
      <trkpt lat="49.04041" lon="11.96073"></trkpt>
      <trkpt lat="49.03918" lon="11.95423"></trkpt>
      <trkpt lat="49.04292" lon="11.94895"></trkpt>
      <trkpt lat="49.04466" lon="11.94575"></trkpt>
      <trkpt lat="49.04431" lon="11.94763"></trkpt>
      <trkpt lat="49.04412" lon="11.94803"></trkpt>
      <trkpt lat="49.04441" lon="11.94507"></trkpt>
      <trkpt lat="49.04434" lon="11.94569"></trkpt>
      <trkpt lat="49.04385" lon="11.94282"></trkpt>
      <trkpt lat="49.04336" lon="11.93785"></trkpt>
      <trkpt lat="49.04163" lon="11.93673"></trkpt>
      <trkpt lat="49.04055" lon="11.93885"></trkpt>
      <trkpt lat="49.03708" lon="11.93951"></trkpt>
      <trkpt lat="49.03841" lon="11.93391"></trkpt>
      <trkpt lat="49.03927" lon="11.92247"></trkpt>
      <trkpt lat="49.0407" lon="11.91546"></trkpt>
      <trkpt lat="49.03962" lon="11.90567"></trkpt>
      <trkpt lat="49.03551" lon="11.90201"></trkpt>
      <trkpt lat="49.03313" lon="11.89363"></trkpt>
      <trkpt lat="49.03447" lon="11.88931"></trkpt>
      <trkpt lat="49.03545" lon="11.88692"></trkpt>
      <trkpt lat="49.03705" lon="11.88463"></trkpt>
      <trkpt lat="49.0377" lon="11.88096"></trkpt>
      <trkpt lat="49.03627" lon="11.87447"></trkpt>
      <trkpt lat="49.03602" lon="11.86725"></trkpt>
      <trkpt lat="49.03691" lon="11.85889"></trkpt>
      <trkpt lat="49.03809" lon="11.85348"></trkpt>
      <trkpt lat="49.03909" lon="11.84823"></trkpt>
      <trkpt lat="49.03964" lon="11.84261"></trkpt>
      <trkpt lat="49.0424" lon="11.82945"></trkpt>
      <trkpt lat="49.04374" lon="11.82156"></trkpt>
      <trkpt lat="49.04479" lon="11.8104"></trkpt>
      <trkpt lat="49.04496" lon="11.80223"></trkpt>
      <trkpt lat="49.0488" lon="11.79287"></trkpt>
      <trkpt lat="49.05104" lon="11.78401"></trkpt>
      <trkpt lat="49.05185" lon="11.78263"></trkpt>
      <trkpt lat="49.05696" lon="11.77524"></trkpt>
      <trkpt lat="49.06171" lon="11.76717"></trkpt>
      <trkpt lat="49.06648" lon="11.76158"></trkpt>
      <trkpt lat="49.07166" lon="11.75621"></trkpt>
      <trkpt lat="49.07716" lon="11.75651"></trkpt>
      <trkpt lat="49.0843" lon="11.75876"></trkpt>
      <trkpt lat="49.091" lon="11.75764"></trkpt>
      <trkpt lat="49.09584" lon="11.7545"></trkpt>
      <trkpt lat="49.10161" lon="11.75021"></trkpt>
      <trkpt lat="49.10757" lon="11.74064"></trkpt>
      <trkpt lat="49.11433" lon="11.73252"></trkpt>
      <trkpt lat="49.11688" lon="11.72657"></trkpt>
      <trkpt lat="49.12016" lon="11.71134"></trkpt>
      <trkpt lat="49.12288" lon="11.70484"></trkpt>
      <trkpt lat="49.12907" lon="11.69648"></trkpt>
      <trkpt lat="49.13284" lon="11.69018"></trkpt>
      <trkpt lat="49.13721" lon="11.68664"></trkpt>
      <trkpt lat="49.13987" lon="11.67313"></trkpt>
      <trkpt lat="49.14568" lon="11.65756"></trkpt>
      <trkpt lat="49.14903" lon="11.65004"></trkpt>
      <trkpt lat="49.15241" lon="11.64193"></trkpt>
      <trkpt lat="49.15789" lon="11.63367"></trkpt>
      <trkpt lat="49.16712" lon="11.62921"></trkpt>
      <trkpt lat="49.17043" lon="11.62177"></trkpt>
      <trkpt lat="49.17463" lon="11.62058"></trkpt>
      <trkpt lat="49.17987" lon="11.6161"></trkpt>
      <trkpt lat="49.18684" lon="11.60879"></trkpt>
      <trkpt lat="49.19145" lon="11.59968"></trkpt>
      <trkpt lat="49.19568" lon="11.59474"></trkpt>
      <trkpt lat="49.20038" lon="11.58954"></trkpt>
      <trkpt lat="49.20589" lon="11.5825"></trkpt>
      <trkpt lat="49.20827" lon="11.57366"></trkpt>
      <trkpt lat="49.21221" lon="11.56526"></trkpt>
      <trkpt lat="49.21643" lon="11.55755"></trkpt>
      <trkpt lat="49.22441" lon="11.55435"></trkpt>
      <trkpt lat="49.22514" lon="11.53879"></trkpt>
      <trkpt lat="49.22843" lon="11.53229"></trkpt>
      <trkpt lat="49.23" lon="11.52659"></trkpt>
      <trkpt lat="49.23137" lon="11.52253"></trkpt>
      <trkpt lat="49.23606" lon="11.51696"></trkpt>
      <trkpt lat="49.2381" lon="11.51239"></trkpt>
      <trkpt lat="49.24061" lon="11.50883"></trkpt>
      <trkpt lat="49.24386" lon="11.50178"></trkpt>
      <trkpt lat="49.24636" lon="11.49234"></trkpt>
      <trkpt lat="49.25512" lon="11.48456"></trkpt>
      <trkpt lat="49.26052" lon="11.47854"></trkpt>
      <trkpt lat="49.26454" lon="11.47441"></trkpt>
      <trkpt lat="49.27106" lon="11.46867"></trkpt>
      <trkpt lat="49.27586" lon="11.46115"></trkpt>
      <trkpt lat="49.27999" lon="11.45868"></trkpt>
      <trkpt lat="49.28475" lon="11.45237"></trkpt>
      <trkpt lat="49.2879" lon="11.44492"></trkpt>
      <trkpt lat="49.29016" lon="11.43375"></trkpt>
      <trkpt lat="49.29105" lon="11.42378"></trkpt>
      <trkpt lat="49.29436" lon="11.41372"></trkpt>
      <trkpt lat="49.29786" lon="11.4071"></trkpt>
      <trkpt lat="49.30204" lon="11.40232"></trkpt>
      <trkpt lat="49.30513" lon="11.39582"></trkpt>
      <trkpt lat="49.30607" lon="11.3896"></trkpt>
      <trkpt lat="49.30718" lon="11.38396"></trkpt>
      <trkpt lat="49.30799" lon="11.37862"></trkpt>
      <trkpt lat="49.30849" lon="11.37121"></trkpt>
      <trkpt lat="49.31282" lon="11.3583"></trkpt>
      <trkpt lat="49.31191" lon="11.35066"></trkpt>
      <trkpt lat="49.31175" lon="11.35024"></trkpt>
      <trkpt lat="49.31629" lon="11.34299"></trkpt>
      <trkpt lat="49.32027" lon="11.33691"></trkpt>
      <trkpt lat="49.3262" lon="11.3296"></trkpt>
      <trkpt lat="49.3318" lon="11.32119"></trkpt>
      <trkpt lat="49.33371" lon="11.31281"></trkpt>
      <trkpt lat="49.33446" lon="11.30882"></trkpt>
      <trkpt lat="49.33713" lon="11.29672"></trkpt>
      <trkpt lat="49.33877" lon="11.29049"></trkpt>
      <trkpt lat="49.34256" lon="11.28056"></trkpt>
      <trkpt lat="49.34764" lon="11.26838"></trkpt>
      <trkpt lat="49.3552" lon="11.25951"></trkpt>
      <trkpt lat="49.35972" lon="11.2538"></trkpt>
      <trkpt lat="49.36228" lon="11.24639"></trkpt>
      <trkpt lat="49.36517" lon="11.23697"></trkpt>
      <trkpt lat="49.3693" lon="11.22389"></trkpt>
      <trkpt lat="49.3748" lon="11.21533"></trkpt>
      <trkpt lat="49.37927" lon="11.21204"></trkpt>
      <trkpt lat="49.38153" lon="11.20732"></trkpt>
      <trkpt lat="49.38589" lon="11.19888"></trkpt>
      <trkpt lat="49.39096" lon="11.18969"></trkpt>
      <trkpt lat="49.39696" lon="11.18052"></trkpt>
      <trkpt lat="49.40019" lon="11.17214"></trkpt>
      <trkpt lat="49.40476" lon="11.16586"></trkpt>
      <trkpt lat="49.40356" lon="11.15669"></trkpt>
      <trkpt lat="49.40845" lon="11.1493"></trkpt>
      <trkpt lat="49.41418" lon="11.14186"></trkpt>
      <trkpt lat="49.41937" lon="11.13407"></trkpt>
      <trkpt lat="49.41804" lon="11.12549"></trkpt>
      <trkpt lat="49.42405" lon="11.11787"></trkpt>
      <trkpt lat="49.42725" lon="11.11267"></trkpt>
      <trkpt lat="49.42814" lon="11.1134"></trkpt>
      <trkpt lat="49.42691" lon="11.11477"></trkpt>
    </trkseg>
  </trk>
  <trk>
    <name>День 4</name>
    <trkseg>
      <trkpt lat="49.42687" lon="11.11476"></trkpt>
      <trkpt lat="49.43228" lon="11.1105"></trkpt>
      <trkpt lat="49.43464" lon="11.10461"></trkpt>
      <trkpt lat="49.44128" lon="11.10216"></trkpt>
      <trkpt lat="49.44643" lon="11.09237"></trkpt>
      <trkpt lat="49.45154" lon="11.08392"></trkpt>
      <trkpt lat="49.45406" lon="11.0772"></trkpt>
      <trkpt lat="49.45358" lon="11.07503"></trkpt>
      <trkpt lat="49.45359" lon="11.0751"></trkpt>
      <trkpt lat="49.45428" lon="11.07709"></trkpt>
      <trkpt lat="49.45431" lon="11.07424"></trkpt>
      <trkpt lat="49.45388" lon="11.07456"></trkpt>
      <trkpt lat="49.45665" lon="11.07748"></trkpt>
      <trkpt lat="49.45722" lon="11.07423"></trkpt>
      <trkpt lat="49.46028" lon="11.07257"></trkpt>
      <trkpt lat="49.46453" lon="11.07011"></trkpt>
      <trkpt lat="49.47413" lon="11.0645"></trkpt>
      <trkpt lat="49.47657" lon="11.06348"></trkpt>
      <trkpt lat="49.48202" lon="11.06017"></trkpt>
      <trkpt lat="49.49215" lon="11.05337"></trkpt>
      <trkpt lat="49.50128" lon="11.04745"></trkpt>
      <trkpt lat="49.50965" lon="11.03669"></trkpt>
      <trkpt lat="49.52185" lon="11.03299"></trkpt>
      <trkpt lat="49.5337" lon="11.02881"></trkpt>
      <trkpt lat="49.54424" lon="11.02807"></trkpt>
      <trkpt lat="49.55365" lon="11.03136"></trkpt>
      <trkpt lat="49.56569" lon="11.03114"></trkpt>
      <trkpt lat="49.5755" lon="11.01801"></trkpt>
      <trkpt lat="49.58368" lon="11.00944"></trkpt>
      <trkpt lat="49.59227" lon="11.00591"></trkpt>
      <trkpt lat="49.59917" lon="11.00337"></trkpt>
      <trkpt lat="49.60828" lon="11.00099"></trkpt>
      <trkpt lat="49.61924" lon="11.00174"></trkpt>
      <trkpt lat="49.62857" lon="11.00789"></trkpt>
      <trkpt lat="49.63851" lon="11.01115"></trkpt>
      <trkpt lat="49.64827" lon="11.02356"></trkpt>
      <trkpt lat="49.6586" lon="11.03203"></trkpt>
      <trkpt lat="49.66685" lon="11.03738"></trkpt>
      <trkpt lat="49.67434" lon="11.04639"></trkpt>
      <trkpt lat="49.68672" lon="11.04783"></trkpt>
      <trkpt lat="49.69787" lon="11.05315"></trkpt>
      <trkpt lat="49.71209" lon="11.05302"></trkpt>
      <trkpt lat="49.7217" lon="11.05016"></trkpt>
      <trkpt lat="49.73216" lon="11.05278"></trkpt>
      <trkpt lat="49.74338" lon="11.04096"></trkpt>
      <trkpt lat="49.75795" lon="11.0393"></trkpt>
      <trkpt lat="49.76655" lon="11.02698"></trkpt>
      <trkpt lat="49.77487" lon="11.02562"></trkpt>
      <trkpt lat="49.78274" lon="11.01867"></trkpt>
      <trkpt lat="49.79378" lon="11.00819"></trkpt>
      <trkpt lat="49.80679" lon="11.0005"></trkpt>
      <trkpt lat="49.81407" lon="10.98519"></trkpt>
      <trkpt lat="49.8246" lon="10.97255"></trkpt>
      <trkpt lat="49.83178" lon="10.96111"></trkpt>
      <trkpt lat="49.83997" lon="10.95985"></trkpt>
      <trkpt lat="49.84336" lon="10.95086"></trkpt>
      <trkpt lat="49.85319" lon="10.9386"></trkpt>
      <trkpt lat="49.86254" lon="10.92639"></trkpt>
      <trkpt lat="49.87058" lon="10.91605"></trkpt>
      <trkpt lat="49.88121" lon="10.90923"></trkpt>
      <trkpt lat="49.89" lon="10.90303"></trkpt>
      <trkpt lat="49.89149" lon="10.89614"></trkpt>
      <trkpt lat="49.89126" lon="10.88614"></trkpt>
      <trkpt lat="49.8911" lon="10.88621"></trkpt>
      <trkpt lat="49.89109" lon="10.88626"></trkpt>
      <trkpt lat="49.89101" lon="10.88628"></trkpt>
      <trkpt lat="49.8923" lon="10.88744"></trkpt>
      <trkpt lat="49.89655" lon="10.88144"></trkpt>
      <trkpt lat="49.90152" lon="10.86927"></trkpt>
      <trkpt lat="49.90702" lon="10.8522"></trkpt>
      <trkpt lat="49.91248" lon="10.83287"></trkpt>
      <trkpt lat="49.91562" lon="10.81616"></trkpt>
      <trkpt lat="49.91786" lon="10.80687"></trkpt>
      <trkpt lat="49.92217" lon="10.79308"></trkpt>
      <trkpt lat="49.92386" lon="10.77718"></trkpt>
      <trkpt lat="49.92652" lon="10.76124"></trkpt>
      <trkpt lat="49.93152" lon="10.74413"></trkpt>
      <trkpt lat="49.93839" lon="10.73167"></trkpt>
      <trkpt lat="49.94996" lon="10.72083"></trkpt>
      <trkpt lat="49.96127" lon="10.71042"></trkpt>
      <trkpt lat="49.96761" lon="10.69545"></trkpt>
      <trkpt lat="49.96977" lon="10.67885"></trkpt>
      <trkpt lat="49.97297" lon="10.66819"></trkpt>
      <trkpt lat="49.98143" lon="10.67156"></trkpt>
      <trkpt lat="49.98564" lon="10.66096"></trkpt>
      <trkpt lat="49.99107" lon="10.6439"></trkpt>
      <trkpt lat="49.99628" lon="10.62759"></trkpt>
      <trkpt lat="50.00122" lon="10.61185"></trkpt>
      <trkpt lat="50.00592" lon="10.59973"></trkpt>
      <trkpt lat="50.01091" lon="10.59375"></trkpt>
      <trkpt lat="50.01939" lon="10.59045"></trkpt>
      <trkpt lat="50.03037" lon="10.58639"></trkpt>
      <trkpt lat="50.04108" lon="10.58731"></trkpt>
      <trkpt lat="50.05078" lon="10.58737"></trkpt>
      <trkpt lat="50.05445" lon="10.5859"></trkpt>
      <trkpt lat="50.05744" lon="10.58099"></trkpt>
      <trkpt lat="50.0603" lon="10.57984"></trkpt>
      <trkpt lat="50.06928" lon="10.57728"></trkpt>
      <trkpt lat="50.07917" lon="10.56875"></trkpt>
      <trkpt lat="50.08815" lon="10.56344"></trkpt>
      <trkpt lat="50.09145" lon="10.54621"></trkpt>
      <trkpt lat="50.10001" lon="10.53662"></trkpt>
      <trkpt lat="50.1097" lon="10.53166"></trkpt>
      <trkpt lat="50.11713" lon="10.52049"></trkpt>
      <trkpt lat="50.11421" lon="10.50869"></trkpt>
      <trkpt lat="50.11984" lon="10.50161"></trkpt>
      <trkpt lat="50.12148" lon="10.49302"></trkpt>
      <trkpt lat="50.12183" lon="10.48086"></trkpt>
      <trkpt lat="50.13053" lon="10.47443"></trkpt>
      <trkpt lat="50.13488" lon="10.46753"></trkpt>
      <trkpt lat="50.14187" lon="10.45632"></trkpt>
      <trkpt lat="50.15091" lon="10.44565"></trkpt>
      <trkpt lat="50.1536" lon="10.43651"></trkpt>
      <trkpt lat="50.15357" lon="10.43639"></trkpt>
      <trkpt lat="50.15642" lon="10.43435"></trkpt>
      <trkpt lat="50.16277" lon="10.42189"></trkpt>
      <trkpt lat="50.17052" lon="10.40932"></trkpt>
      <trkpt lat="50.176" lon="10.40015"></trkpt>
      <trkpt lat="50.18159" lon="10.38252"></trkpt>
      <trkpt lat="50.18313" lon="10.36909"></trkpt>
      <trkpt lat="50.18432" lon="10.36735"></trkpt>
      <trkpt lat="50.18953" lon="10.35758"></trkpt>
      <trkpt lat="50.19382" lon="10.34739"></trkpt>
      <trkpt lat="50.19819" lon="10.34009"></trkpt>
      <trkpt lat="50.2009" lon="10.3377"></trkpt>
      <trkpt lat="50.20604" lon="10.33168"></trkpt>
      <trkpt lat="50.21271" lon="10.33393"></trkpt>
      <trkpt lat="50.2225" lon="10.3262"></trkpt>
      <trkpt lat="50.23063" lon="10.32314"></trkpt>
      <trkpt lat="50.24125" lon="10.3176"></trkpt>
      <trkpt lat="50.25089" lon="10.31516"></trkpt>
      <trkpt lat="50.26053" lon="10.31189"></trkpt>
      <trkpt lat="50.26733" lon="10.30282"></trkpt>
      <trkpt lat="50.27335" lon="10.29602"></trkpt>
      <trkpt lat="50.27745" lon="10.28538"></trkpt>
      <trkpt lat="50.2809" lon="10.28022"></trkpt>
      <trkpt lat="50.28827" lon="10.27132"></trkpt>
      <trkpt lat="50.29316" lon="10.26434"></trkpt>
      <trkpt lat="50.30279" lon="10.24682"></trkpt>
      <trkpt lat="50.3109" lon="10.2322"></trkpt>
      <trkpt lat="50.31653" lon="10.22414"></trkpt>
      <trkpt lat="50.32341" lon="10.22049"></trkpt>
      <trkpt lat="50.32341" lon="10.21768"></trkpt>
      <trkpt lat="50.32339" lon="10.21774"></trkpt>
      <trkpt lat="50.32334" lon="10.21782"></trkpt>
      <trkpt lat="50.32596" lon="10.21322"></trkpt>
      <trkpt lat="50.33029" lon="10.20476"></trkpt>
      <trkpt lat="50.33526" lon="10.19383"></trkpt>
      <trkpt lat="50.3407" lon="10.18201"></trkpt>
      <trkpt lat="50.34507" lon="10.16991"></trkpt>
      <trkpt lat="50.34499" lon="10.16832"></trkpt>
    </trkseg>
  </trk>
  <trk>
    <name>День 5</name>
    <trkseg>
      <trkpt lat="50.34501" lon="10.16833"></trkpt>
      <trkpt lat="50.3461" lon="10.17073"></trkpt>
      <trkpt lat="50.35024" lon="10.15747"></trkpt>
      <trkpt lat="50.35457" lon="10.14479"></trkpt>
      <trkpt lat="50.36017" lon="10.13122"></trkpt>
      <trkpt lat="50.36706" lon="10.12225"></trkpt>
      <trkpt lat="50.3773" lon="10.11413"></trkpt>
      <trkpt lat="50.38048" lon="10.10492"></trkpt>
      <trkpt lat="50.38654" lon="10.10033"></trkpt>
      <trkpt lat="50.39408" lon="10.09065"></trkpt>
      <trkpt lat="50.40074" lon="10.079"></trkpt>
      <trkpt lat="50.40246" lon="10.06462"></trkpt>
      <trkpt lat="50.40096" lon="10.04944"></trkpt>
      <trkpt lat="50.39991" lon="10.03709"></trkpt>
      <trkpt lat="50.39851" lon="10.02453"></trkpt>
      <trkpt lat="50.40044" lon="10.01269"></trkpt>
      <trkpt lat="50.40414" lon="10.00564"></trkpt>
      <trkpt lat="50.40892" lon="10.00433"></trkpt>
      <trkpt lat="50.41228" lon="10.00299"></trkpt>
      <trkpt lat="50.41523" lon="10.00038"></trkpt>
      <trkpt lat="50.41807" lon="9.99706"></trkpt>
      <trkpt lat="50.42158" lon="9.99252"></trkpt>
      <trkpt lat="50.42583" lon="9.98672"></trkpt>
      <trkpt lat="50.42891" lon="9.98314"></trkpt>
      <trkpt lat="50.43148" lon="9.9791"></trkpt>
      <trkpt lat="50.43294" lon="9.97255"></trkpt>
      <trkpt lat="50.43671" lon="9.968"></trkpt>
      <trkpt lat="50.43832" lon="9.9579"></trkpt>
      <trkpt lat="50.44206" lon="9.94486"></trkpt>
      <trkpt lat="50.44662" lon="9.93307"></trkpt>
      <trkpt lat="50.44971" lon="9.91982"></trkpt>
      <trkpt lat="50.45022" lon="9.90931"></trkpt>
      <trkpt lat="50.45302" lon="9.89748"></trkpt>
      <trkpt lat="50.45606" lon="9.88426"></trkpt>
      <trkpt lat="50.45419" lon="9.86698"></trkpt>
      <trkpt lat="50.45222" lon="9.8544"></trkpt>
      <trkpt lat="50.45166" lon="9.85011"></trkpt>
      <trkpt lat="50.45169" lon="9.85003"></trkpt>
      <trkpt lat="50.45281" lon="9.84055"></trkpt>
      <trkpt lat="50.4502" lon="9.82203"></trkpt>
      <trkpt lat="50.44947" lon="9.80685"></trkpt>
      <trkpt lat="50.45308" lon="9.79249"></trkpt>
      <trkpt lat="50.45528" lon="9.78014"></trkpt>
      <trkpt lat="50.45826" lon="9.76876"></trkpt>
      <trkpt lat="50.46507" lon="9.76426"></trkpt>
      <trkpt lat="50.47284" lon="9.75666"></trkpt>
      <trkpt lat="50.47219" lon="9.74482"></trkpt>
      <trkpt lat="50.47234" lon="9.72995"></trkpt>
      <trkpt lat="50.47849" lon="9.72073"></trkpt>
      <trkpt lat="50.48264" lon="9.71683"></trkpt>
      <trkpt lat="50.48862" lon="9.70653"></trkpt>
      <trkpt lat="50.4939" lon="9.69856"></trkpt>
      <trkpt lat="50.50056" lon="9.69643"></trkpt>
      <trkpt lat="50.50718" lon="9.69503"></trkpt>
      <trkpt lat="50.51374" lon="9.67988"></trkpt>
      <trkpt lat="50.5221" lon="9.68048"></trkpt>
      <trkpt lat="50.52762" lon="9.67866"></trkpt>
      <trkpt lat="50.53679" lon="9.67651"></trkpt>
      <trkpt lat="50.54618" lon="9.67494"></trkpt>
      <trkpt lat="50.55036" lon="9.67791"></trkpt>
      <trkpt lat="50.55306" lon="9.67515"></trkpt>
      <trkpt lat="50.55239" lon="9.67578"></trkpt>
      <trkpt lat="50.55441" lon="9.67274"></trkpt>
      <trkpt lat="50.55512" lon="9.66284"></trkpt>
      <trkpt lat="50.55982" lon="9.65136"></trkpt>
      <trkpt lat="50.56444" lon="9.63665"></trkpt>
      <trkpt lat="50.56526" lon="9.62569"></trkpt>
      <trkpt lat="50.56655" lon="9.62099"></trkpt>
      <trkpt lat="50.56865" lon="9.60886"></trkpt>
      <trkpt lat="50.57355" lon="9.59178"></trkpt>
      <trkpt lat="50.57521" lon="9.57709"></trkpt>
      <trkpt lat="50.57562" lon="9.56483"></trkpt>
      <trkpt lat="50.58153" lon="9.56002"></trkpt>
      <trkpt lat="50.58575" lon="9.54544"></trkpt>
      <trkpt lat="50.59289" lon="9.54058"></trkpt>
      <trkpt lat="50.59932" lon="9.53779"></trkpt>
      <trkpt lat="50.60319" lon="9.53051"></trkpt>
      <trkpt lat="50.61073" lon="9.52152"></trkpt>
      <trkpt lat="50.61823" lon="9.51293"></trkpt>
      <trkpt lat="50.62564" lon="9.50488"></trkpt>
      <trkpt lat="50.62953" lon="9.49319"></trkpt>
      <trkpt lat="50.63054" lon="9.48157"></trkpt>
      <trkpt lat="50.63199" lon="9.46795"></trkpt>
      <trkpt lat="50.63134" lon="9.45511"></trkpt>
      <trkpt lat="50.63116" lon="9.44346"></trkpt>
      <trkpt lat="50.63511" lon="9.43457"></trkpt>
      <trkpt lat="50.63908" lon="9.42342"></trkpt>
      <trkpt lat="50.63939" lon="9.40957"></trkpt>
      <trkpt lat="50.63742" lon="9.40017"></trkpt>
      <trkpt lat="50.63679" lon="9.39698"></trkpt>
      <trkpt lat="50.63865" lon="9.39282"></trkpt>
      <trkpt lat="50.64273" lon="9.38299"></trkpt>
      <trkpt lat="50.64383" lon="9.3718"></trkpt>
      <trkpt lat="50.64547" lon="9.36257"></trkpt>
      <trkpt lat="50.64885" lon="9.35617"></trkpt>
      <trkpt lat="50.6526" lon="9.35065"></trkpt>
      <trkpt lat="50.65813" lon="9.33951"></trkpt>
      <trkpt lat="50.66245" lon="9.32742"></trkpt>
      <trkpt lat="50.67168" lon="9.33188"></trkpt>
      <trkpt lat="50.68158" lon="9.32721"></trkpt>
      <trkpt lat="50.69181" lon="9.32039"></trkpt>
      <trkpt lat="50.69928" lon="9.3095"></trkpt>
      <trkpt lat="50.70631" lon="9.30163"></trkpt>
      <trkpt lat="50.70982" lon="9.29527"></trkpt>
      <trkpt lat="50.71751" lon="9.287"></trkpt>
      <trkpt lat="50.72704" lon="9.27869"></trkpt>
      <trkpt lat="50.73518" lon="9.27254"></trkpt>
      <trkpt lat="50.74518" lon="9.27184"></trkpt>
      <trkpt lat="50.75043" lon="9.26594"></trkpt>
      <trkpt lat="50.7532" lon="9.26128"></trkpt>
      <trkpt lat="50.75594" lon="9.24841"></trkpt>
      <trkpt lat="50.76067" lon="9.23431"></trkpt>
      <trkpt lat="50.76456" lon="9.22689"></trkpt>
      <trkpt lat="50.76659" lon="9.22113"></trkpt>
      <trkpt lat="50.76553" lon="9.21135"></trkpt>
      <trkpt lat="50.77081" lon="9.20383"></trkpt>
      <trkpt lat="50.77902" lon="9.20198"></trkpt>
      <trkpt lat="50.78462" lon="9.18927"></trkpt>
      <trkpt lat="50.79089" lon="9.189"></trkpt>
      <trkpt lat="50.79634" lon="9.1773"></trkpt>
      <trkpt lat="50.80164" lon="9.17169"></trkpt>
      <trkpt lat="50.80128" lon="9.16696"></trkpt>
      <trkpt lat="50.80274" lon="9.16268"></trkpt>
      <trkpt lat="50.80649" lon="9.15725"></trkpt>
      <trkpt lat="50.81498" lon="9.1558"></trkpt>
      <trkpt lat="50.82788" lon="9.1452"></trkpt>
      <trkpt lat="50.83784" lon="9.13798"></trkpt>
      <trkpt lat="50.84801" lon="9.11907"></trkpt>
      <trkpt lat="50.84899" lon="9.11114"></trkpt>
      <trkpt lat="50.84882" lon="9.1108"></trkpt>
      <trkpt lat="50.85075" lon="9.11597"></trkpt>
      <trkpt lat="50.8524" lon="9.11509"></trkpt>
      <trkpt lat="50.85229" lon="9.11577"></trkpt>
      <trkpt lat="50.85308" lon="9.11441"></trkpt>
      <trkpt lat="50.85841" lon="9.11922"></trkpt>
      <trkpt lat="50.86124" lon="9.12064"></trkpt>
      <trkpt lat="50.86626" lon="9.12215"></trkpt>
      <trkpt lat="50.87388" lon="9.12386"></trkpt>
      <trkpt lat="50.87858" lon="9.11558"></trkpt>
      <trkpt lat="50.88046" lon="9.10847"></trkpt>
      <trkpt lat="50.88525" lon="9.09966"></trkpt>
      <trkpt lat="50.88965" lon="9.09385"></trkpt>
      <trkpt lat="50.89541" lon="9.09568"></trkpt>
      <trkpt lat="50.9003" lon="9.0991"></trkpt>
      <trkpt lat="50.90675" lon="9.09107"></trkpt>
      <trkpt lat="50.9086" lon="9.08256"></trkpt>
      <trkpt lat="50.9088" lon="9.07992"></trkpt>
      <trkpt lat="50.9094" lon="9.07282"></trkpt>
      <trkpt lat="50.91184" lon="9.06327"></trkpt>
      <trkpt lat="50.91797" lon="9.05262"></trkpt>
      <trkpt lat="50.9226" lon="9.04621"></trkpt>
    </trkseg>
  </trk>
  <trk>
    <name>День 6</name>
    <trkseg>
      <trkpt lat="50.92261" lon="9.04621"></trkpt>
      <trkpt lat="50.928" lon="9.04085"></trkpt>
      <trkpt lat="50.93112" lon="9.03882"></trkpt>
      <trkpt lat="50.93486" lon="9.03331"></trkpt>
      <trkpt lat="50.93825" lon="9.02364"></trkpt>
      <trkpt lat="50.94283" lon="9.01321"></trkpt>
      <trkpt lat="50.9471" lon="9.00403"></trkpt>
      <trkpt lat="50.95078" lon="8.9912"></trkpt>
      <trkpt lat="50.95782" lon="8.97839"></trkpt>
      <trkpt lat="50.96212" lon="8.96769"></trkpt>
      <trkpt lat="50.96946" lon="8.96952"></trkpt>
      <trkpt lat="50.97517" lon="8.96518"></trkpt>
      <trkpt lat="50.98137" lon="8.96458"></trkpt>
      <trkpt lat="50.98729" lon="8.96404"></trkpt>
      <trkpt lat="50.99493" lon="8.95771"></trkpt>
      <trkpt lat="51.00135" lon="8.95196"></trkpt>
      <trkpt lat="51.00777" lon="8.94863"></trkpt>
      <trkpt lat="51.01298" lon="8.9455"></trkpt>
      <trkpt lat="51.02162" lon="8.94094"></trkpt>
      <trkpt lat="51.02706" lon="8.93392"></trkpt>
      <trkpt lat="51.02869" lon="8.92666"></trkpt>
      <trkpt lat="51.03326" lon="8.92045"></trkpt>
      <trkpt lat="51.03679" lon="8.9144"></trkpt>
      <trkpt lat="51.04099" lon="8.90798"></trkpt>
      <trkpt lat="51.04402" lon="8.90858"></trkpt>
      <trkpt lat="51.05081" lon="8.90143"></trkpt>
      <trkpt lat="51.05166" lon="8.8909"></trkpt>
      <trkpt lat="51.05075" lon="8.88401"></trkpt>
      <trkpt lat="51.04796" lon="8.87152"></trkpt>
      <trkpt lat="51.04917" lon="8.86108"></trkpt>
      <trkpt lat="51.05066" lon="8.84906"></trkpt>
      <trkpt lat="51.05462" lon="8.8338"></trkpt>
      <trkpt lat="51.05797" lon="8.8194"></trkpt>
      <trkpt lat="51.05757" lon="8.80484"></trkpt>
      <trkpt lat="51.05986" lon="8.80079"></trkpt>
      <trkpt lat="51.05994" lon="8.7975"></trkpt>
      <trkpt lat="51.06018" lon="8.79714"></trkpt>
      <trkpt lat="51.06009" lon="8.79711"></trkpt>
      <trkpt lat="51.06017" lon="8.79708"></trkpt>
      <trkpt lat="51.06011" lon="8.79721"></trkpt>
      <trkpt lat="51.06024" lon="8.79704"></trkpt>
      <trkpt lat="51.0601" lon="8.79712"></trkpt>
      <trkpt lat="51.0588" lon="8.79376"></trkpt>
      <trkpt lat="51.0587" lon="8.78324"></trkpt>
      <trkpt lat="51.06038" lon="8.78102"></trkpt>
      <trkpt lat="51.05971" lon="8.7815"></trkpt>
      <trkpt lat="51.05977" lon="8.78242"></trkpt>
      <trkpt lat="51.05962" lon="8.77418"></trkpt>
      <trkpt lat="51.06067" lon="8.76343"></trkpt>
      <trkpt lat="51.06425" lon="8.75706"></trkpt>
      <trkpt lat="51.05853" lon="8.74511"></trkpt>
      <trkpt lat="51.0597" lon="8.73185"></trkpt>
      <trkpt lat="51.06477" lon="8.72472"></trkpt>
      <trkpt lat="51.07018" lon="8.72054"></trkpt>
      <trkpt lat="51.07046" lon="8.71257"></trkpt>
      <trkpt lat="51.0736" lon="8.7072"></trkpt>
      <trkpt lat="51.07488" lon="8.69971"></trkpt>
      <trkpt lat="51.07598" lon="8.69098"></trkpt>
      <trkpt lat="51.07663" lon="8.67903"></trkpt>
      <trkpt lat="51.08521" lon="8.66685"></trkpt>
      <trkpt lat="51.09517" lon="8.66655"></trkpt>
      <trkpt lat="51.0964" lon="8.65802"></trkpt>
      <trkpt lat="51.09985" lon="8.64445"></trkpt>
      <trkpt lat="51.10605" lon="8.63417"></trkpt>
      <trkpt lat="51.11224" lon="8.62497"></trkpt>
      <trkpt lat="51.11951" lon="8.6191"></trkpt>
      <trkpt lat="51.12583" lon="8.61156"></trkpt>
      <trkpt lat="51.12483" lon="8.59988"></trkpt>
      <trkpt lat="51.1288" lon="8.5896"></trkpt>
      <trkpt lat="51.13605" lon="8.58709"></trkpt>
      <trkpt lat="51.14366" lon="8.58523"></trkpt>
      <trkpt lat="51.15073" lon="8.57969"></trkpt>
      <trkpt lat="51.15249" lon="8.56661"></trkpt>
      <trkpt lat="51.15348" lon="8.56122"></trkpt>
      <trkpt lat="51.15847" lon="8.55781"></trkpt>
      <trkpt lat="51.1643" lon="8.55567"></trkpt>
      <trkpt lat="51.16944" lon="8.55133"></trkpt>
      <trkpt lat="51.17391" lon="8.54191"></trkpt>
      <trkpt lat="51.17743" lon="8.53224"></trkpt>
      <trkpt lat="51.18153" lon="8.52641"></trkpt>
      <trkpt lat="51.18498" lon="8.52707"></trkpt>
      <trkpt lat="51.18724" lon="8.52208"></trkpt>
      <trkpt lat="51.1901" lon="8.52436"></trkpt>
      <trkpt lat="51.19112" lon="8.52985"></trkpt>
      <trkpt lat="51.19342" lon="8.53449"></trkpt>
      <trkpt lat="51.19514" lon="8.53686"></trkpt>
      <trkpt lat="51.19442" lon="8.5332"></trkpt>
      <trkpt lat="51.19436" lon="8.53849"></trkpt>
      <trkpt lat="51.20128" lon="8.53387"></trkpt>
      <trkpt lat="51.20544" lon="8.52728"></trkpt>
      <trkpt lat="51.21029" lon="8.50307"></trkpt>
      <trkpt lat="51.21732" lon="8.48579"></trkpt>
      <trkpt lat="51.23243" lon="8.4823"></trkpt>
      <trkpt lat="51.24779" lon="8.48222"></trkpt>
      <trkpt lat="51.2532" lon="8.46742"></trkpt>
      <trkpt lat="51.25641" lon="8.46845"></trkpt>
      <trkpt lat="51.2537" lon="8.46574"></trkpt>
      <trkpt lat="51.24956" lon="8.46453"></trkpt>
      <trkpt lat="51.24741" lon="8.4566"></trkpt>
      <trkpt lat="51.25217" lon="8.44436"></trkpt>
      <trkpt lat="51.2483" lon="8.43323"></trkpt>
      <trkpt lat="51.24918" lon="8.41375"></trkpt>
      <trkpt lat="51.25229" lon="8.39047"></trkpt>
      <trkpt lat="51.25334" lon="8.37725"></trkpt>
      <trkpt lat="51.25738" lon="8.3659"></trkpt>
      <trkpt lat="51.26443" lon="8.36036"></trkpt>
      <trkpt lat="51.27598" lon="8.34753"></trkpt>
      <trkpt lat="51.28539" lon="8.33171"></trkpt>
      <trkpt lat="51.29727" lon="8.32448"></trkpt>
      <trkpt lat="51.30122" lon="8.31239"></trkpt>
      <trkpt lat="51.30686" lon="8.30293"></trkpt>
      <trkpt lat="51.31947" lon="8.29453"></trkpt>
      <trkpt lat="51.33296" lon="8.29252"></trkpt>
      <trkpt lat="51.342" lon="8.28323"></trkpt>
      <trkpt lat="51.34788" lon="8.28199"></trkpt>
      <trkpt lat="51.348" lon="8.2825"></trkpt>
      <trkpt lat="51.34801" lon="8.28256"></trkpt>
      <trkpt lat="51.34799" lon="8.28268"></trkpt>
      <trkpt lat="51.34797" lon="8.2827"></trkpt>
      <trkpt lat="51.34849" lon="8.27672"></trkpt>
      <trkpt lat="51.34898" lon="8.26116"></trkpt>
      <trkpt lat="51.35315" lon="8.24889"></trkpt>
      <trkpt lat="51.35496" lon="8.23405"></trkpt>
      <trkpt lat="51.35369" lon="8.22213"></trkpt>
      <trkpt lat="51.35268" lon="8.20638"></trkpt>
      <trkpt lat="51.35469" lon="8.19783"></trkpt>
      <trkpt lat="51.36088" lon="8.18427"></trkpt>
      <trkpt lat="51.36633" lon="8.17099"></trkpt>
      <trkpt lat="51.36755" lon="8.1686"></trkpt>
      <trkpt lat="51.37062" lon="8.17277"></trkpt>
      <trkpt lat="51.37063" lon="8.17268"></trkpt>
      <trkpt lat="51.37413" lon="8.17452"></trkpt>
      <trkpt lat="51.37772" lon="8.16452"></trkpt>
      <trkpt lat="51.38253" lon="8.15527"></trkpt>
      <trkpt lat="51.39148" lon="8.14712"></trkpt>
      <trkpt lat="51.38952" lon="8.12541"></trkpt>
      <trkpt lat="51.39708" lon="8.10879"></trkpt>
      <trkpt lat="51.39847" lon="8.09143"></trkpt>
      <trkpt lat="51.40767" lon="8.07949"></trkpt>
      <trkpt lat="51.40965" lon="8.06853"></trkpt>
      <trkpt lat="51.41049" lon="8.06551"></trkpt>
      <trkpt lat="51.41178" lon="8.05361"></trkpt>
      <trkpt lat="51.41863" lon="8.04442"></trkpt>
      <trkpt lat="51.42427" lon="8.02665"></trkpt>
      <trkpt lat="51.428" lon="8.00887"></trkpt>
      <trkpt lat="51.432" lon="7.99884"></trkpt>
      <trkpt lat="51.43278" lon="7.98787"></trkpt>
      <trkpt lat="51.4373" lon="7.97564"></trkpt>
      <trkpt lat="51.43986" lon="7.9666"></trkpt>
      <trkpt lat="51.44534" lon="7.95573"></trkpt>
      <trkpt lat="51.4489" lon="7.95264"></trkpt>
    </trkseg>
  </trk>
  <trk>
    <name>День 7</name>
    <trkseg>
      <trkpt lat="51.44913" lon="7.95242"></trkpt>
      <trkpt lat="51.45324" lon="7.95011"></trkpt>
      <trkpt lat="51.46406" lon="7.94707"></trkpt>
      <trkpt lat="51.4704" lon="7.93238"></trkpt>
      <trkpt lat="51.46742" lon="7.92209"></trkpt>
      <trkpt lat="51.46585" lon="7.91234"></trkpt>
      <trkpt lat="51.46574" lon="7.90018"></trkpt>
      <trkpt lat="51.46867" lon="7.87983"></trkpt>
      <trkpt lat="51.4725" lon="7.87038"></trkpt>
      <trkpt lat="51.48111" lon="7.86228"></trkpt>
      <trkpt lat="51.48677" lon="7.85254"></trkpt>
      <trkpt lat="51.49303" lon="7.84482"></trkpt>
      <trkpt lat="51.49548" lon="7.8418"></trkpt>
      <trkpt lat="51.4942" lon="7.82709"></trkpt>
      <trkpt lat="51.49845" lon="7.80964"></trkpt>
      <trkpt lat="51.50025" lon="7.79588"></trkpt>
      <trkpt lat="51.50414" lon="7.78471"></trkpt>
      <trkpt lat="51.50615" lon="7.77738"></trkpt>
      <trkpt lat="51.50865" lon="7.76855"></trkpt>
      <trkpt lat="51.51496" lon="7.75054"></trkpt>
      <trkpt lat="51.51729" lon="7.73865"></trkpt>
      <trkpt lat="51.51888" lon="7.72649"></trkpt>
      <trkpt lat="51.52439" lon="7.71819"></trkpt>
      <trkpt lat="51.52946" lon="7.70331"></trkpt>
      <trkpt lat="51.53344" lon="7.69047"></trkpt>
      <trkpt lat="51.53381" lon="7.68925"></trkpt>
      <trkpt lat="51.53491" lon="7.69018"></trkpt>
      <trkpt lat="51.53489" lon="7.69008"></trkpt>
      <trkpt lat="51.53489" lon="7.68997"></trkpt>
      <trkpt lat="51.53491" lon="7.69003"></trkpt>
      <trkpt lat="51.53492" lon="7.69008"></trkpt>
      <trkpt lat="51.53487" lon="7.69008"></trkpt>
      <trkpt lat="51.53706" lon="7.692"></trkpt>
      <trkpt lat="51.53714" lon="7.68006"></trkpt>
      <trkpt lat="51.54223" lon="7.66914"></trkpt>
      <trkpt lat="51.55354" lon="7.66018"></trkpt>
      <trkpt lat="51.56094" lon="7.64559"></trkpt>
      <trkpt lat="51.56044" lon="7.62596"></trkpt>
      <trkpt lat="51.56838" lon="7.61081"></trkpt>
      <trkpt lat="51.57964" lon="7.60646"></trkpt>
      <trkpt lat="51.58598" lon="7.59138"></trkpt>
      <trkpt lat="51.59106" lon="7.5806"></trkpt>
      <trkpt lat="51.59578" lon="7.5697"></trkpt>
      <trkpt lat="51.59584" lon="7.55564"></trkpt>
      <trkpt lat="51.60062" lon="7.54494"></trkpt>
      <trkpt lat="51.60381" lon="7.53338"></trkpt>
      <trkpt lat="51.60896" lon="7.52549"></trkpt>
      <trkpt lat="51.61278" lon="7.51735"></trkpt>
      <trkpt lat="51.61506" lon="7.50226"></trkpt>
      <trkpt lat="51.61557" lon="7.485"></trkpt>
      <trkpt lat="51.61556" lon="7.4691"></trkpt>
      <trkpt lat="51.61963" lon="7.45361"></trkpt>
      <trkpt lat="51.61955" lon="7.44504"></trkpt>
      <trkpt lat="51.61935" lon="7.43121"></trkpt>
      <trkpt lat="51.62349" lon="7.41611"></trkpt>
      <trkpt lat="51.62255" lon="7.40032"></trkpt>
      <trkpt lat="51.62372" lon="7.39354"></trkpt>
      <trkpt lat="51.62168" lon="7.38073"></trkpt>
      <trkpt lat="51.61791" lon="7.3627"></trkpt>
      <trkpt lat="51.6167" lon="7.34508"></trkpt>
      <trkpt lat="51.61797" lon="7.32977"></trkpt>
      <trkpt lat="51.62123" lon="7.31608"></trkpt>
      <trkpt lat="51.62761" lon="7.30483"></trkpt>
      <trkpt lat="51.6321" lon="7.29185"></trkpt>
      <trkpt lat="51.63704" lon="7.28189"></trkpt>
      <trkpt lat="51.63956" lon="7.26922"></trkpt>
      <trkpt lat="51.6409" lon="7.25495"></trkpt>
      <trkpt lat="51.64445" lon="7.24263"></trkpt>
      <trkpt lat="51.65092" lon="7.22976"></trkpt>
      <trkpt lat="51.65849" lon="7.21755"></trkpt>
      <trkpt lat="51.66486" lon="7.20399"></trkpt>
      <trkpt lat="51.66801" lon="7.18954"></trkpt>
      <trkpt lat="51.66925" lon="7.17449"></trkpt>
      <trkpt lat="51.66613" lon="7.16161"></trkpt>
      <trkpt lat="51.6672" lon="7.14732"></trkpt>
      <trkpt lat="51.6661" lon="7.13518"></trkpt>
      <trkpt lat="51.66463" lon="7.12358"></trkpt>
      <trkpt lat="51.66197" lon="7.11555"></trkpt>
      <trkpt lat="51.65968" lon="7.10955"></trkpt>
      <trkpt lat="51.65613" lon="7.09916"></trkpt>
      <trkpt lat="51.65418" lon="7.09076"></trkpt>
      <trkpt lat="51.65423" lon="7.0781"></trkpt>
      <trkpt lat="51.65772" lon="7.06342"></trkpt>
      <trkpt lat="51.65891" lon="7.04909"></trkpt>
      <trkpt lat="51.66108" lon="7.03097"></trkpt>
      <trkpt lat="51.66768" lon="7.02501"></trkpt>
      <trkpt lat="51.67274" lon="7.01637"></trkpt>
      <trkpt lat="51.6714" lon="7.00059"></trkpt>
      <trkpt lat="51.67118" lon="6.9874"></trkpt>
      <trkpt lat="51.67003" lon="6.97275"></trkpt>
      <trkpt lat="51.67376" lon="6.96231"></trkpt>
      <trkpt lat="51.67489" lon="6.9507"></trkpt>
      <trkpt lat="51.67877" lon="6.93742"></trkpt>
      <trkpt lat="51.68344" lon="6.92375"></trkpt>
      <trkpt lat="51.68794" lon="6.91026"></trkpt>
      <trkpt lat="51.69075" lon="6.89573"></trkpt>
      <trkpt lat="51.69367" lon="6.88213"></trkpt>
      <trkpt lat="51.69108" lon="6.87069"></trkpt>
      <trkpt lat="51.68873" lon="6.86133"></trkpt>
      <trkpt lat="51.68813" lon="6.84854"></trkpt>
      <trkpt lat="51.69013" lon="6.83373"></trkpt>
      <trkpt lat="51.69344" lon="6.81811"></trkpt>
      <trkpt lat="51.69906" lon="6.80251"></trkpt>
      <trkpt lat="51.70246" lon="6.79034"></trkpt>
      <trkpt lat="51.70952" lon="6.7802"></trkpt>
      <trkpt lat="51.71403" lon="6.76672"></trkpt>
      <trkpt lat="51.71673" lon="6.74989"></trkpt>
      <trkpt lat="51.71678" lon="6.73399"></trkpt>
      <trkpt lat="51.71567" lon="6.7192"></trkpt>
      <trkpt lat="51.71979" lon="6.70596"></trkpt>
      <trkpt lat="51.72001" lon="6.69202"></trkpt>
      <trkpt lat="51.72421" lon="6.68135"></trkpt>
      <trkpt lat="51.72548" lon="6.67293"></trkpt>
      <trkpt lat="51.72473" lon="6.65872"></trkpt>
      <trkpt lat="51.72609" lon="6.64625"></trkpt>
      <trkpt lat="51.72568" lon="6.62988"></trkpt>
      <trkpt lat="51.72713" lon="6.61536"></trkpt>
      <trkpt lat="51.72938" lon="6.59915"></trkpt>
      <trkpt lat="51.73174" lon="6.58491"></trkpt>
      <trkpt lat="51.73609" lon="6.57015"></trkpt>
      <trkpt lat="51.74086" lon="6.55512"></trkpt>
      <trkpt lat="51.74599" lon="6.54214"></trkpt>
      <trkpt lat="51.75417" lon="6.53222"></trkpt>
      <trkpt lat="51.75879" lon="6.51844"></trkpt>
      <trkpt lat="51.75796" lon="6.50175"></trkpt>
      <trkpt lat="51.76259" lon="6.48861"></trkpt>
      <trkpt lat="51.76959" lon="6.47525"></trkpt>
      <trkpt lat="51.77441" lon="6.4605"></trkpt>
      <trkpt lat="51.77305" lon="6.44898"></trkpt>
      <trkpt lat="51.7763" lon="6.43207"></trkpt>
      <trkpt lat="51.77839" lon="6.4186"></trkpt>
      <trkpt lat="51.7829" lon="6.40631"></trkpt>
      <trkpt lat="51.7876" lon="6.39502"></trkpt>
      <trkpt lat="51.7961" lon="6.38459"></trkpt>
      <trkpt lat="51.79911" lon="6.36993"></trkpt>
      <trkpt lat="51.81054" lon="6.36463"></trkpt>
      <trkpt lat="51.81728" lon="6.35108"></trkpt>
      <trkpt lat="51.82288" lon="6.3356"></trkpt>
      <trkpt lat="51.8266" lon="6.31868"></trkpt>
      <trkpt lat="51.82688" lon="6.30068"></trkpt>
      <trkpt lat="51.82911" lon="6.28355"></trkpt>
      <trkpt lat="51.83174" lon="6.26929"></trkpt>
      <trkpt lat="51.83351" lon="6.25403"></trkpt>
      <trkpt lat="51.83348" lon="6.2479"></trkpt>
      <trkpt lat="51.83064" lon="6.24385"></trkpt>
      <trkpt lat="51.82972" lon="6.2425"></trkpt>
      <trkpt lat="51.82975" lon="6.24248"></trkpt>
      <trkpt lat="51.8307" lon="6.23555"></trkpt>
      <trkpt lat="51.8349" lon="6.23236"></trkpt>
      <trkpt lat="51.8309" lon="6.22899"></trkpt>
      <trkpt lat="51.83085" lon="6.22921"></trkpt>
    </trkseg>
  </trk>
  <trk>
    <name>День 8</name>
    <trkseg>
      <trkpt lat="51.83085" lon="6.22921"></trkpt>
      <trkpt lat="51.83259" lon="6.22724"></trkpt>
      <trkpt lat="51.83577" lon="6.2342"></trkpt>
      <trkpt lat="51.84066" lon="6.22654"></trkpt>
      <trkpt lat="51.84401" lon="6.21308"></trkpt>
      <trkpt lat="51.85043" lon="6.20176"></trkpt>
      <trkpt lat="51.85714" lon="6.1931"></trkpt>
      <trkpt lat="51.86185" lon="6.18066"></trkpt>
      <trkpt lat="51.86235" lon="6.16646"></trkpt>
      <trkpt lat="51.86802" lon="6.1599"></trkpt>
      <trkpt lat="51.87488" lon="6.15628"></trkpt>
      <trkpt lat="51.88447" lon="6.1529"></trkpt>
      <trkpt lat="51.89319" lon="6.14556"></trkpt>
      <trkpt lat="51.89865" lon="6.13679"></trkpt>
      <trkpt lat="51.90167" lon="6.12901"></trkpt>
      <trkpt lat="51.90521" lon="6.11722"></trkpt>
      <trkpt lat="51.91019" lon="6.10559"></trkpt>
      <trkpt lat="51.91604" lon="6.09393"></trkpt>
      <trkpt lat="51.92031" lon="6.08215"></trkpt>
      <trkpt lat="51.92547" lon="6.07504"></trkpt>
      <trkpt lat="51.92848" lon="6.07465"></trkpt>
      <trkpt lat="51.93443" lon="6.06632"></trkpt>
      <trkpt lat="51.93936" lon="6.05726"></trkpt>
      <trkpt lat="51.94313" lon="6.05889"></trkpt>
      <trkpt lat="51.94808" lon="6.05373"></trkpt>
      <trkpt lat="51.95207" lon="6.04142"></trkpt>
      <trkpt lat="51.95551" lon="6.03002"></trkpt>
      <trkpt lat="51.95059" lon="6.02635"></trkpt>
      <trkpt lat="51.94919" lon="6.02275"></trkpt>
      <trkpt lat="51.95041" lon="6.02283"></trkpt>
      <trkpt lat="51.95338" lon="6.0104"></trkpt>
      <trkpt lat="51.95704" lon="5.99795"></trkpt>
      <trkpt lat="51.96065" lon="5.98475"></trkpt>
      <trkpt lat="51.96396" lon="5.97302"></trkpt>
      <trkpt lat="51.96626" lon="5.96386"></trkpt>
      <trkpt lat="51.97225" lon="5.9543"></trkpt>
      <trkpt lat="51.97854" lon="5.94395"></trkpt>
      <trkpt lat="51.97853" lon="5.92845"></trkpt>
      <trkpt lat="51.97793" lon="5.9157"></trkpt>
      <trkpt lat="51.98224" lon="5.913"></trkpt>
      <trkpt lat="51.98432" lon="5.90577"></trkpt>
      <trkpt lat="51.98626" lon="5.89856"></trkpt>
      <trkpt lat="51.98952" lon="5.89024"></trkpt>
      <trkpt lat="51.99249" lon="5.88061"></trkpt>
      <trkpt lat="51.99644" lon="5.87161"></trkpt>
      <trkpt lat="52.00247" lon="5.85852"></trkpt>
      <trkpt lat="52.00798" lon="5.84197"></trkpt>
      <trkpt lat="52.01177" lon="5.82966"></trkpt>
      <trkpt lat="52.01574" lon="5.81672"></trkpt>
      <trkpt lat="52.02023" lon="5.80572"></trkpt>
      <trkpt lat="52.02468" lon="5.79837"></trkpt>
      <trkpt lat="52.03108" lon="5.78647"></trkpt>
      <trkpt lat="52.03419" lon="5.77186"></trkpt>
      <trkpt lat="52.03565" lon="5.7556"></trkpt>
      <trkpt lat="52.03688" lon="5.73968"></trkpt>
      <trkpt lat="52.03816" lon="5.72596"></trkpt>
      <trkpt lat="52.03924" lon="5.71511"></trkpt>
      <trkpt lat="52.04054" lon="5.70198"></trkpt>
      <trkpt lat="52.04159" lon="5.69185"></trkpt>
      <trkpt lat="52.04301" lon="5.67643"></trkpt>
      <trkpt lat="52.04637" lon="5.66995"></trkpt>
      <trkpt lat="52.04638" lon="5.67119"></trkpt>
      <trkpt lat="52.04717" lon="5.66993"></trkpt>
      <trkpt lat="52.04663" lon="5.65582"></trkpt>
      <trkpt lat="52.05047" lon="5.64876"></trkpt>
      <trkpt lat="52.04776" lon="5.63513"></trkpt>
      <trkpt lat="52.04545" lon="5.62039"></trkpt>
      <trkpt lat="52.04595" lon="5.60779"></trkpt>
      <trkpt lat="52.04689" lon="5.59253"></trkpt>
      <trkpt lat="52.04778" lon="5.57816"></trkpt>
      <trkpt lat="52.05273" lon="5.56723"></trkpt>
      <trkpt lat="52.05984" lon="5.55833"></trkpt>
      <trkpt lat="52.06471" lon="5.55304"></trkpt>
      <trkpt lat="52.07151" lon="5.54666"></trkpt>
      <trkpt lat="52.07522" lon="5.53557"></trkpt>
      <trkpt lat="52.07626" lon="5.52188"></trkpt>
      <trkpt lat="52.07679" lon="5.50723"></trkpt>
      <trkpt lat="52.07876" lon="5.49489"></trkpt>
      <trkpt lat="52.07899" lon="5.48192"></trkpt>
      <trkpt lat="52.08123" lon="5.46878"></trkpt>
      <trkpt lat="52.08146" lon="5.45561"></trkpt>
      <trkpt lat="52.08567" lon="5.45123"></trkpt>
      <trkpt lat="52.09122" lon="5.44595"></trkpt>
      <trkpt lat="52.09769" lon="5.43811"></trkpt>
      <trkpt lat="52.10607" lon="5.43532"></trkpt>
      <trkpt lat="52.11471" lon="5.44109"></trkpt>
      <trkpt lat="52.12359" lon="5.44625"></trkpt>
      <trkpt lat="52.12809" lon="5.44087"></trkpt>
      <trkpt lat="52.12968" lon="5.42885"></trkpt>
      <trkpt lat="52.12946" lon="5.42871"></trkpt>
      <trkpt lat="52.13153" lon="5.42686"></trkpt>
      <trkpt lat="52.13298" lon="5.41613"></trkpt>
      <trkpt lat="52.13849" lon="5.41065"></trkpt>
      <trkpt lat="52.14594" lon="5.4042"></trkpt>
      <trkpt lat="52.15143" lon="5.39643"></trkpt>
      <trkpt lat="52.15138" lon="5.38652"></trkpt>
      <trkpt lat="52.1565" lon="5.38392"></trkpt>
      <trkpt lat="52.16169" lon="5.37351"></trkpt>
      <trkpt lat="52.16443" lon="5.36061"></trkpt>
      <trkpt lat="52.16427" lon="5.35002"></trkpt>
      <trkpt lat="52.16707" lon="5.33797"></trkpt>
      <trkpt lat="52.16924" lon="5.32573"></trkpt>
      <trkpt lat="52.1723" lon="5.31531"></trkpt>
      <trkpt lat="52.17681" lon="5.30811"></trkpt>
      <trkpt lat="52.1838" lon="5.30137"></trkpt>
      <trkpt lat="52.19063" lon="5.2955"></trkpt>
      <trkpt lat="52.19825" lon="5.29045"></trkpt>
      <trkpt lat="52.20613" lon="5.29077"></trkpt>
      <trkpt lat="52.21197" lon="5.29281"></trkpt>
      <trkpt lat="52.21162" lon="5.29055"></trkpt>
      <trkpt lat="52.21461" lon="5.28272"></trkpt>
      <trkpt lat="52.21902" lon="5.27111"></trkpt>
      <trkpt lat="52.22097" lon="5.25953"></trkpt>
      <trkpt lat="52.22476" lon="5.25581"></trkpt>
      <trkpt lat="52.23204" lon="5.25882"></trkpt>
      <trkpt lat="52.24127" lon="5.26264"></trkpt>
      <trkpt lat="52.24625" lon="5.25997"></trkpt>
      <trkpt lat="52.24993" lon="5.25345"></trkpt>
      <trkpt lat="52.25357" lon="5.24592"></trkpt>
      <trkpt lat="52.2557" lon="5.23426"></trkpt>
      <trkpt lat="52.25703" lon="5.22464"></trkpt>
      <trkpt lat="52.26371" lon="5.23129"></trkpt>
      <trkpt lat="52.27083" lon="5.23904"></trkpt>
      <trkpt lat="52.27649" lon="5.24034"></trkpt>
      <trkpt lat="52.28495" lon="5.23969"></trkpt>
      <trkpt lat="52.29266" lon="5.24092"></trkpt>
      <trkpt lat="52.29743" lon="5.23849"></trkpt>
      <trkpt lat="52.29651" lon="5.22657"></trkpt>
      <trkpt lat="52.29554" lon="5.21204"></trkpt>
      <trkpt lat="52.29345" lon="5.19478"></trkpt>
      <trkpt lat="52.29258" lon="5.17964"></trkpt>
      <trkpt lat="52.29243" lon="5.16637"></trkpt>
      <trkpt lat="52.29033" lon="5.15354"></trkpt>
      <trkpt lat="52.29649" lon="5.14482"></trkpt>
      <trkpt lat="52.30524" lon="5.13696"></trkpt>
      <trkpt lat="52.31044" lon="5.12098"></trkpt>
      <trkpt lat="52.31637" lon="5.10786"></trkpt>
      <trkpt lat="52.3213" lon="5.0946"></trkpt>
      <trkpt lat="52.32634" lon="5.08068"></trkpt>
      <trkpt lat="52.32995" lon="5.06946"></trkpt>
      <trkpt lat="52.33138" lon="5.06113"></trkpt>
      <trkpt lat="52.33248" lon="5.04413"></trkpt>
      <trkpt lat="52.33261" lon="5.02707"></trkpt>
      <trkpt lat="52.3328" lon="5.01516"></trkpt>
      <trkpt lat="52.33546" lon="5.00125"></trkpt>
      <trkpt lat="52.33948" lon="4.98741"></trkpt>
      <trkpt lat="52.34657" lon="4.978"></trkpt>
      <trkpt lat="52.34436" lon="4.96655"></trkpt>
      <trkpt lat="52.34198" lon="4.96198"></trkpt>
      <trkpt lat="52.34147" lon="4.96425"></trkpt>
      <trkpt lat="52.34089" lon="4.9702"></trkpt>
    </trkseg>
  </trk>
</gpx>
