<?xml version="1.0" encoding="UTF-8"?>
<gpx version="1.1" creator="bike-reports.velotrips" xmlns="http://www.opengis.net/gpx/1.1">
  <trk>
    <name>День 1</name>
    <trkseg>
      <trkpt lat="56.9496" lon="24.1052"></trkpt>
      <trkpt lat="56.9686" lon="23.7729"></trkpt>
      <trkpt lat="57.02" lon="23.61"></trkpt>
      <trkpt lat="57.0745" lon="23.493"></trkpt>
      <trkpt lat="57.09" lon="23.47"></trkpt>
    </trkseg>
  </trk>
  <trk>
    <name>День 2</name>
    <trkseg>
      <trkpt lat="57.09" lon="23.47"></trkpt>
      <trkpt lat="57.1631" lon="23.2394"></trkpt>
      <trkpt lat="57.3327" lon="23.1198"></trkpt>
      <trkpt lat="57.5044" lon="22.8087"></trkpt>
    </trkseg>
  </trk>
  <trk>
    <name>День 3</name>
    <trkseg>
      <trkpt lat="57.5044" lon="22.8087"></trkpt>
      <trkpt lat="57.65" lon="22.65"></trkpt>
      <trkpt lat="57.7548" lon="22.5975"></trkpt>
      <trkpt lat="57.6967" lon="22.4419"></trkpt>
    </trkseg>
  </trk>
  <trk>
    <name>День 4</name>
    <trkseg>
      <trkpt lat="57.6967" lon="22.4419"></trkpt>
      <trkpt lat="57.55" lon="22.15"></trkpt>
      <trkpt lat="57.4108" lon="21.9328"></trkpt>
      <trkpt lat="57.3894" lon="21.5606"></trkpt>
    </trkseg>
  </trk>
</gpx>
