<?xml version="1.0" encoding="UTF-8"?>
<gpx version="1.1" creator="bike-reports.velotrips" xmlns="http://www.opengis.net/gpx/1.1">
  <trk>
    <name>День 1</name>
    <trkseg>
      <trkpt lat="43.66563" lon="7.21145"></trkpt>
      <trkpt lat="43.66558" lon="7.21187"></trkpt>
      <trkpt lat="43.66624" lon="7.21162"></trkpt>
      <trkpt lat="43.66657" lon="7.21542"></trkpt>
      <trkpt lat="43.66701" lon="7.21776"></trkpt>
      <trkpt lat="43.66995" lon="7.22284"></trkpt>
      <trkpt lat="43.67313" lon="7.22674"></trkpt>
      <trkpt lat="43.67475" lon="7.22783"></trkpt>
      <trkpt lat="43.67522" lon="7.22726"></trkpt>
      <trkpt lat="43.67368" lon="7.22598"></trkpt>
      <trkpt lat="43.67279" lon="7.22456"></trkpt>
      <trkpt lat="43.67166" lon="7.22448"></trkpt>
      <trkpt lat="43.67028" lon="7.22278"></trkpt>
      <trkpt lat="43.66984" lon="7.22212"></trkpt>
      <trkpt lat="43.66883" lon="7.22116"></trkpt>
      <trkpt lat="43.67247" lon="7.22625"></trkpt>
      <trkpt lat="43.67556" lon="7.22853"></trkpt>
      <trkpt lat="43.67719" lon="7.22912"></trkpt>
      <trkpt lat="43.68095" lon="7.23192"></trkpt>
      <trkpt lat="43.68467" lon="7.23596"></trkpt>
      <trkpt lat="43.68845" lon="7.2413"></trkpt>
      <trkpt lat="43.69314" lon="7.25378"></trkpt>
      <trkpt lat="43.69473" lon="7.26265"></trkpt>
      <trkpt lat="43.69487" lon="7.26851"></trkpt>
      <trkpt lat="43.6949" lon="7.27188"></trkpt>
      <trkpt lat="43.69501" lon="7.27449"></trkpt>
      <trkpt lat="43.69436" lon="7.27899"></trkpt>
      <trkpt lat="43.69369" lon="7.27938"></trkpt>
      <trkpt lat="43.6936" lon="7.28259"></trkpt>
      <trkpt lat="43.69613" lon="7.28362"></trkpt>
      <trkpt lat="43.69821" lon="7.28395"></trkpt>
      <trkpt lat="43.69843" lon="7.28642"></trkpt>
      <trkpt lat="43.69697" lon="7.28614"></trkpt>
      <trkpt lat="43.69544" lon="7.28595"></trkpt>
      <trkpt lat="43.69597" lon="7.286"></trkpt>
      <trkpt lat="43.6955" lon="7.28661"></trkpt>
      <trkpt lat="43.69422" lon="7.28745"></trkpt>
      <trkpt lat="43.69301" lon="7.29031"></trkpt>
      <trkpt lat="43.69161" lon="7.29134"></trkpt>
      <trkpt lat="43.69043" lon="7.29377"></trkpt>
      <trkpt lat="43.68835" lon="7.29455"></trkpt>
      <trkpt lat="43.68729" lon="7.29443"></trkpt>
      <trkpt lat="43.68655" lon="7.29554"></trkpt>
      <trkpt lat="43.68705" lon="7.29499"></trkpt>
      <trkpt lat="43.688" lon="7.29602"></trkpt>
      <trkpt lat="43.68718" lon="7.29982"></trkpt>
      <trkpt lat="43.68663" lon="7.30237"></trkpt>
      <trkpt lat="43.68654" lon="7.30524"></trkpt>
      <trkpt lat="43.68744" lon="7.30633"></trkpt>
      <trkpt lat="43.68738" lon="7.30634"></trkpt>
      <trkpt lat="43.6892" lon="7.3071"></trkpt>
      <trkpt lat="43.69149" lon="7.30714"></trkpt>
      <trkpt lat="43.69423" lon="7.30595"></trkpt>
      <trkpt lat="43.69778" lon="7.30462"></trkpt>
      <trkpt lat="43.70116" lon="7.30635"></trkpt>
      <trkpt lat="43.70251" lon="7.30871"></trkpt>
      <trkpt lat="43.70251" lon="7.30877"></trkpt>
      <trkpt lat="43.70346" lon="7.30986"></trkpt>
      <trkpt lat="43.70285" lon="7.31097"></trkpt>
      <trkpt lat="43.7024" lon="7.31137"></trkpt>
      <trkpt lat="43.70384" lon="7.3124"></trkpt>
      <trkpt lat="43.70534" lon="7.31303"></trkpt>
      <trkpt lat="43.70644" lon="7.31365"></trkpt>
      <trkpt lat="43.70688" lon="7.31523"></trkpt>
      <trkpt lat="43.70686" lon="7.31465"></trkpt>
      <trkpt lat="43.70694" lon="7.31492"></trkpt>
      <trkpt lat="43.70676" lon="7.3144"></trkpt>
      <trkpt lat="43.70624" lon="7.31843"></trkpt>
      <trkpt lat="43.70442" lon="7.32067"></trkpt>
      <trkpt lat="43.70395" lon="7.32113"></trkpt>
      <trkpt lat="43.70202" lon="7.32305"></trkpt>
      <trkpt lat="43.70138" lon="7.3265"></trkpt>
      <trkpt lat="43.70333" lon="7.33016"></trkpt>
      <trkpt lat="43.70472" lon="7.33301"></trkpt>
      <trkpt lat="43.70609" lon="7.33504"></trkpt>
      <trkpt lat="43.708" lon="7.33457"></trkpt>
      <trkpt lat="43.7106" lon="7.33548"></trkpt>
      <trkpt lat="43.7123" lon="7.33673"></trkpt>
      <trkpt lat="43.71347" lon="7.33967"></trkpt>
      <trkpt lat="43.71422" lon="7.34528"></trkpt>
      <trkpt lat="43.71476" lon="7.34895"></trkpt>
      <trkpt lat="43.71554" lon="7.35103"></trkpt>
      <trkpt lat="43.7173" lon="7.34922"></trkpt>
      <trkpt lat="43.71953" lon="7.35206"></trkpt>
      <trkpt lat="43.72158" lon="7.35541"></trkpt>
      <trkpt lat="43.72292" lon="7.35866"></trkpt>
      <trkpt lat="43.72283" lon="7.36333"></trkpt>
      <trkpt lat="43.72148" lon="7.36669"></trkpt>
      <trkpt lat="43.72025" lon="7.36937"></trkpt>
      <trkpt lat="43.7188" lon="7.37229"></trkpt>
      <trkpt lat="43.71984" lon="7.37604"></trkpt>
      <trkpt lat="43.72028" lon="7.37645"></trkpt>
      <trkpt lat="43.72087" lon="7.37746"></trkpt>
      <trkpt lat="43.72235" lon="7.37986"></trkpt>
      <trkpt lat="43.72428" lon="7.37995"></trkpt>
      <trkpt lat="43.72522" lon="7.38129"></trkpt>
      <trkpt lat="43.7233" lon="7.38334"></trkpt>
      <trkpt lat="43.72385" lon="7.38588"></trkpt>
      <trkpt lat="43.72363" lon="7.38868"></trkpt>
      <trkpt lat="43.72322" lon="7.39276"></trkpt>
      <trkpt lat="43.72311" lon="7.39607"></trkpt>
      <trkpt lat="43.72274" lon="7.3976"></trkpt>
      <trkpt lat="43.72197" lon="7.39981"></trkpt>
      <trkpt lat="43.72202" lon="7.39846"></trkpt>
      <trkpt lat="43.72328" lon="7.39631"></trkpt>
      <trkpt lat="43.72317" lon="7.39651"></trkpt>
      <trkpt lat="43.72192" lon="7.39862"></trkpt>
      <trkpt lat="43.72208" lon="7.4024"></trkpt>
      <trkpt lat="43.72259" lon="7.40669"></trkpt>
      <trkpt lat="43.72401" lon="7.40878"></trkpt>
      <trkpt lat="43.7254" lon="7.40971"></trkpt>
      <trkpt lat="43.72601" lon="7.41077"></trkpt>
      <trkpt lat="43.72713" lon="7.41141"></trkpt>
      <trkpt lat="43.72952" lon="7.41344"></trkpt>
      <trkpt lat="43.73149" lon="7.41715"></trkpt>
      <trkpt lat="43.7322" lon="7.41842"></trkpt>
      <trkpt lat="43.73215" lon="7.42033"></trkpt>
      <trkpt lat="43.73242" lon="7.42271"></trkpt>
      <trkpt lat="43.73438" lon="7.42148"></trkpt>
      <trkpt lat="43.73609" lon="7.42143"></trkpt>
      <trkpt lat="43.7361" lon="7.42155"></trkpt>
      <trkpt lat="43.73658" lon="7.42072"></trkpt>
      <trkpt lat="43.73537" lon="7.41955"></trkpt>
      <trkpt lat="43.73451" lon="7.4187"></trkpt>
      <trkpt lat="43.73808" lon="7.42047"></trkpt>
      <trkpt lat="43.73834" lon="7.41918"></trkpt>
      <trkpt lat="43.73712" lon="7.41949"></trkpt>
      <trkpt lat="43.73674" lon="7.41761"></trkpt>
      <trkpt lat="43.7358" lon="7.41705"></trkpt>
      <trkpt lat="43.73569" lon="7.41659"></trkpt>
      <trkpt lat="43.73658" lon="7.41777"></trkpt>
      <trkpt lat="43.73701" lon="7.4195"></trkpt>
      <trkpt lat="43.73788" lon="7.41949"></trkpt>
      <trkpt lat="43.73871" lon="7.42033"></trkpt>
      <trkpt lat="43.73976" lon="7.42343"></trkpt>
      <trkpt lat="43.73996" lon="7.42437"></trkpt>
      <trkpt lat="43.74041" lon="7.42556"></trkpt>
      <trkpt lat="43.74013" lon="7.42604"></trkpt>
      <trkpt lat="43.74013" lon="7.42622"></trkpt>
      <trkpt lat="43.73987" lon="7.4266"></trkpt>
      <trkpt lat="43.73942" lon="7.42697"></trkpt>
      <trkpt lat="43.73931" lon="7.42778"></trkpt>
      <trkpt lat="43.74009" lon="7.42748"></trkpt>
      <trkpt lat="43.74015" lon="7.42661"></trkpt>
      <trkpt lat="43.74026" lon="7.42581"></trkpt>
      <trkpt lat="43.74029" lon="7.4255"></trkpt>
      <trkpt lat="43.74083" lon="7.42479"></trkpt>
      <trkpt lat="43.73977" lon="7.42437"></trkpt>
      <trkpt lat="43.73953" lon="7.42234"></trkpt>
      <trkpt lat="43.73872" lon="7.41958"></trkpt>
      <trkpt lat="43.73791" lon="7.41991"></trkpt>
    </trkseg>
  </trk>
  <trk>
    <name>День 2</name>
    <trkseg>
      <trkpt lat="43.67177" lon="7.22555"></trkpt>
      <trkpt lat="43.6733" lon="7.22682"></trkpt>
      <trkpt lat="43.67453" lon="7.22784"></trkpt>
      <trkpt lat="43.67646" lon="7.22905"></trkpt>
      <trkpt lat="43.67821" lon="7.22981"></trkpt>
      <trkpt lat="43.67897" lon="7.23044"></trkpt>
      <trkpt lat="43.681" lon="7.23195"></trkpt>
      <trkpt lat="43.68303" lon="7.23411"></trkpt>
      <trkpt lat="43.68529" lon="7.23667"></trkpt>
      <trkpt lat="43.68817" lon="7.24073"></trkpt>
      <trkpt lat="43.68933" lon="7.24372"></trkpt>
      <trkpt lat="43.68953" lon="7.24332"></trkpt>
      <trkpt lat="43.69079" lon="7.24635"></trkpt>
      <trkpt lat="43.6918" lon="7.24946"></trkpt>
      <trkpt lat="43.69286" lon="7.25305"></trkpt>
      <trkpt lat="43.69368" lon="7.25648"></trkpt>
      <trkpt lat="43.6943" lon="7.25835"></trkpt>
      <trkpt lat="43.69568" lon="7.2596"></trkpt>
      <trkpt lat="43.69599" lon="7.26255"></trkpt>
      <trkpt lat="43.69648" lon="7.26379"></trkpt>
      <trkpt lat="43.69632" lon="7.26357"></trkpt>
      <trkpt lat="43.69672" lon="7.26482"></trkpt>
      <trkpt lat="43.69671" lon="7.26489"></trkpt>
      <trkpt lat="43.6973" lon="7.26626"></trkpt>
      <trkpt lat="43.69755" lon="7.26754"></trkpt>
      <trkpt lat="43.69774" lon="7.26872"></trkpt>
      <trkpt lat="43.69763" lon="7.26971"></trkpt>
      <trkpt lat="43.69715" lon="7.27149"></trkpt>
      <trkpt lat="43.69647" lon="7.27021"></trkpt>
      <trkpt lat="43.6965" lon="7.26895"></trkpt>
      <trkpt lat="43.69608" lon="7.26755"></trkpt>
      <trkpt lat="43.69635" lon="7.26684"></trkpt>
      <trkpt lat="43.69627" lon="7.26572"></trkpt>
      <trkpt lat="43.69674" lon="7.26494"></trkpt>
      <trkpt lat="43.69656" lon="7.2639"></trkpt>
      <trkpt lat="43.69632" lon="7.26461"></trkpt>
      <trkpt lat="43.69571" lon="7.26606"></trkpt>
      <trkpt lat="43.69605" lon="7.26699"></trkpt>
      <trkpt lat="43.697" lon="7.26928"></trkpt>
      <trkpt lat="43.69789" lon="7.27212"></trkpt>
      <trkpt lat="43.69867" lon="7.27532"></trkpt>
      <trkpt lat="43.70025" lon="7.27701"></trkpt>
      <trkpt lat="43.70264" lon="7.27875"></trkpt>
      <trkpt lat="43.70329" lon="7.27725"></trkpt>
      <trkpt lat="43.70398" lon="7.27512"></trkpt>
      <trkpt lat="43.70302" lon="7.27254"></trkpt>
      <trkpt lat="43.70184" lon="7.27042"></trkpt>
      <trkpt lat="43.70072" lon="7.26809"></trkpt>
      <trkpt lat="43.70078" lon="7.26579"></trkpt>
      <trkpt lat="43.70018" lon="7.26443"></trkpt>
      <trkpt lat="43.69927" lon="7.26286"></trkpt>
      <trkpt lat="43.6986" lon="7.25988"></trkpt>
      <trkpt lat="43.69775" lon="7.25685"></trkpt>
      <trkpt lat="43.69801" lon="7.25368"></trkpt>
      <trkpt lat="43.69783" lon="7.2512"></trkpt>
      <trkpt lat="43.69565" lon="7.25175"></trkpt>
      <trkpt lat="43.69383" lon="7.25164"></trkpt>
      <trkpt lat="43.69298" lon="7.24869"></trkpt>
      <trkpt lat="43.69229" lon="7.24707"></trkpt>
      <trkpt lat="43.69081" lon="7.24528"></trkpt>
      <trkpt lat="43.68881" lon="7.2411"></trkpt>
      <trkpt lat="43.68702" lon="7.23843"></trkpt>
      <trkpt lat="43.68446" lon="7.23537"></trkpt>
      <trkpt lat="43.68099" lon="7.23163"></trkpt>
      <trkpt lat="43.67703" lon="7.22876"></trkpt>
      <trkpt lat="43.67405" lon="7.22732"></trkpt>
      <trkpt lat="43.67102" lon="7.22421"></trkpt>
      <trkpt lat="43.66913" lon="7.22111"></trkpt>
      <trkpt lat="43.6702" lon="7.22245"></trkpt>
      <trkpt lat="43.66968" lon="7.22158"></trkpt>
      <trkpt lat="43.66879" lon="7.2206"></trkpt>
      <trkpt lat="43.6673" lon="7.21683"></trkpt>
      <trkpt lat="43.66683" lon="7.21346"></trkpt>
      <trkpt lat="43.66607" lon="7.20717"></trkpt>
      <trkpt lat="43.66201" lon="7.1945"></trkpt>
      <trkpt lat="43.65933" lon="7.18993"></trkpt>
      <trkpt lat="43.65796" lon="7.18636"></trkpt>
      <trkpt lat="43.65699" lon="7.18085"></trkpt>
      <trkpt lat="43.65719" lon="7.17269"></trkpt>
      <trkpt lat="43.65644" lon="7.16331"></trkpt>
      <trkpt lat="43.65352" lon="7.15606"></trkpt>
      <trkpt lat="43.64831" lon="7.14931"></trkpt>
      <trkpt lat="43.64387" lon="7.1448"></trkpt>
      <trkpt lat="43.64082" lon="7.14094"></trkpt>
      <trkpt lat="43.63877" lon="7.13861"></trkpt>
      <trkpt lat="43.63847" lon="7.1377"></trkpt>
      <trkpt lat="43.63703" lon="7.13913"></trkpt>
      <trkpt lat="43.63562" lon="7.13516"></trkpt>
      <trkpt lat="43.63162" lon="7.13497"></trkpt>
      <trkpt lat="43.62716" lon="7.1334"></trkpt>
      <trkpt lat="43.61686" lon="7.12904"></trkpt>
      <trkpt lat="43.61178" lon="7.12748"></trkpt>
      <trkpt lat="43.61136" lon="7.12692"></trkpt>
      <trkpt lat="43.60525" lon="7.12542"></trkpt>
      <trkpt lat="43.59589" lon="7.12534"></trkpt>
      <trkpt lat="43.59116" lon="7.12427"></trkpt>
      <trkpt lat="43.58841" lon="7.12175"></trkpt>
      <trkpt lat="43.58444" lon="7.12154"></trkpt>
      <trkpt lat="43.58414" lon="7.12461"></trkpt>
      <trkpt lat="43.58325" lon="7.12783"></trkpt>
      <trkpt lat="43.58248" lon="7.12854"></trkpt>
      <trkpt lat="43.58031" lon="7.12817"></trkpt>
      <trkpt lat="43.57797" lon="7.1262"></trkpt>
      <trkpt lat="43.57617" lon="7.12582"></trkpt>
      <trkpt lat="43.57468" lon="7.12402"></trkpt>
      <trkpt lat="43.57092" lon="7.12454"></trkpt>
      <trkpt lat="43.56942" lon="7.12138"></trkpt>
      <trkpt lat="43.56805" lon="7.11568"></trkpt>
      <trkpt lat="43.56798" lon="7.11349"></trkpt>
      <trkpt lat="43.56829" lon="7.11064"></trkpt>
      <trkpt lat="43.56943" lon="7.10761"></trkpt>
      <trkpt lat="43.57054" lon="7.10387"></trkpt>
      <trkpt lat="43.57132" lon="7.09781"></trkpt>
      <trkpt lat="43.56891" lon="7.08192"></trkpt>
      <trkpt lat="43.56651" lon="7.07704"></trkpt>
      <trkpt lat="43.56592" lon="7.07455"></trkpt>
      <trkpt lat="43.56374" lon="7.06929"></trkpt>
      <trkpt lat="43.56103" lon="7.06598"></trkpt>
      <trkpt lat="43.55259" lon="7.05831"></trkpt>
      <trkpt lat="43.54734" lon="7.05024"></trkpt>
      <trkpt lat="43.54734" lon="7.04492"></trkpt>
      <trkpt lat="43.54932" lon="7.035"></trkpt>
      <trkpt lat="43.55152" lon="7.02994"></trkpt>
      <trkpt lat="43.55427" lon="7.0192"></trkpt>
      <trkpt lat="43.55239" lon="7.0172"></trkpt>
      <trkpt lat="43.55161" lon="7.01751"></trkpt>
      <trkpt lat="43.55157" lon="7.0162"></trkpt>
      <trkpt lat="43.55179" lon="7.01426"></trkpt>
      <trkpt lat="43.55185" lon="7.01326"></trkpt>
      <trkpt lat="43.55161" lon="7.01245"></trkpt>
      <trkpt lat="43.55197" lon="7.01723"></trkpt>
      <trkpt lat="43.55145" lon="7.01725"></trkpt>
      <trkpt lat="43.55121" lon="7.01792"></trkpt>
      <trkpt lat="43.55062" lon="7.01893"></trkpt>
      <trkpt lat="43.55072" lon="7.01906"></trkpt>
      <trkpt lat="43.55039" lon="7.02115"></trkpt>
      <trkpt lat="43.55007" lon="7.02329"></trkpt>
      <trkpt lat="43.54886" lon="7.02754"></trkpt>
      <trkpt lat="43.54704" lon="7.03141"></trkpt>
      <trkpt lat="43.54686" lon="7.03157"></trkpt>
      <trkpt lat="43.54852" lon="7.02896"></trkpt>
      <trkpt lat="43.54985" lon="7.02569"></trkpt>
      <trkpt lat="43.55051" lon="7.02299"></trkpt>
      <trkpt lat="43.5521" lon="7.02299"></trkpt>
      <trkpt lat="43.5524" lon="7.02098"></trkpt>
      <trkpt lat="43.55322" lon="7.02047"></trkpt>
      <trkpt lat="43.55244" lon="7.0216"></trkpt>
      <trkpt lat="43.5508" lon="7.02122"></trkpt>
      <trkpt lat="43.54994" lon="7.024"></trkpt>
      <trkpt lat="43.54824" lon="7.02899"></trkpt>
      <trkpt lat="43.54674" lon="7.03165"></trkpt>
    </trkseg>
  </trk>
  <trk>
    <name>День 3</name>
    <trkseg>
      <trkpt lat="43.54676" lon="7.03172"></trkpt>
      <trkpt lat="43.54771" lon="7.03085"></trkpt>
      <trkpt lat="43.5482" lon="7.02999"></trkpt>
      <trkpt lat="43.54877" lon="7.02863"></trkpt>
      <trkpt lat="43.54916" lon="7.02747"></trkpt>
      <trkpt lat="43.54973" lon="7.02557"></trkpt>
      <trkpt lat="43.55021" lon="7.02371"></trkpt>
      <trkpt lat="43.55064" lon="7.02165"></trkpt>
      <trkpt lat="43.55087" lon="7.01959"></trkpt>
      <trkpt lat="43.55111" lon="7.01842"></trkpt>
      <trkpt lat="43.55163" lon="7.01621"></trkpt>
      <trkpt lat="43.55133" lon="7.01457"></trkpt>
      <trkpt lat="43.55054" lon="7.0121"></trkpt>
      <trkpt lat="43.54906" lon="7.0124"></trkpt>
      <trkpt lat="43.54859" lon="7.00921"></trkpt>
      <trkpt lat="43.54889" lon="7.00722"></trkpt>
      <trkpt lat="43.54915" lon="7.00389"></trkpt>
      <trkpt lat="43.54906" lon="6.99985"></trkpt>
      <trkpt lat="43.54917" lon="6.99366"></trkpt>
      <trkpt lat="43.54868" lon="6.98729"></trkpt>
      <trkpt lat="43.54702" lon="6.97694"></trkpt>
      <trkpt lat="43.54458" lon="6.96846"></trkpt>
      <trkpt lat="43.54193" lon="6.96161"></trkpt>
      <trkpt lat="43.5378" lon="6.95486"></trkpt>
      <trkpt lat="43.53478" lon="6.95159"></trkpt>
      <trkpt lat="43.53447" lon="6.95149"></trkpt>
      <trkpt lat="43.53345" lon="6.95007"></trkpt>
      <trkpt lat="43.53102" lon="6.94769"></trkpt>
      <trkpt lat="43.52716" lon="6.9455"></trkpt>
      <trkpt lat="43.52415" lon="6.94237"></trkpt>
      <trkpt lat="43.52255" lon="6.94053"></trkpt>
      <trkpt lat="43.52131" lon="6.93998"></trkpt>
      <trkpt lat="43.51864" lon="6.93929"></trkpt>
      <trkpt lat="43.51797" lon="6.93588"></trkpt>
      <trkpt lat="43.51652" lon="6.93645"></trkpt>
      <trkpt lat="43.51578" lon="6.93765"></trkpt>
      <trkpt lat="43.51259" lon="6.93686"></trkpt>
      <trkpt lat="43.51055" lon="6.9368"></trkpt>
      <trkpt lat="43.50873" lon="6.93753"></trkpt>
      <trkpt lat="43.50776" lon="6.93949"></trkpt>
      <trkpt lat="43.50701" lon="6.94194"></trkpt>
      <trkpt lat="43.50568" lon="6.9402"></trkpt>
      <trkpt lat="43.50411" lon="6.93847"></trkpt>
      <trkpt lat="43.50472" lon="6.93951"></trkpt>
      <trkpt lat="43.50553" lon="6.94072"></trkpt>
      <trkpt lat="43.50617" lon="6.94252"></trkpt>
      <trkpt lat="43.50554" lon="6.94539"></trkpt>
      <trkpt lat="43.50527" lon="6.94662"></trkpt>
      <trkpt lat="43.50539" lon="6.94774"></trkpt>
      <trkpt lat="43.5049" lon="6.95033"></trkpt>
      <trkpt lat="43.50456" lon="6.95277"></trkpt>
      <trkpt lat="43.50374" lon="6.95345"></trkpt>
      <trkpt lat="43.50254" lon="6.95287"></trkpt>
      <trkpt lat="43.5003" lon="6.95217"></trkpt>
      <trkpt lat="43.49875" lon="6.94985"></trkpt>
      <trkpt lat="43.49641" lon="6.9463"></trkpt>
      <trkpt lat="43.49504" lon="6.945"></trkpt>
      <trkpt lat="43.49239" lon="6.94466"></trkpt>
      <trkpt lat="43.49045" lon="6.94238"></trkpt>
      <trkpt lat="43.48845" lon="6.94424"></trkpt>
      <trkpt lat="43.48705" lon="6.947"></trkpt>
      <trkpt lat="43.48635" lon="6.94453"></trkpt>
      <trkpt lat="43.48676" lon="6.94077"></trkpt>
      <trkpt lat="43.48766" lon="6.93752"></trkpt>
      <trkpt lat="43.48531" lon="6.93673"></trkpt>
      <trkpt lat="43.4849" lon="6.93297"></trkpt>
      <trkpt lat="43.48394" lon="6.92993"></trkpt>
      <trkpt lat="43.48226" lon="6.93071"></trkpt>
      <trkpt lat="43.48032" lon="6.92995"></trkpt>
      <trkpt lat="43.47875" lon="6.92988"></trkpt>
      <trkpt lat="43.47838" lon="6.93059"></trkpt>
      <trkpt lat="43.47761" lon="6.93113"></trkpt>
      <trkpt lat="43.47647" lon="6.92877"></trkpt>
      <trkpt lat="43.47485" lon="6.92774"></trkpt>
      <trkpt lat="43.47418" lon="6.92469"></trkpt>
      <trkpt lat="43.47084" lon="6.92279"></trkpt>
      <trkpt lat="43.46848" lon="6.92344"></trkpt>
      <trkpt lat="43.46716" lon="6.92353"></trkpt>
      <trkpt lat="43.46323" lon="6.92243"></trkpt>
      <trkpt lat="43.4614" lon="6.92144"></trkpt>
      <trkpt lat="43.4596" lon="6.92119"></trkpt>
      <trkpt lat="43.45736" lon="6.91949"></trkpt>
      <trkpt lat="43.45405" lon="6.92038"></trkpt>
      <trkpt lat="43.451" lon="6.91891"></trkpt>
      <trkpt lat="43.44989" lon="6.91642"></trkpt>
      <trkpt lat="43.4484" lon="6.91353"></trkpt>
      <trkpt lat="43.44798" lon="6.9117"></trkpt>
      <trkpt lat="43.44638" lon="6.90765"></trkpt>
      <trkpt lat="43.44592" lon="6.90447"></trkpt>
      <trkpt lat="43.44466" lon="6.90345"></trkpt>
      <trkpt lat="43.44293" lon="6.89957"></trkpt>
      <trkpt lat="43.44086" lon="6.89874"></trkpt>
      <trkpt lat="43.43946" lon="6.89662"></trkpt>
      <trkpt lat="43.43804" lon="6.89439"></trkpt>
      <trkpt lat="43.43783" lon="6.89242"></trkpt>
      <trkpt lat="43.43711" lon="6.89198"></trkpt>
      <trkpt lat="43.43471" lon="6.89347"></trkpt>
      <trkpt lat="43.434" lon="6.89437"></trkpt>
      <trkpt lat="43.43013" lon="6.89253"></trkpt>
      <trkpt lat="43.42906" lon="6.88826"></trkpt>
      <trkpt lat="43.42887" lon="6.8849"></trkpt>
      <trkpt lat="43.42843" lon="6.88108"></trkpt>
      <trkpt lat="43.42702" lon="6.87784"></trkpt>
      <trkpt lat="43.4271" lon="6.8734"></trkpt>
      <trkpt lat="43.42658" lon="6.87114"></trkpt>
      <trkpt lat="43.42925" lon="6.87139"></trkpt>
      <trkpt lat="43.4322" lon="6.86933"></trkpt>
      <trkpt lat="43.43436" lon="6.86402"></trkpt>
      <trkpt lat="43.43363" lon="6.85931"></trkpt>
      <trkpt lat="43.43308" lon="6.85772"></trkpt>
      <trkpt lat="43.43191" lon="6.85713"></trkpt>
      <trkpt lat="43.42825" lon="6.85699"></trkpt>
      <trkpt lat="43.42677" lon="6.85792"></trkpt>
      <trkpt lat="43.42472" lon="6.85585"></trkpt>
      <trkpt lat="43.42215" lon="6.85726"></trkpt>
      <trkpt lat="43.42018" lon="6.85551"></trkpt>
      <trkpt lat="43.4193" lon="6.85237"></trkpt>
      <trkpt lat="43.41834" lon="6.84897"></trkpt>
      <trkpt lat="43.41777" lon="6.84415"></trkpt>
      <trkpt lat="43.41706" lon="6.837"></trkpt>
      <trkpt lat="43.41805" lon="6.83172"></trkpt>
      <trkpt lat="43.41875" lon="6.82841"></trkpt>
      <trkpt lat="43.41777" lon="6.82403"></trkpt>
      <trkpt lat="43.41716" lon="6.82042"></trkpt>
      <trkpt lat="43.41631" lon="6.81456"></trkpt>
      <trkpt lat="43.4153" lon="6.81096"></trkpt>
      <trkpt lat="43.41477" lon="6.80518"></trkpt>
      <trkpt lat="43.41443" lon="6.8015"></trkpt>
      <trkpt lat="43.41426" lon="6.79622"></trkpt>
      <trkpt lat="43.41297" lon="6.79176"></trkpt>
      <trkpt lat="43.41174" lon="6.7885"></trkpt>
      <trkpt lat="43.41162" lon="6.78528"></trkpt>
      <trkpt lat="43.41336" lon="6.78213"></trkpt>
      <trkpt lat="43.41544" lon="6.77877"></trkpt>
      <trkpt lat="43.41684" lon="6.77634"></trkpt>
      <trkpt lat="43.41829" lon="6.77463"></trkpt>
      <trkpt lat="43.41889" lon="6.77375"></trkpt>
      <trkpt lat="43.41951" lon="6.77106"></trkpt>
      <trkpt lat="43.42012" lon="6.77024"></trkpt>
      <trkpt lat="43.42218" lon="6.76926"></trkpt>
      <trkpt lat="43.4221" lon="6.7695"></trkpt>
      <trkpt lat="43.42323" lon="6.76922"></trkpt>
      <trkpt lat="43.42419" lon="6.76638"></trkpt>
      <trkpt lat="43.42478" lon="6.76613"></trkpt>
      <trkpt lat="43.42476" lon="6.76622"></trkpt>
      <trkpt lat="43.42469" lon="6.76741"></trkpt>
      <trkpt lat="43.42388" lon="6.76649"></trkpt>
      <trkpt lat="43.42387" lon="6.76738"></trkpt>
      <trkpt lat="43.42394" lon="6.76754"></trkpt>
      <trkpt lat="43.42395" lon="6.76757"></trkpt>
      <trkpt lat="43.42365" lon="6.76722"></trkpt>
    </trkseg>
  </trk>
  <trk>
    <name>День 4</name>
    <trkseg>
      <trkpt lat="43.4234" lon="6.75504"></trkpt>
      <trkpt lat="43.42251" lon="6.75316"></trkpt>
      <trkpt lat="43.42132" lon="6.7505"></trkpt>
      <trkpt lat="43.42177" lon="6.75001"></trkpt>
      <trkpt lat="43.42251" lon="6.74861"></trkpt>
      <trkpt lat="43.42345" lon="6.74822"></trkpt>
      <trkpt lat="43.42438" lon="6.74735"></trkpt>
      <trkpt lat="43.42343" lon="6.74602"></trkpt>
      <trkpt lat="43.42362" lon="6.74447"></trkpt>
      <trkpt lat="43.42251" lon="6.74441"></trkpt>
      <trkpt lat="43.42165" lon="6.74454"></trkpt>
      <trkpt lat="43.42187" lon="6.74291"></trkpt>
      <trkpt lat="43.42562" lon="6.73876"></trkpt>
      <trkpt lat="43.42487" lon="6.73575"></trkpt>
      <trkpt lat="43.42283" lon="6.73276"></trkpt>
      <trkpt lat="43.42097" lon="6.73031"></trkpt>
      <trkpt lat="43.4196" lon="6.72838"></trkpt>
      <trkpt lat="43.41504" lon="6.72679"></trkpt>
      <trkpt lat="43.41207" lon="6.72508"></trkpt>
      <trkpt lat="43.40955" lon="6.72412"></trkpt>
      <trkpt lat="43.40678" lon="6.72642"></trkpt>
      <trkpt lat="43.40321" lon="6.7296"></trkpt>
      <trkpt lat="43.39905" lon="6.72962"></trkpt>
      <trkpt lat="43.39365" lon="6.72802"></trkpt>
      <trkpt lat="43.39158" lon="6.7277"></trkpt>
      <trkpt lat="43.38962" lon="6.72542"></trkpt>
      <trkpt lat="43.38727" lon="6.7238"></trkpt>
      <trkpt lat="43.38468" lon="6.7222"></trkpt>
      <trkpt lat="43.38095" lon="6.72156"></trkpt>
      <trkpt lat="43.37804" lon="6.71967"></trkpt>
      <trkpt lat="43.37572" lon="6.71864"></trkpt>
      <trkpt lat="43.37295" lon="6.71577"></trkpt>
      <trkpt lat="43.37276" lon="6.71355"></trkpt>
      <trkpt lat="43.37076" lon="6.7134"></trkpt>
      <trkpt lat="43.3681" lon="6.7127"></trkpt>
      <trkpt lat="43.36305" lon="6.71449"></trkpt>
      <trkpt lat="43.35908" lon="6.71559"></trkpt>
      <trkpt lat="43.3585" lon="6.71696"></trkpt>
      <trkpt lat="43.35548" lon="6.71509"></trkpt>
      <trkpt lat="43.35194" lon="6.71249"></trkpt>
      <trkpt lat="43.34999" lon="6.71349"></trkpt>
      <trkpt lat="43.34775" lon="6.71517"></trkpt>
      <trkpt lat="43.34517" lon="6.70853"></trkpt>
      <trkpt lat="43.34487" lon="6.70419"></trkpt>
      <trkpt lat="43.34411" lon="6.70073"></trkpt>
      <trkpt lat="43.34271" lon="6.6978"></trkpt>
      <trkpt lat="43.34169" lon="6.69379"></trkpt>
      <trkpt lat="43.34211" lon="6.69178"></trkpt>
      <trkpt lat="43.34124" lon="6.68481"></trkpt>
      <trkpt lat="43.34121" lon="6.68049"></trkpt>
      <trkpt lat="43.33875" lon="6.67734"></trkpt>
      <trkpt lat="43.33768" lon="6.67408"></trkpt>
      <trkpt lat="43.33479" lon="6.67051"></trkpt>
      <trkpt lat="43.33094" lon="6.6683"></trkpt>
      <trkpt lat="43.32824" lon="6.66704"></trkpt>
      <trkpt lat="43.32578" lon="6.66528"></trkpt>
      <trkpt lat="43.32303" lon="6.66329"></trkpt>
      <trkpt lat="43.32048" lon="6.66448"></trkpt>
      <trkpt lat="43.31625" lon="6.66718"></trkpt>
      <trkpt lat="43.31369" lon="6.66945"></trkpt>
      <trkpt lat="43.31299" lon="6.66734"></trkpt>
      <trkpt lat="43.31384" lon="6.66415"></trkpt>
      <trkpt lat="43.31442" lon="6.66078"></trkpt>
      <trkpt lat="43.31356" lon="6.65791"></trkpt>
      <trkpt lat="43.31152" lon="6.6543"></trkpt>
      <trkpt lat="43.30764" lon="6.64712"></trkpt>
      <trkpt lat="43.30653" lon="6.64375"></trkpt>
      <trkpt lat="43.30732" lon="6.64031"></trkpt>
      <trkpt lat="43.30852" lon="6.63654"></trkpt>
      <trkpt lat="43.30624" lon="6.63269"></trkpt>
      <trkpt lat="43.30498" lon="6.62891"></trkpt>
      <trkpt lat="43.30063" lon="6.6254"></trkpt>
      <trkpt lat="43.29708" lon="6.6245"></trkpt>
      <trkpt lat="43.29648" lon="6.62015"></trkpt>
      <trkpt lat="43.2925" lon="6.6132"></trkpt>
      <trkpt lat="43.2902" lon="6.60812"></trkpt>
      <trkpt lat="43.28826" lon="6.60361"></trkpt>
      <trkpt lat="43.28519" lon="6.59725"></trkpt>
      <trkpt lat="43.28397" lon="6.59288"></trkpt>
      <trkpt lat="43.28172" lon="6.58441"></trkpt>
      <trkpt lat="43.28069" lon="6.58071"></trkpt>
      <trkpt lat="43.27918" lon="6.57721"></trkpt>
      <trkpt lat="43.27609" lon="6.57519"></trkpt>
      <trkpt lat="43.27405" lon="6.5746"></trkpt>
      <trkpt lat="43.27059" lon="6.57323"></trkpt>
      <trkpt lat="43.26972" lon="6.57347"></trkpt>
      <trkpt lat="43.26855" lon="6.57404"></trkpt>
      <trkpt lat="43.26642" lon="6.57498"></trkpt>
      <trkpt lat="43.26496" lon="6.57772"></trkpt>
      <trkpt lat="43.26425" lon="6.58205"></trkpt>
      <trkpt lat="43.26343" lon="6.58356"></trkpt>
      <trkpt lat="43.26312" lon="6.5863"></trkpt>
      <trkpt lat="43.26146" lon="6.58702"></trkpt>
      <trkpt lat="43.25982" lon="6.59046"></trkpt>
      <trkpt lat="43.26051" lon="6.59397"></trkpt>
      <trkpt lat="43.26239" lon="6.60181"></trkpt>
      <trkpt lat="43.26346" lon="6.6066"></trkpt>
      <trkpt lat="43.26381" lon="6.61112"></trkpt>
      <trkpt lat="43.26408" lon="6.6206"></trkpt>
      <trkpt lat="43.26517" lon="6.62486"></trkpt>
      <trkpt lat="43.26682" lon="6.62823"></trkpt>
      <trkpt lat="43.26769" lon="6.63098"></trkpt>
      <trkpt lat="43.26915" lon="6.63541"></trkpt>
      <trkpt lat="43.26945" lon="6.6377"></trkpt>
      <trkpt lat="43.26949" lon="6.63908"></trkpt>
      <trkpt lat="43.27001" lon="6.64068"></trkpt>
      <trkpt lat="43.26987" lon="6.64094"></trkpt>
      <trkpt lat="43.27002" lon="6.64169"></trkpt>
      <trkpt lat="43.27003" lon="6.64168"></trkpt>
      <trkpt lat="43.27015" lon="6.64203"></trkpt>
      <trkpt lat="43.26974" lon="6.64302"></trkpt>
      <trkpt lat="43.26933" lon="6.64415"></trkpt>
      <trkpt lat="43.26952" lon="6.64331"></trkpt>
      <trkpt lat="43.2701" lon="6.64207"></trkpt>
      <trkpt lat="43.27044" lon="6.64137"></trkpt>
      <trkpt lat="43.27145" lon="6.64046"></trkpt>
      <trkpt lat="43.27251" lon="6.63972"></trkpt>
      <trkpt lat="43.27318" lon="6.63954"></trkpt>
      <trkpt lat="43.27398" lon="6.63882"></trkpt>
      <trkpt lat="43.2739" lon="6.63884"></trkpt>
      <trkpt lat="43.27348" lon="6.63888"></trkpt>
      <trkpt lat="43.27405" lon="6.63875"></trkpt>
      <trkpt lat="43.27309" lon="6.63914"></trkpt>
      <trkpt lat="43.27245" lon="6.6396"></trkpt>
      <trkpt lat="43.27141" lon="6.64034"></trkpt>
      <trkpt lat="43.27039" lon="6.64155"></trkpt>
      <trkpt lat="43.27011" lon="6.64205"></trkpt>
      <trkpt lat="43.27116" lon="6.63974"></trkpt>
      <trkpt lat="43.27142" lon="6.63978"></trkpt>
      <trkpt lat="43.27181" lon="6.6397"></trkpt>
      <trkpt lat="43.27142" lon="6.63844"></trkpt>
      <trkpt lat="43.27105" lon="6.63746"></trkpt>
      <trkpt lat="43.27083" lon="6.6367"></trkpt>
      <trkpt lat="43.27082" lon="6.63611"></trkpt>
      <trkpt lat="43.2702" lon="6.63561"></trkpt>
      <trkpt lat="43.26962" lon="6.63658"></trkpt>
      <trkpt lat="43.26854" lon="6.63835"></trkpt>
      <trkpt lat="43.2668" lon="6.64075"></trkpt>
      <trkpt lat="43.26509" lon="6.64099"></trkpt>
      <trkpt lat="43.26311" lon="6.64147"></trkpt>
      <trkpt lat="43.26156" lon="6.64111"></trkpt>
      <trkpt lat="43.26016" lon="6.64266"></trkpt>
      <trkpt lat="43.25595" lon="6.64339"></trkpt>
      <trkpt lat="43.25124" lon="6.64445"></trkpt>
      <trkpt lat="43.24539" lon="6.64857"></trkpt>
      <trkpt lat="43.23923" lon="6.65008"></trkpt>
      <trkpt lat="43.23728" lon="6.64961"></trkpt>
      <trkpt lat="43.23755" lon="6.65055"></trkpt>
      <trkpt lat="43.23668" lon="6.65293"></trkpt>
      <trkpt lat="43.23426" lon="6.6567"></trkpt>
      <trkpt lat="43.2344" lon="6.65746"></trkpt>
    </trkseg>
  </trk>
  <trk>
    <name>День 5</name>
    <trkseg>
      <trkpt lat="43.23461" lon="6.65739"></trkpt>
      <trkpt lat="43.23524" lon="6.65519"></trkpt>
      <trkpt lat="43.23675" lon="6.65257"></trkpt>
      <trkpt lat="43.23576" lon="6.65041"></trkpt>
      <trkpt lat="43.23128" lon="6.65203"></trkpt>
      <trkpt lat="43.22908" lon="6.65342"></trkpt>
      <trkpt lat="43.22716" lon="6.66197"></trkpt>
      <trkpt lat="43.22876" lon="6.6555"></trkpt>
      <trkpt lat="43.22942" lon="6.65318"></trkpt>
      <trkpt lat="43.22892" lon="6.65134"></trkpt>
      <trkpt lat="43.22445" lon="6.64976"></trkpt>
      <trkpt lat="43.22037" lon="6.64819"></trkpt>
      <trkpt lat="43.2138" lon="6.64298"></trkpt>
      <trkpt lat="43.21152" lon="6.63709"></trkpt>
      <trkpt lat="43.20883" lon="6.64175"></trkpt>
      <trkpt lat="43.20618" lon="6.64433"></trkpt>
      <trkpt lat="43.20587" lon="6.64392"></trkpt>
      <trkpt lat="43.20563" lon="6.64305"></trkpt>
      <trkpt lat="43.20648" lon="6.64431"></trkpt>
      <trkpt lat="43.20889" lon="6.64204"></trkpt>
      <trkpt lat="43.21164" lon="6.63668"></trkpt>
      <trkpt lat="43.21207" lon="6.62655"></trkpt>
      <trkpt lat="43.21179" lon="6.62274"></trkpt>
      <trkpt lat="43.20537" lon="6.62191"></trkpt>
      <trkpt lat="43.2016" lon="6.61886"></trkpt>
      <trkpt lat="43.20197" lon="6.61346"></trkpt>
      <trkpt lat="43.20175" lon="6.61031"></trkpt>
      <trkpt lat="43.20087" lon="6.61036"></trkpt>
      <trkpt lat="43.19946" lon="6.60974"></trkpt>
      <trkpt lat="43.19736" lon="6.61023"></trkpt>
      <trkpt lat="43.19604" lon="6.60787"></trkpt>
      <trkpt lat="43.19735" lon="6.60351"></trkpt>
      <trkpt lat="43.19963" lon="6.60247"></trkpt>
      <trkpt lat="43.19921" lon="6.60083"></trkpt>
      <trkpt lat="43.19605" lon="6.60001"></trkpt>
      <trkpt lat="43.19476" lon="6.59823"></trkpt>
      <trkpt lat="43.19451" lon="6.59619"></trkpt>
      <trkpt lat="43.19354" lon="6.59536"></trkpt>
      <trkpt lat="43.19527" lon="6.59369"></trkpt>
      <trkpt lat="43.19779" lon="6.59269"></trkpt>
      <trkpt lat="43.19732" lon="6.58967"></trkpt>
      <trkpt lat="43.19598" lon="6.58795"></trkpt>
      <trkpt lat="43.19591" lon="6.58608"></trkpt>
      <trkpt lat="43.19418" lon="6.58509"></trkpt>
      <trkpt lat="43.19564" lon="6.58189"></trkpt>
      <trkpt lat="43.19501" lon="6.58047"></trkpt>
      <trkpt lat="43.19611" lon="6.57665"></trkpt>
      <trkpt lat="43.19861" lon="6.57678"></trkpt>
      <trkpt lat="43.20099" lon="6.57547"></trkpt>
      <trkpt lat="43.20357" lon="6.57544"></trkpt>
      <trkpt lat="43.20357" lon="6.57268"></trkpt>
      <trkpt lat="43.20499" lon="6.57134"></trkpt>
      <trkpt lat="43.20585" lon="6.56961"></trkpt>
      <trkpt lat="43.20677" lon="6.56851"></trkpt>
      <trkpt lat="43.20395" lon="6.563"></trkpt>
      <trkpt lat="43.19773" lon="6.56321"></trkpt>
      <trkpt lat="43.19203" lon="6.5569"></trkpt>
      <trkpt lat="43.18831" lon="6.54829"></trkpt>
      <trkpt lat="43.18386" lon="6.54241"></trkpt>
      <trkpt lat="43.1816" lon="6.53962"></trkpt>
      <trkpt lat="43.17938" lon="6.53595"></trkpt>
      <trkpt lat="43.17353" lon="6.53294"></trkpt>
      <trkpt lat="43.1725" lon="6.53143"></trkpt>
      <trkpt lat="43.17104" lon="6.52661"></trkpt>
      <trkpt lat="43.16781" lon="6.52196"></trkpt>
      <trkpt lat="43.16628" lon="6.51126"></trkpt>
      <trkpt lat="43.16642" lon="6.50795"></trkpt>
      <trkpt lat="43.16508" lon="6.50291"></trkpt>
      <trkpt lat="43.16474" lon="6.50054"></trkpt>
      <trkpt lat="43.16469" lon="6.50509"></trkpt>
      <trkpt lat="43.16246" lon="6.50268"></trkpt>
      <trkpt lat="43.16139" lon="6.50218"></trkpt>
      <trkpt lat="43.15955" lon="6.50043"></trkpt>
      <trkpt lat="43.15689" lon="6.49783"></trkpt>
      <trkpt lat="43.15537" lon="6.49708"></trkpt>
      <trkpt lat="43.15675" lon="6.49367"></trkpt>
      <trkpt lat="43.15763" lon="6.48831"></trkpt>
      <trkpt lat="43.15743" lon="6.48341"></trkpt>
      <trkpt lat="43.15945" lon="6.48203"></trkpt>
      <trkpt lat="43.15942" lon="6.48068"></trkpt>
      <trkpt lat="43.16061" lon="6.4782"></trkpt>
      <trkpt lat="43.15973" lon="6.47533"></trkpt>
      <trkpt lat="43.15676" lon="6.47274"></trkpt>
      <trkpt lat="43.15821" lon="6.46832"></trkpt>
      <trkpt lat="43.16115" lon="6.46752"></trkpt>
      <trkpt lat="43.16002" lon="6.46464"></trkpt>
      <trkpt lat="43.15806" lon="6.46026"></trkpt>
      <trkpt lat="43.15619" lon="6.45699"></trkpt>
      <trkpt lat="43.15584" lon="6.45268"></trkpt>
      <trkpt lat="43.15521" lon="6.44876"></trkpt>
      <trkpt lat="43.15493" lon="6.44593"></trkpt>
      <trkpt lat="43.15167" lon="6.444"></trkpt>
      <trkpt lat="43.15022" lon="6.44219"></trkpt>
      <trkpt lat="43.15058" lon="6.43851"></trkpt>
      <trkpt lat="43.15327" lon="6.43348"></trkpt>
      <trkpt lat="43.15225" lon="6.42703"></trkpt>
      <trkpt lat="43.15157" lon="6.42404"></trkpt>
      <trkpt lat="43.14908" lon="6.41973"></trkpt>
      <trkpt lat="43.1503" lon="6.41327"></trkpt>
      <trkpt lat="43.14924" lon="6.40877"></trkpt>
      <trkpt lat="43.14978" lon="6.40196"></trkpt>
      <trkpt lat="43.14794" lon="6.40023"></trkpt>
      <trkpt lat="43.14606" lon="6.39674"></trkpt>
      <trkpt lat="43.14548" lon="6.39274"></trkpt>
      <trkpt lat="43.14529" lon="6.38611"></trkpt>
      <trkpt lat="43.14391" lon="6.37915"></trkpt>
      <trkpt lat="43.14021" lon="6.37978"></trkpt>
      <trkpt lat="43.13853" lon="6.37717"></trkpt>
      <trkpt lat="43.13878" lon="6.37358"></trkpt>
      <trkpt lat="43.1384" lon="6.36792"></trkpt>
      <trkpt lat="43.13741" lon="6.36524"></trkpt>
      <trkpt lat="43.13672" lon="6.36572"></trkpt>
      <trkpt lat="43.13637" lon="6.36725"></trkpt>
      <trkpt lat="43.13739" lon="6.36837"></trkpt>
      <trkpt lat="43.13792" lon="6.37001"></trkpt>
      <trkpt lat="43.13779" lon="6.36915"></trkpt>
      <trkpt lat="43.13637" lon="6.36752"></trkpt>
      <trkpt lat="43.13738" lon="6.36829"></trkpt>
      <trkpt lat="43.13717" lon="6.36731"></trkpt>
      <trkpt lat="43.13666" lon="6.36738"></trkpt>
      <trkpt lat="43.13762" lon="6.36607"></trkpt>
      <trkpt lat="43.13798" lon="6.36169"></trkpt>
      <trkpt lat="43.13917" lon="6.35463"></trkpt>
      <trkpt lat="43.14004" lon="6.35126"></trkpt>
      <trkpt lat="43.14341" lon="6.34595"></trkpt>
      <trkpt lat="43.14421" lon="6.34099"></trkpt>
      <trkpt lat="43.14255" lon="6.33823"></trkpt>
      <trkpt lat="43.14238" lon="6.33389"></trkpt>
      <trkpt lat="43.14435" lon="6.32594"></trkpt>
      <trkpt lat="43.14687" lon="6.32051"></trkpt>
      <trkpt lat="43.15158" lon="6.31425"></trkpt>
      <trkpt lat="43.15136" lon="6.30891"></trkpt>
      <trkpt lat="43.1491" lon="6.29995"></trkpt>
      <trkpt lat="43.14987" lon="6.29582"></trkpt>
      <trkpt lat="43.14943" lon="6.29381"></trkpt>
      <trkpt lat="43.1469" lon="6.29278"></trkpt>
      <trkpt lat="43.14428" lon="6.29281"></trkpt>
      <trkpt lat="43.14246" lon="6.29099"></trkpt>
      <trkpt lat="43.14071" lon="6.28953"></trkpt>
      <trkpt lat="43.14049" lon="6.2896"></trkpt>
      <trkpt lat="43.1425" lon="6.29106"></trkpt>
      <trkpt lat="43.14472" lon="6.29267"></trkpt>
      <trkpt lat="43.14682" lon="6.29281"></trkpt>
      <trkpt lat="43.14942" lon="6.29385"></trkpt>
      <trkpt lat="43.14866" lon="6.30169"></trkpt>
      <trkpt lat="43.1511" lon="6.308"></trkpt>
      <trkpt lat="43.15416" lon="6.31154"></trkpt>
      <trkpt lat="43.15861" lon="6.31532"></trkpt>
      <trkpt lat="43.15984" lon="6.31777"></trkpt>
      <trkpt lat="43.16251" lon="6.32228"></trkpt>
      <trkpt lat="43.16193" lon="6.32163"></trkpt>
    </trkseg>
  </trk>
  <trk>
    <name>День 6</name>
    <trkseg>
      <trkpt lat="43.16239" lon="6.32273"></trkpt>
      <trkpt lat="43.16225" lon="6.32315"></trkpt>
      <trkpt lat="43.16" lon="6.31968"></trkpt>
      <trkpt lat="43.15861" lon="6.31503"></trkpt>
      <trkpt lat="43.15475" lon="6.31163"></trkpt>
      <trkpt lat="43.15198" lon="6.31164"></trkpt>
      <trkpt lat="43.15111" lon="6.30766"></trkpt>
      <trkpt lat="43.14899" lon="6.30279"></trkpt>
      <trkpt lat="43.14999" lon="6.29623"></trkpt>
      <trkpt lat="43.14969" lon="6.29317"></trkpt>
      <trkpt lat="43.14976" lon="6.29127"></trkpt>
      <trkpt lat="43.15069" lon="6.28739"></trkpt>
      <trkpt lat="43.14932" lon="6.27978"></trkpt>
      <trkpt lat="43.14842" lon="6.27291"></trkpt>
      <trkpt lat="43.14798" lon="6.26765"></trkpt>
      <trkpt lat="43.14671" lon="6.25918"></trkpt>
      <trkpt lat="43.1451" lon="6.25508"></trkpt>
      <trkpt lat="43.14404" lon="6.24991"></trkpt>
      <trkpt lat="43.14259" lon="6.24701"></trkpt>
      <trkpt lat="43.1411" lon="6.24214"></trkpt>
      <trkpt lat="43.13928" lon="6.23855"></trkpt>
      <trkpt lat="43.13785" lon="6.23411"></trkpt>
      <trkpt lat="43.13682" lon="6.23109"></trkpt>
      <trkpt lat="43.13449" lon="6.22593"></trkpt>
      <trkpt lat="43.13285" lon="6.223"></trkpt>
      <trkpt lat="43.13001" lon="6.21813"></trkpt>
      <trkpt lat="43.12849" lon="6.21285"></trkpt>
      <trkpt lat="43.12696" lon="6.20514"></trkpt>
      <trkpt lat="43.12577" lon="6.20004"></trkpt>
      <trkpt lat="43.12545" lon="6.19715"></trkpt>
      <trkpt lat="43.12515" lon="6.19025"></trkpt>
      <trkpt lat="43.12584" lon="6.18988"></trkpt>
      <trkpt lat="43.12585" lon="6.19064"></trkpt>
      <trkpt lat="43.12571" lon="6.185"></trkpt>
      <trkpt lat="43.12538" lon="6.18011"></trkpt>
      <trkpt lat="43.12465" lon="6.1725"></trkpt>
      <trkpt lat="43.12113" lon="6.15702"></trkpt>
      <trkpt lat="43.11735" lon="6.14398"></trkpt>
      <trkpt lat="43.11579" lon="6.13881"></trkpt>
      <trkpt lat="43.11448" lon="6.13441"></trkpt>
      <trkpt lat="43.11376" lon="6.13057"></trkpt>
      <trkpt lat="43.11366" lon="6.12735"></trkpt>
      <trkpt lat="43.11373" lon="6.12367"></trkpt>
      <trkpt lat="43.11309" lon="6.1231"></trkpt>
      <trkpt lat="43.11182" lon="6.12274"></trkpt>
      <trkpt lat="43.11205" lon="6.1207"></trkpt>
      <trkpt lat="43.113" lon="6.11773"></trkpt>
      <trkpt lat="43.11221" lon="6.11377"></trkpt>
      <trkpt lat="43.11392" lon="6.10911"></trkpt>
      <trkpt lat="43.11357" lon="6.10131"></trkpt>
      <trkpt lat="43.11481" lon="6.09687"></trkpt>
      <trkpt lat="43.11704" lon="6.08902"></trkpt>
      <trkpt lat="43.11924" lon="6.07283"></trkpt>
      <trkpt lat="43.11894" lon="6.06983"></trkpt>
      <trkpt lat="43.11807" lon="6.06197"></trkpt>
      <trkpt lat="43.11438" lon="6.05594"></trkpt>
      <trkpt lat="43.11006" lon="6.04878"></trkpt>
      <trkpt lat="43.1089" lon="6.04591"></trkpt>
      <trkpt lat="43.10897" lon="6.03936"></trkpt>
      <trkpt lat="43.10865" lon="6.03516"></trkpt>
      <trkpt lat="43.10863" lon="6.03132"></trkpt>
      <trkpt lat="43.10868" lon="6.03146"></trkpt>
      <trkpt lat="43.10894" lon="6.03107"></trkpt>
      <trkpt lat="43.10863" lon="6.03146"></trkpt>
      <trkpt lat="43.10852" lon="6.03137"></trkpt>
      <trkpt lat="43.10777" lon="6.03066"></trkpt>
      <trkpt lat="43.10678" lon="6.02548"></trkpt>
      <trkpt lat="43.10646" lon="6.02243"></trkpt>
      <trkpt lat="43.10689" lon="6.01786"></trkpt>
      <trkpt lat="43.10834" lon="6.01275"></trkpt>
      <trkpt lat="43.10896" lon="6.00402"></trkpt>
      <trkpt lat="43.10987" lon="5.99865"></trkpt>
      <trkpt lat="43.11186" lon="5.9902"></trkpt>
      <trkpt lat="43.11505" lon="5.98373"></trkpt>
      <trkpt lat="43.11612" lon="5.97661"></trkpt>
      <trkpt lat="43.11759" lon="5.97171"></trkpt>
      <trkpt lat="43.12003" lon="5.96891"></trkpt>
      <trkpt lat="43.12231" lon="5.96736"></trkpt>
      <trkpt lat="43.12238" lon="5.96339"></trkpt>
      <trkpt lat="43.12191" lon="5.95577"></trkpt>
      <trkpt lat="43.11998" lon="5.94882"></trkpt>
      <trkpt lat="43.11649" lon="5.94316"></trkpt>
      <trkpt lat="43.11481" lon="5.9447"></trkpt>
      <trkpt lat="43.11307" lon="5.9486"></trkpt>
      <trkpt lat="43.11089" lon="5.95181"></trkpt>
      <trkpt lat="43.10863" lon="5.95325"></trkpt>
      <trkpt lat="43.10807" lon="5.9523"></trkpt>
      <trkpt lat="43.10683" lon="5.95178"></trkpt>
      <trkpt lat="43.10759" lon="5.94953"></trkpt>
      <trkpt lat="43.10717" lon="5.94998"></trkpt>
      <trkpt lat="43.10787" lon="5.94857"></trkpt>
      <trkpt lat="43.10774" lon="5.94602"></trkpt>
      <trkpt lat="43.10752" lon="5.94214"></trkpt>
      <trkpt lat="43.10895" lon="5.94049"></trkpt>
      <trkpt lat="43.11097" lon="5.9388"></trkpt>
      <trkpt lat="43.11292" lon="5.93939"></trkpt>
      <trkpt lat="43.11526" lon="5.93829"></trkpt>
      <trkpt lat="43.11789" lon="5.9367"></trkpt>
      <trkpt lat="43.11964" lon="5.93883"></trkpt>
      <trkpt lat="43.12119" lon="5.94057"></trkpt>
      <trkpt lat="43.12213" lon="5.93931"></trkpt>
      <trkpt lat="43.12365" lon="5.93735"></trkpt>
      <trkpt lat="43.12421" lon="5.93592"></trkpt>
      <trkpt lat="43.1249" lon="5.93285"></trkpt>
      <trkpt lat="43.12455" lon="5.93236"></trkpt>
      <trkpt lat="43.12393" lon="5.93195"></trkpt>
      <trkpt lat="43.12408" lon="5.93085"></trkpt>
      <trkpt lat="43.12336" lon="5.93052"></trkpt>
      <trkpt lat="43.12322" lon="5.93113"></trkpt>
      <trkpt lat="43.12363" lon="5.92985"></trkpt>
      <trkpt lat="43.12357" lon="5.92926"></trkpt>
      <trkpt lat="43.12459" lon="5.92625"></trkpt>
      <trkpt lat="43.12575" lon="5.92599"></trkpt>
      <trkpt lat="43.12679" lon="5.92322"></trkpt>
      <trkpt lat="43.1271" lon="5.92124"></trkpt>
      <trkpt lat="43.12759" lon="5.91802"></trkpt>
      <trkpt lat="43.12702" lon="5.90973"></trkpt>
      <trkpt lat="43.12871" lon="5.90329"></trkpt>
      <trkpt lat="43.12935" lon="5.89961"></trkpt>
      <trkpt lat="43.12856" lon="5.89159"></trkpt>
      <trkpt lat="43.12828" lon="5.88483"></trkpt>
      <trkpt lat="43.12885" lon="5.87798"></trkpt>
      <trkpt lat="43.13067" lon="5.87347"></trkpt>
      <trkpt lat="43.13141" lon="5.87074"></trkpt>
      <trkpt lat="43.13202" lon="5.86799"></trkpt>
      <trkpt lat="43.13318" lon="5.86324"></trkpt>
      <trkpt lat="43.13506" lon="5.85889"></trkpt>
      <trkpt lat="43.13498" lon="5.85302"></trkpt>
      <trkpt lat="43.13714" lon="5.85065"></trkpt>
      <trkpt lat="43.13677" lon="5.85069"></trkpt>
      <trkpt lat="43.13797" lon="5.84732"></trkpt>
      <trkpt lat="43.13527" lon="5.84672"></trkpt>
      <trkpt lat="43.13278" lon="5.84561"></trkpt>
      <trkpt lat="43.129" lon="5.84418"></trkpt>
      <trkpt lat="43.12688" lon="5.83911"></trkpt>
      <trkpt lat="43.12573" lon="5.83579"></trkpt>
      <trkpt lat="43.12533" lon="5.82294"></trkpt>
      <trkpt lat="43.12161" lon="5.81982"></trkpt>
      <trkpt lat="43.12064" lon="5.81466"></trkpt>
      <trkpt lat="43.11921" lon="5.81065"></trkpt>
      <trkpt lat="43.12154" lon="5.80535"></trkpt>
      <trkpt lat="43.12036" lon="5.80324"></trkpt>
      <trkpt lat="43.11833" lon="5.79704"></trkpt>
      <trkpt lat="43.11628" lon="5.79435"></trkpt>
      <trkpt lat="43.11669" lon="5.78813"></trkpt>
      <trkpt lat="43.11644" lon="5.78476"></trkpt>
      <trkpt lat="43.11688" lon="5.78224"></trkpt>
      <trkpt lat="43.1173" lon="5.77956"></trkpt>
      <trkpt lat="43.11876" lon="5.77778"></trkpt>
      <trkpt lat="43.11811" lon="5.7791"></trkpt>
      <trkpt lat="43.11721" lon="5.78088"></trkpt>
    </trkseg>
  </trk>
  <trk>
    <name>День 7 (сегмент 1)</name>
    <trkseg>
      <trkpt lat="43.11655" lon="5.77919"></trkpt>
      <trkpt lat="43.11738" lon="5.77821"></trkpt>
      <trkpt lat="43.11949" lon="5.77657"></trkpt>
      <trkpt lat="43.1202" lon="5.77682"></trkpt>
      <trkpt lat="43.12419" lon="5.77624"></trkpt>
      <trkpt lat="43.12777" lon="5.77749"></trkpt>
      <trkpt lat="43.12851" lon="5.77918"></trkpt>
      <trkpt lat="43.12912" lon="5.78303"></trkpt>
      <trkpt lat="43.13504" lon="5.77902"></trkpt>
      <trkpt lat="43.13945" lon="5.76864"></trkpt>
      <trkpt lat="43.13815" lon="5.7626"></trkpt>
      <trkpt lat="43.13719" lon="5.75994"></trkpt>
      <trkpt lat="43.13573" lon="5.75436"></trkpt>
      <trkpt lat="43.13564" lon="5.75434"></trkpt>
      <trkpt lat="43.13775" lon="5.75221"></trkpt>
      <trkpt lat="43.13931" lon="5.75202"></trkpt>
      <trkpt lat="43.14087" lon="5.74922"></trkpt>
      <trkpt lat="43.14301" lon="5.74795"></trkpt>
      <trkpt lat="43.1441" lon="5.74763"></trkpt>
      <trkpt lat="43.14755" lon="5.74894"></trkpt>
      <trkpt lat="43.15035" lon="5.75016"></trkpt>
      <trkpt lat="43.15312" lon="5.74755"></trkpt>
      <trkpt lat="43.15516" lon="5.7427"></trkpt>
      <trkpt lat="43.15872" lon="5.73553"></trkpt>
      <trkpt lat="43.16077" lon="5.72817"></trkpt>
      <trkpt lat="43.16376" lon="5.7192"></trkpt>
      <trkpt lat="43.16615" lon="5.71596"></trkpt>
      <trkpt lat="43.16819" lon="5.71789"></trkpt>
      <trkpt lat="43.17238" lon="5.71555"></trkpt>
      <trkpt lat="43.17658" lon="5.71045"></trkpt>
      <trkpt lat="43.18119" lon="5.71137"></trkpt>
      <trkpt lat="43.1817" lon="5.70871"></trkpt>
      <trkpt lat="43.18176" lon="5.69955"></trkpt>
      <trkpt lat="43.18322" lon="5.69273"></trkpt>
      <trkpt lat="43.18347" lon="5.68771"></trkpt>
      <trkpt lat="43.18138" lon="5.68166"></trkpt>
      <trkpt lat="43.17981" lon="5.67754"></trkpt>
      <trkpt lat="43.18044" lon="5.67369"></trkpt>
      <trkpt lat="43.18418" lon="5.66608"></trkpt>
      <trkpt lat="43.18634" lon="5.65902"></trkpt>
      <trkpt lat="43.18805" lon="5.6529"></trkpt>
      <trkpt lat="43.18949" lon="5.64537"></trkpt>
      <trkpt lat="43.19078" lon="5.64107"></trkpt>
      <trkpt lat="43.18905" lon="5.63272"></trkpt>
      <trkpt lat="43.19073" lon="5.62252"></trkpt>
      <trkpt lat="43.19265" lon="5.61452"></trkpt>
      <trkpt lat="43.19229" lon="5.60778"></trkpt>
      <trkpt lat="43.19446" lon="5.60078"></trkpt>
      <trkpt lat="43.19665" lon="5.59561"></trkpt>
      <trkpt lat="43.19758" lon="5.59246"></trkpt>
      <trkpt lat="43.19881" lon="5.59016"></trkpt>
      <trkpt lat="43.20113" lon="5.58786"></trkpt>
      <trkpt lat="43.20349" lon="5.58874"></trkpt>
      <trkpt lat="43.20639" lon="5.58602"></trkpt>
      <trkpt lat="43.20829" lon="5.5812"></trkpt>
      <trkpt lat="43.21079" lon="5.57991"></trkpt>
      <trkpt lat="43.21314" lon="5.58042"></trkpt>
      <trkpt lat="43.21503" lon="5.57938"></trkpt>
      <trkpt lat="43.21674" lon="5.58124"></trkpt>
      <trkpt lat="43.22006" lon="5.58068"></trkpt>
      <trkpt lat="43.22318" lon="5.57875"></trkpt>
      <trkpt lat="43.2228" lon="5.57287"></trkpt>
      <trkpt lat="43.21899" lon="5.56678"></trkpt>
      <trkpt lat="43.21756" lon="5.55959"></trkpt>
      <trkpt lat="43.21565" lon="5.55145"></trkpt>
      <trkpt lat="43.21823" lon="5.54805"></trkpt>
      <trkpt lat="43.21704" lon="5.5454"></trkpt>
      <trkpt lat="43.21877" lon="5.54437"></trkpt>
      <trkpt lat="43.22253" lon="5.54402"></trkpt>
      <trkpt lat="43.22446" lon="5.54301"></trkpt>
      <trkpt lat="43.2265" lon="5.53861"></trkpt>
      <trkpt lat="43.22593" lon="5.53725"></trkpt>
      <trkpt lat="43.22535" lon="5.53504"></trkpt>
      <trkpt lat="43.22486" lon="5.53291"></trkpt>
      <trkpt lat="43.22642" lon="5.53197"></trkpt>
      <trkpt lat="43.22909" lon="5.52923"></trkpt>
      <trkpt lat="43.23022" lon="5.5252"></trkpt>
      <trkpt lat="43.23259" lon="5.51551"></trkpt>
      <trkpt lat="43.23558" lon="5.51055"></trkpt>
      <trkpt lat="43.23749" lon="5.49719"></trkpt>
      <trkpt lat="43.23846" lon="5.49021"></trkpt>
      <trkpt lat="43.23875" lon="5.4819"></trkpt>
      <trkpt lat="43.23926" lon="5.4751"></trkpt>
      <trkpt lat="43.23895" lon="5.46643"></trkpt>
      <trkpt lat="43.23978" lon="5.46134"></trkpt>
      <trkpt lat="43.24036" lon="5.45461"></trkpt>
      <trkpt lat="43.2416" lon="5.45304"></trkpt>
      <trkpt lat="43.24258" lon="5.44884"></trkpt>
      <trkpt lat="43.24413" lon="5.44542"></trkpt>
      <trkpt lat="43.24655" lon="5.44753"></trkpt>
      <trkpt lat="43.24666" lon="5.45612"></trkpt>
      <trkpt lat="43.24914" lon="5.45154"></trkpt>
      <trkpt lat="43.24883" lon="5.44211"></trkpt>
      <trkpt lat="43.2465" lon="5.4342"></trkpt>
      <trkpt lat="43.24504" lon="5.42788"></trkpt>
      <trkpt lat="43.24753" lon="5.42427"></trkpt>
      <trkpt lat="43.2505" lon="5.42237"></trkpt>
      <trkpt lat="43.25363" lon="5.42143"></trkpt>
      <trkpt lat="43.25696" lon="5.41929"></trkpt>
      <trkpt lat="43.25863" lon="5.41742"></trkpt>
      <trkpt lat="43.2612" lon="5.415"></trkpt>
      <trkpt lat="43.26402" lon="5.41016"></trkpt>
      <trkpt lat="43.26656" lon="5.40838"></trkpt>
      <trkpt lat="43.26836" lon="5.40563"></trkpt>
      <trkpt lat="43.269" lon="5.40358"></trkpt>
      <trkpt lat="43.27192" lon="5.40165"></trkpt>
      <trkpt lat="43.27543" lon="5.39982"></trkpt>
      <trkpt lat="43.27714" lon="5.39851"></trkpt>
      <trkpt lat="43.27564" lon="5.39606"></trkpt>
      <trkpt lat="43.27634" lon="5.39473"></trkpt>
      <trkpt lat="43.27795" lon="5.39246"></trkpt>
      <trkpt lat="43.27908" lon="5.39171"></trkpt>
      <trkpt lat="43.27954" lon="5.3907"></trkpt>
      <trkpt lat="43.28131" lon="5.38945"></trkpt>
      <trkpt lat="43.28077" lon="5.38806"></trkpt>
      <trkpt lat="43.28167" lon="5.38649"></trkpt>
      <trkpt lat="43.28518" lon="5.38459"></trkpt>
      <trkpt lat="43.28585" lon="5.38416"></trkpt>
      <trkpt lat="43.28906" lon="5.38412"></trkpt>
      <trkpt lat="43.29224" lon="5.38283"></trkpt>
      <trkpt lat="43.29535" lon="5.38158"></trkpt>
      <trkpt lat="43.29764" lon="5.38115"></trkpt>
      <trkpt lat="43.29967" lon="5.38084"></trkpt>
    </trkseg>
  </trk>
  <trk>
    <name>День 7 (сегмент 2)</name>
    <trkseg>
      <trkpt lat="43.61076" lon="1.45242"></trkpt>
      <trkpt lat="43.61101" lon="1.45308"></trkpt>
      <trkpt lat="43.613" lon="1.45117"></trkpt>
      <trkpt lat="43.61502" lon="1.44795"></trkpt>
      <trkpt lat="43.61531" lon="1.44117"></trkpt>
      <trkpt lat="43.6167" lon="1.43718"></trkpt>
      <trkpt lat="43.62192" lon="1.43506"></trkpt>
      <trkpt lat="43.626" lon="1.43414"></trkpt>
      <trkpt lat="43.63014" lon="1.4326"></trkpt>
      <trkpt lat="43.63564" lon="1.43065"></trkpt>
      <trkpt lat="43.64301" lon="1.42797"></trkpt>
      <trkpt lat="43.64745" lon="1.42608"></trkpt>
      <trkpt lat="43.64699" lon="1.41881"></trkpt>
      <trkpt lat="43.64271" lon="1.41568"></trkpt>
      <trkpt lat="43.63601" lon="1.40705"></trkpt>
      <trkpt lat="43.62913" lon="1.40966"></trkpt>
      <trkpt lat="43.62587" lon="1.40946"></trkpt>
      <trkpt lat="43.6252" lon="1.39888"></trkpt>
      <trkpt lat="43.63356" lon="1.39722"></trkpt>
      <trkpt lat="43.63585" lon="1.39437"></trkpt>
      <trkpt lat="43.63766" lon="1.38454"></trkpt>
      <trkpt lat="43.63958" lon="1.3778"></trkpt>
      <trkpt lat="43.64087" lon="1.37511"></trkpt>
      <trkpt lat="43.64545" lon="1.36799"></trkpt>
      <trkpt lat="43.64597" lon="1.36763"></trkpt>
      <trkpt lat="43.64497" lon="1.36242"></trkpt>
      <trkpt lat="43.64922" lon="1.36436"></trkpt>
      <trkpt lat="43.65432" lon="1.36189"></trkpt>
    </trkseg>
  </trk>
  <trk>
    <name>День 8 (сегмент 1)</name>
    <trkseg>
      <trkpt lat="43.65437" lon="1.36211"></trkpt>
      <trkpt lat="43.65423" lon="1.36213"></trkpt>
      <trkpt lat="43.65372" lon="1.36247"></trkpt>
      <trkpt lat="43.6536" lon="1.36161"></trkpt>
      <trkpt lat="43.6535" lon="1.36113"></trkpt>
      <trkpt lat="43.65259" lon="1.36113"></trkpt>
      <trkpt lat="43.65228" lon="1.36114"></trkpt>
      <trkpt lat="43.65224" lon="1.36145"></trkpt>
      <trkpt lat="43.65229" lon="1.36126"></trkpt>
      <trkpt lat="43.65228" lon="1.3613"></trkpt>
      <trkpt lat="43.65212" lon="1.36112"></trkpt>
      <trkpt lat="43.65209" lon="1.36113"></trkpt>
      <trkpt lat="43.65205" lon="1.36122"></trkpt>
      <trkpt lat="43.65222" lon="1.36175"></trkpt>
      <trkpt lat="43.65229" lon="1.36235"></trkpt>
      <trkpt lat="43.65236" lon="1.36283"></trkpt>
      <trkpt lat="43.65237" lon="1.36352"></trkpt>
      <trkpt lat="43.6514" lon="1.36373"></trkpt>
      <trkpt lat="43.64922" lon="1.36423"></trkpt>
      <trkpt lat="43.64738" lon="1.36473"></trkpt>
      <trkpt lat="43.64704" lon="1.36459"></trkpt>
      <trkpt lat="43.64569" lon="1.36447"></trkpt>
      <trkpt lat="43.64519" lon="1.3646"></trkpt>
      <trkpt lat="43.64549" lon="1.36568"></trkpt>
      <trkpt lat="43.64519" lon="1.36632"></trkpt>
      <trkpt lat="43.64493" lon="1.36652"></trkpt>
      <trkpt lat="43.64472" lon="1.36638"></trkpt>
      <trkpt lat="43.64416" lon="1.36664"></trkpt>
      <trkpt lat="43.64426" lon="1.36707"></trkpt>
      <trkpt lat="43.64476" lon="1.36742"></trkpt>
      <trkpt lat="43.64459" lon="1.36722"></trkpt>
      <trkpt lat="43.64427" lon="1.36698"></trkpt>
      <trkpt lat="43.64463" lon="1.36711"></trkpt>
      <trkpt lat="43.64505" lon="1.36721"></trkpt>
      <trkpt lat="43.64534" lon="1.36707"></trkpt>
      <trkpt lat="43.6454" lon="1.3669"></trkpt>
      <trkpt lat="43.64575" lon="1.36755"></trkpt>
      <trkpt lat="43.64567" lon="1.36858"></trkpt>
      <trkpt lat="43.64508" lon="1.36885"></trkpt>
      <trkpt lat="43.64453" lon="1.36918"></trkpt>
      <trkpt lat="43.64385" lon="1.36987"></trkpt>
      <trkpt lat="43.64383" lon="1.37226"></trkpt>
      <trkpt lat="43.64339" lon="1.37342"></trkpt>
      <trkpt lat="43.64333" lon="1.37385"></trkpt>
      <trkpt lat="43.64291" lon="1.37494"></trkpt>
      <trkpt lat="43.64115" lon="1.37573"></trkpt>
      <trkpt lat="43.64037" lon="1.37621"></trkpt>
      <trkpt lat="43.6398" lon="1.37706"></trkpt>
      <trkpt lat="43.63961" lon="1.37701"></trkpt>
      <trkpt lat="43.63885" lon="1.37765"></trkpt>
      <trkpt lat="43.63902" lon="1.37869"></trkpt>
      <trkpt lat="43.63769" lon="1.38195"></trkpt>
      <trkpt lat="43.63758" lon="1.38257"></trkpt>
      <trkpt lat="43.63771" lon="1.3864"></trkpt>
      <trkpt lat="43.63723" lon="1.38987"></trkpt>
      <trkpt lat="43.63699" lon="1.39088"></trkpt>
      <trkpt lat="43.63628" lon="1.39097"></trkpt>
      <trkpt lat="43.63492" lon="1.39114"></trkpt>
      <trkpt lat="43.63432" lon="1.39123"></trkpt>
      <trkpt lat="43.63135" lon="1.39154"></trkpt>
      <trkpt lat="43.63001" lon="1.39172"></trkpt>
      <trkpt lat="43.62886" lon="1.39193"></trkpt>
      <trkpt lat="43.6254" lon="1.3935"></trkpt>
      <trkpt lat="43.6227" lon="1.39538"></trkpt>
      <trkpt lat="43.62197" lon="1.39693"></trkpt>
      <trkpt lat="43.62159" lon="1.39702"></trkpt>
      <trkpt lat="43.62118" lon="1.39891"></trkpt>
      <trkpt lat="43.6224" lon="1.40395"></trkpt>
      <trkpt lat="43.62265" lon="1.40487"></trkpt>
      <trkpt lat="43.62303" lon="1.40481"></trkpt>
      <trkpt lat="43.62325" lon="1.40479"></trkpt>
      <trkpt lat="43.62383" lon="1.40452"></trkpt>
      <trkpt lat="43.6244" lon="1.40447"></trkpt>
      <trkpt lat="43.62618" lon="1.41093"></trkpt>
      <trkpt lat="43.62619" lon="1.41119"></trkpt>
      <trkpt lat="43.62691" lon="1.41102"></trkpt>
      <trkpt lat="43.62859" lon="1.41037"></trkpt>
      <trkpt lat="43.62907" lon="1.41049"></trkpt>
      <trkpt lat="43.62931" lon="1.41026"></trkpt>
      <trkpt lat="43.62925" lon="1.40832"></trkpt>
      <trkpt lat="43.63039" lon="1.40746"></trkpt>
      <trkpt lat="43.63168" lon="1.4068"></trkpt>
      <trkpt lat="43.63369" lon="1.40672"></trkpt>
      <trkpt lat="43.63588" lon="1.40708"></trkpt>
      <trkpt lat="43.6379" lon="1.41001"></trkpt>
      <trkpt lat="43.63822" lon="1.41081"></trkpt>
      <trkpt lat="43.6389" lon="1.41056"></trkpt>
      <trkpt lat="43.64001" lon="1.41165"></trkpt>
      <trkpt lat="43.64175" lon="1.41376"></trkpt>
      <trkpt lat="43.64273" lon="1.41576"></trkpt>
      <trkpt lat="43.64334" lon="1.41653"></trkpt>
      <trkpt lat="43.64416" lon="1.41826"></trkpt>
      <trkpt lat="43.64511" lon="1.41957"></trkpt>
      <trkpt lat="43.64555" lon="1.4194"></trkpt>
      <trkpt lat="43.64643" lon="1.41906"></trkpt>
      <trkpt lat="43.64652" lon="1.4192"></trkpt>
      <trkpt lat="43.64629" lon="1.41883"></trkpt>
      <trkpt lat="43.64668" lon="1.41871"></trkpt>
      <trkpt lat="43.6475" lon="1.4204"></trkpt>
      <trkpt lat="43.64793" lon="1.42225"></trkpt>
      <trkpt lat="43.64862" lon="1.42469"></trkpt>
      <trkpt lat="43.64822" lon="1.42524"></trkpt>
      <trkpt lat="43.64745" lon="1.42525"></trkpt>
      <trkpt lat="43.64617" lon="1.42588"></trkpt>
      <trkpt lat="43.64487" lon="1.42721"></trkpt>
      <trkpt lat="43.64416" lon="1.42749"></trkpt>
      <trkpt lat="43.64237" lon="1.42812"></trkpt>
      <trkpt lat="43.64156" lon="1.42845"></trkpt>
      <trkpt lat="43.63874" lon="1.42956"></trkpt>
      <trkpt lat="43.63707" lon="1.42994"></trkpt>
      <trkpt lat="43.63503" lon="1.43081"></trkpt>
      <trkpt lat="43.63361" lon="1.4313"></trkpt>
      <trkpt lat="43.63168" lon="1.432"></trkpt>
      <trkpt lat="43.62944" lon="1.43271"></trkpt>
      <trkpt lat="43.62796" lon="1.43323"></trkpt>
      <trkpt lat="43.62743" lon="1.43339"></trkpt>
      <trkpt lat="43.62651" lon="1.43373"></trkpt>
      <trkpt lat="43.62554" lon="1.43397"></trkpt>
      <trkpt lat="43.62484" lon="1.4341"></trkpt>
      <trkpt lat="43.62453" lon="1.43405"></trkpt>
      <trkpt lat="43.62347" lon="1.43432"></trkpt>
      <trkpt lat="43.62207" lon="1.4349"></trkpt>
      <trkpt lat="43.62141" lon="1.43536"></trkpt>
      <trkpt lat="43.62092" lon="1.43555"></trkpt>
      <trkpt lat="43.61956" lon="1.43605"></trkpt>
      <trkpt lat="43.61808" lon="1.43654"></trkpt>
      <trkpt lat="43.61567" lon="1.43725"></trkpt>
      <trkpt lat="43.61594" lon="1.43889"></trkpt>
      <trkpt lat="43.61545" lon="1.44091"></trkpt>
      <trkpt lat="43.61508" lon="1.44214"></trkpt>
      <trkpt lat="43.61491" lon="1.443"></trkpt>
      <trkpt lat="43.61485" lon="1.44423"></trkpt>
      <trkpt lat="43.61507" lon="1.44555"></trkpt>
      <trkpt lat="43.61513" lon="1.44601"></trkpt>
      <trkpt lat="43.61521" lon="1.44681"></trkpt>
      <trkpt lat="43.61482" lon="1.4487"></trkpt>
      <trkpt lat="43.6144" lon="1.44962"></trkpt>
      <trkpt lat="43.61384" lon="1.45048"></trkpt>
      <trkpt lat="43.61412" lon="1.45092"></trkpt>
      <trkpt lat="43.61381" lon="1.4514"></trkpt>
      <trkpt lat="43.61309" lon="1.45182"></trkpt>
      <trkpt lat="43.61291" lon="1.45193"></trkpt>
      <trkpt lat="43.61221" lon="1.45265"></trkpt>
      <trkpt lat="43.61201" lon="1.45295"></trkpt>
    </trkseg>
  </trk>
  <trk>
    <name>День 8 (сегмент 2)</name>
    <trkseg>
      <trkpt lat="43.69399" lon="7.25802"></trkpt>
      <trkpt lat="43.69296" lon="7.25376"></trkpt>
      <trkpt lat="43.69306" lon="7.25365"></trkpt>
      <trkpt lat="43.69292" lon="7.25304"></trkpt>
      <trkpt lat="43.69258" lon="7.25212"></trkpt>
      <trkpt lat="43.69158" lon="7.24899"></trkpt>
      <trkpt lat="43.67787" lon="7.22948"></trkpt>
    </trkseg>
  </trk>
</gpx>
