<?xml version="1.0" encoding="UTF-8"?>
<gpx version="1.1" creator="bike-reports.velotrips" xmlns="http://www.opengis.net/gpx/1.1">
  <trk>
    <name>День 1</name>
    <trkseg>
      <trkpt lat="42.41167" lon="18.71791"></trkpt>
      <trkpt lat="42.41667" lon="18.72235"></trkpt>
      <trkpt lat="42.41675" lon="18.72353"></trkpt>
      <trkpt lat="42.41718" lon="18.72464"></trkpt>
      <trkpt lat="42.41757" lon="18.72569"></trkpt>
      <trkpt lat="42.41828" lon="18.7265"></trkpt>
      <trkpt lat="42.41907" lon="18.72745"></trkpt>
      <trkpt lat="42.4193" lon="18.72822"></trkpt>
      <trkpt lat="42.41956" lon="18.72941"></trkpt>
      <trkpt lat="42.42023" lon="18.73027"></trkpt>
      <trkpt lat="42.42086" lon="18.73117"></trkpt>
      <trkpt lat="42.42106" lon="18.7323"></trkpt>
      <trkpt lat="42.4206" lon="18.73342"></trkpt>
      <trkpt lat="42.41998" lon="18.73387"></trkpt>
      <trkpt lat="42.41912" lon="18.73348"></trkpt>
      <trkpt lat="42.41825" lon="18.73321"></trkpt>
      <trkpt lat="42.41856" lon="18.73436"></trkpt>
      <trkpt lat="42.41839" lon="18.73557"></trkpt>
      <trkpt lat="42.41743" lon="18.7357"></trkpt>
      <trkpt lat="42.41682" lon="18.73619"></trkpt>
      <trkpt lat="42.41683" lon="18.73735"></trkpt>
      <trkpt lat="42.41616" lon="18.73813"></trkpt>
      <trkpt lat="42.41567" lon="18.73929"></trkpt>
      <trkpt lat="42.41489" lon="18.73984"></trkpt>
      <trkpt lat="42.41401" lon="18.74034"></trkpt>
      <trkpt lat="42.41383" lon="18.74112"></trkpt>
      <trkpt lat="42.41336" lon="18.74186"></trkpt>
      <trkpt lat="42.41304" lon="18.74298"></trkpt>
      <trkpt lat="42.41243" lon="18.7438"></trkpt>
      <trkpt lat="42.41247" lon="18.74495"></trkpt>
      <trkpt lat="42.4125" lon="18.74615"></trkpt>
      <trkpt lat="42.41181" lon="18.74696"></trkpt>
      <trkpt lat="42.41132" lon="18.74801"></trkpt>
      <trkpt lat="42.41068" lon="18.74898"></trkpt>
      <trkpt lat="42.41038" lon="18.75004"></trkpt>
      <trkpt lat="42.40969" lon="18.75082"></trkpt>
      <trkpt lat="42.4091" lon="18.75174"></trkpt>
      <trkpt lat="42.40819" lon="18.75218"></trkpt>
      <trkpt lat="42.40744" lon="18.7529"></trkpt>
      <trkpt lat="42.40667" lon="18.75376"></trkpt>
      <trkpt lat="42.40597" lon="18.75455"></trkpt>
      <trkpt lat="42.40554" lon="18.75573"></trkpt>
      <trkpt lat="42.40496" lon="18.75672"></trkpt>
      <trkpt lat="42.40475" lon="18.758"></trkpt>
      <trkpt lat="42.40422" lon="18.75921"></trkpt>
      <trkpt lat="42.40362" lon="18.76016"></trkpt>
      <trkpt lat="42.40314" lon="18.76119"></trkpt>
      <trkpt lat="42.40283" lon="18.76228"></trkpt>
      <trkpt lat="42.40322" lon="18.76312"></trkpt>
      <trkpt lat="42.40374" lon="18.76424"></trkpt>
      <trkpt lat="42.40459" lon="18.76435"></trkpt>
      <trkpt lat="42.40587" lon="18.76445"></trkpt>
      <trkpt lat="42.40619" lon="18.76453"></trkpt>
      <trkpt lat="42.40552" lon="18.76498"></trkpt>
      <trkpt lat="42.40655" lon="18.76476"></trkpt>
      <trkpt lat="42.40571" lon="18.76547"></trkpt>
      <trkpt lat="42.40514" lon="18.76668"></trkpt>
      <trkpt lat="42.40612" lon="18.76675"></trkpt>
      <trkpt lat="42.40696" lon="18.76707"></trkpt>
      <trkpt lat="42.40742" lon="18.76754"></trkpt>
      <trkpt lat="42.40795" lon="18.76855"></trkpt>
      <trkpt lat="42.40884" lon="18.76939"></trkpt>
      <trkpt lat="42.40974" lon="18.77007"></trkpt>
      <trkpt lat="42.40988" lon="18.76959"></trkpt>
      <trkpt lat="42.40907" lon="18.7685"></trkpt>
      <trkpt lat="42.40914" lon="18.76729"></trkpt>
      <trkpt lat="42.40954" lon="18.76832"></trkpt>
      <trkpt lat="42.41019" lon="18.76953"></trkpt>
      <trkpt lat="42.41105" lon="18.77029"></trkpt>
      <trkpt lat="42.41225" lon="18.77025"></trkpt>
      <trkpt lat="42.41346" lon="18.77073"></trkpt>
      <trkpt lat="42.41348" lon="18.77076"></trkpt>
      <trkpt lat="42.41249" lon="18.77059"></trkpt>
      <trkpt lat="42.41162" lon="18.76998"></trkpt>
      <trkpt lat="42.41158" lon="18.76938"></trkpt>
      <trkpt lat="42.41227" lon="18.77015"></trkpt>
      <trkpt lat="42.41329" lon="18.77023"></trkpt>
      <trkpt lat="42.41426" lon="18.77004"></trkpt>
      <trkpt lat="42.41525" lon="18.77031"></trkpt>
      <trkpt lat="42.41623" lon="18.77057"></trkpt>
      <trkpt lat="42.41658" lon="18.77056"></trkpt>
      <trkpt lat="42.41569" lon="18.77033"></trkpt>
      <trkpt lat="42.41492" lon="18.76954"></trkpt>
      <trkpt lat="42.4147" lon="18.76819"></trkpt>
      <trkpt lat="42.41539" lon="18.76754"></trkpt>
      <trkpt lat="42.41615" lon="18.76726"></trkpt>
      <trkpt lat="42.41707" lon="18.76726"></trkpt>
      <trkpt lat="42.41789" lon="18.76777"></trkpt>
      <trkpt lat="42.41863" lon="18.76846"></trkpt>
      <trkpt lat="42.41951" lon="18.76923"></trkpt>
      <trkpt lat="42.41981" lon="18.76957"></trkpt>
      <trkpt lat="42.4208" lon="18.76997"></trkpt>
      <trkpt lat="42.42165" lon="18.77023"></trkpt>
      <trkpt lat="42.42172" lon="18.77053"></trkpt>
      <trkpt lat="42.4218" lon="18.77052"></trkpt>
      <trkpt lat="42.42245" lon="18.7714"></trkpt>
      <trkpt lat="42.42338" lon="18.77114"></trkpt>
      <trkpt lat="42.42398" lon="18.77014"></trkpt>
      <trkpt lat="42.4247" lon="18.76949"></trkpt>
      <trkpt lat="42.4254" lon="18.76886"></trkpt>
      <trkpt lat="42.42619" lon="18.76858"></trkpt>
      <trkpt lat="42.42712" lon="18.76877"></trkpt>
      <trkpt lat="42.42776" lon="18.76956"></trkpt>
      <trkpt lat="42.42754" lon="18.77069"></trkpt>
      <trkpt lat="42.4274" lon="18.7723"></trkpt>
      <trkpt lat="42.42743" lon="18.77118"></trkpt>
      <trkpt lat="42.42761" lon="18.76995"></trkpt>
      <trkpt lat="42.42758" lon="18.76892"></trkpt>
      <trkpt lat="42.42662" lon="18.76859"></trkpt>
      <trkpt lat="42.42573" lon="18.76835"></trkpt>
      <trkpt lat="42.42495" lon="18.76872"></trkpt>
      <trkpt lat="42.42435" lon="18.76963"></trkpt>
      <trkpt lat="42.42372" lon="18.77047"></trkpt>
      <trkpt lat="42.4231" lon="18.77124"></trkpt>
      <trkpt lat="42.42334" lon="18.77161"></trkpt>
      <trkpt lat="42.42397" lon="18.77171"></trkpt>
      <trkpt lat="42.42473" lon="18.77212"></trkpt>
      <trkpt lat="42.42509" lon="18.7717"></trkpt>
      <trkpt lat="42.42489" lon="18.77175"></trkpt>
      <trkpt lat="42.42411" lon="18.77183"></trkpt>
      <trkpt lat="42.42352" lon="18.7717"></trkpt>
    </trkseg>
  </trk>
  <trk>
    <name>День 2</name>
    <trkseg>
      <trkpt lat="42.42508" lon="18.77181"></trkpt>
      <trkpt lat="42.42429" lon="18.77118"></trkpt>
      <trkpt lat="42.42473" lon="18.77005"></trkpt>
      <trkpt lat="42.42629" lon="18.76861"></trkpt>
      <trkpt lat="42.43055" lon="18.76887"></trkpt>
      <trkpt lat="42.4361" lon="18.76744"></trkpt>
      <trkpt lat="42.43934" lon="18.76417"></trkpt>
      <trkpt lat="42.44282" lon="18.76446"></trkpt>
      <trkpt lat="42.44676" lon="18.76624"></trkpt>
      <trkpt lat="42.45065" lon="18.76572"></trkpt>
      <trkpt lat="42.45404" lon="18.76637"></trkpt>
      <trkpt lat="42.45887" lon="18.76598"></trkpt>
      <trkpt lat="42.46581" lon="18.76449"></trkpt>
      <trkpt lat="42.47073" lon="18.76451"></trkpt>
      <trkpt lat="42.47268" lon="18.76439"></trkpt>
      <trkpt lat="42.47571" lon="18.76477"></trkpt>
      <trkpt lat="42.47901" lon="18.76374"></trkpt>
      <trkpt lat="42.48248" lon="18.76524"></trkpt>
      <trkpt lat="42.48616" lon="18.76666"></trkpt>
      <trkpt lat="42.48891" lon="18.76471"></trkpt>
      <trkpt lat="42.49015" lon="18.76046"></trkpt>
      <trkpt lat="42.49" lon="18.75506"></trkpt>
      <trkpt lat="42.4887" lon="18.75081"></trkpt>
      <trkpt lat="42.48725" lon="18.74706"></trkpt>
      <trkpt lat="42.48601" lon="18.74323"></trkpt>
      <trkpt lat="42.48467" lon="18.73918"></trkpt>
      <trkpt lat="42.48351" lon="18.73221"></trkpt>
      <trkpt lat="42.48409" lon="18.72403"></trkpt>
      <trkpt lat="42.48378" lon="18.71615"></trkpt>
      <trkpt lat="42.48452" lon="18.70651"></trkpt>
      <trkpt lat="42.48543" lon="18.70408"></trkpt>
      <trkpt lat="42.4865" lon="18.70208"></trkpt>
      <trkpt lat="42.48707" lon="18.6994"></trkpt>
      <trkpt lat="42.48977" lon="18.69343"></trkpt>
      <trkpt lat="42.49464" lon="18.69154"></trkpt>
      <trkpt lat="42.49913" lon="18.69226"></trkpt>
      <trkpt lat="42.50258" lon="18.69303"></trkpt>
      <trkpt lat="42.50502" lon="18.69391"></trkpt>
      <trkpt lat="42.50895" lon="18.69654"></trkpt>
      <trkpt lat="42.51282" lon="18.69554"></trkpt>
      <trkpt lat="42.51324" lon="18.69614"></trkpt>
      <trkpt lat="42.5135" lon="18.69593"></trkpt>
      <trkpt lat="42.516" lon="18.69309"></trkpt>
      <trkpt lat="42.51686" lon="18.68677"></trkpt>
      <trkpt lat="42.51562" lon="18.68334"></trkpt>
      <trkpt lat="42.51374" lon="18.68188"></trkpt>
      <trkpt lat="42.51081" lon="18.67902"></trkpt>
      <trkpt lat="42.50664" lon="18.67705"></trkpt>
      <trkpt lat="42.50507" lon="18.67287"></trkpt>
      <trkpt lat="42.50461" lon="18.66898"></trkpt>
      <trkpt lat="42.50225" lon="18.66457"></trkpt>
      <trkpt lat="42.49892" lon="18.65997"></trkpt>
      <trkpt lat="42.49635" lon="18.65553"></trkpt>
      <trkpt lat="42.49451" lon="18.65188"></trkpt>
      <trkpt lat="42.49115" lon="18.65035"></trkpt>
      <trkpt lat="42.48928" lon="18.64909"></trkpt>
      <trkpt lat="42.487" lon="18.65329"></trkpt>
      <trkpt lat="42.48691" lon="18.65668"></trkpt>
      <trkpt lat="42.48717" lon="18.66114"></trkpt>
      <trkpt lat="42.4863" lon="18.66617"></trkpt>
      <trkpt lat="42.48474" lon="18.67139"></trkpt>
      <trkpt lat="42.48388" lon="18.67472"></trkpt>
      <trkpt lat="42.48232" lon="18.67844"></trkpt>
      <trkpt lat="42.48047" lon="18.68244"></trkpt>
      <trkpt lat="42.4788" lon="18.6864"></trkpt>
      <trkpt lat="42.47759" lon="18.68492"></trkpt>
      <trkpt lat="42.47551" lon="18.68343"></trkpt>
      <trkpt lat="42.473" lon="18.68066"></trkpt>
      <trkpt lat="42.47061" lon="18.6782"></trkpt>
      <trkpt lat="42.46762" lon="18.67556"></trkpt>
      <trkpt lat="42.46518" lon="18.67346"></trkpt>
      <trkpt lat="42.46189" lon="18.67326"></trkpt>
      <trkpt lat="42.45954" lon="18.67482"></trkpt>
      <trkpt lat="42.4583" lon="18.66973"></trkpt>
      <trkpt lat="42.45591" lon="18.66209"></trkpt>
      <trkpt lat="42.45307" lon="18.65873"></trkpt>
      <trkpt lat="42.45146" lon="18.65676"></trkpt>
      <trkpt lat="42.45389" lon="18.65442"></trkpt>
      <trkpt lat="42.45258" lon="18.65115"></trkpt>
      <trkpt lat="42.44902" lon="18.64449"></trkpt>
      <trkpt lat="42.44659" lon="18.64202"></trkpt>
      <trkpt lat="42.44425" lon="18.63762"></trkpt>
      <trkpt lat="42.44288" lon="18.62707"></trkpt>
      <trkpt lat="42.4405" lon="18.62098"></trkpt>
      <trkpt lat="42.43945" lon="18.61392"></trkpt>
      <trkpt lat="42.43842" lon="18.60975"></trkpt>
      <trkpt lat="42.43782" lon="18.60745"></trkpt>
      <trkpt lat="42.43819" lon="18.60159"></trkpt>
      <trkpt lat="42.43842" lon="18.59375"></trkpt>
      <trkpt lat="42.43974" lon="18.58776"></trkpt>
      <trkpt lat="42.44252" lon="18.5843"></trkpt>
      <trkpt lat="42.44441" lon="18.57876"></trkpt>
      <trkpt lat="42.448" lon="18.57547"></trkpt>
      <trkpt lat="42.45121" lon="18.57262"></trkpt>
      <trkpt lat="42.45341" lon="18.56933"></trkpt>
      <trkpt lat="42.45438" lon="18.56841"></trkpt>
      <trkpt lat="42.45558" lon="18.56389"></trkpt>
      <trkpt lat="42.45447" lon="18.55863"></trkpt>
      <trkpt lat="42.45269" lon="18.55717"></trkpt>
      <trkpt lat="42.45142" lon="18.55334"></trkpt>
      <trkpt lat="42.45058" lon="18.5503"></trkpt>
      <trkpt lat="42.45086" lon="18.5473"></trkpt>
      <trkpt lat="42.45097" lon="18.54674"></trkpt>
      <trkpt lat="42.45122" lon="18.54436"></trkpt>
      <trkpt lat="42.45145" lon="18.54134"></trkpt>
      <trkpt lat="42.45028" lon="18.53815"></trkpt>
      <trkpt lat="42.45079" lon="18.53662"></trkpt>
      <trkpt lat="42.45188" lon="18.53677"></trkpt>
      <trkpt lat="42.45187" lon="18.5367"></trkpt>
      <trkpt lat="42.45176" lon="18.53691"></trkpt>
      <trkpt lat="42.45141" lon="18.53703"></trkpt>
      <trkpt lat="42.45163" lon="18.53711"></trkpt>
      <trkpt lat="42.45142" lon="18.53695"></trkpt>
      <trkpt lat="42.45203" lon="18.5366"></trkpt>
      <trkpt lat="42.4529" lon="18.53447"></trkpt>
      <trkpt lat="42.45416" lon="18.53351"></trkpt>
      <trkpt lat="42.45575" lon="18.53132"></trkpt>
      <trkpt lat="42.45605" lon="18.5297"></trkpt>
      <trkpt lat="42.45573" lon="18.52906"></trkpt>
      <trkpt lat="42.45578" lon="18.52921"></trkpt>
      <trkpt lat="42.45643" lon="18.52835"></trkpt>
    </trkseg>
  </trk>
  <trk>
    <name>День 3</name>
    <trkseg>
      <trkpt lat="42.45571" lon="18.52904"></trkpt>
      <trkpt lat="42.45529" lon="18.52859"></trkpt>
      <trkpt lat="42.45879" lon="18.52537"></trkpt>
      <trkpt lat="42.45858" lon="18.52574"></trkpt>
      <trkpt lat="42.45828" lon="18.5204"></trkpt>
      <trkpt lat="42.45945" lon="18.51437"></trkpt>
      <trkpt lat="42.45437" lon="18.50645"></trkpt>
      <trkpt lat="42.45518" lon="18.49827"></trkpt>
      <trkpt lat="42.45669" lon="18.49257"></trkpt>
      <trkpt lat="42.45057" lon="18.49941"></trkpt>
      <trkpt lat="42.44542" lon="18.50498"></trkpt>
      <trkpt lat="42.43878" lon="18.5094"></trkpt>
      <trkpt lat="42.43419" lon="18.51322"></trkpt>
      <trkpt lat="42.42728" lon="18.52265"></trkpt>
      <trkpt lat="42.42722" lon="18.52252"></trkpt>
      <trkpt lat="42.42324" lon="18.52352"></trkpt>
      <trkpt lat="42.42183" lon="18.51893"></trkpt>
      <trkpt lat="42.42607" lon="18.50419"></trkpt>
      <trkpt lat="42.43252" lon="18.49174"></trkpt>
      <trkpt lat="42.43554" lon="18.48512"></trkpt>
      <trkpt lat="42.44711" lon="18.47754"></trkpt>
      <trkpt lat="42.45193" lon="18.47191"></trkpt>
      <trkpt lat="42.45645" lon="18.46633"></trkpt>
      <trkpt lat="42.46566" lon="18.45501"></trkpt>
      <trkpt lat="42.47068" lon="18.44788"></trkpt>
      <trkpt lat="42.47184" lon="18.44186"></trkpt>
      <trkpt lat="42.46946" lon="18.43425"></trkpt>
      <trkpt lat="42.46925" lon="18.42209"></trkpt>
      <trkpt lat="42.47549" lon="18.41814"></trkpt>
      <trkpt lat="42.47928" lon="18.41403"></trkpt>
      <trkpt lat="42.48693" lon="18.40114"></trkpt>
      <trkpt lat="42.49055" lon="18.39116"></trkpt>
      <trkpt lat="42.49427" lon="18.3772"></trkpt>
      <trkpt lat="42.49916" lon="18.36007"></trkpt>
      <trkpt lat="42.50477" lon="18.35408"></trkpt>
      <trkpt lat="42.51029" lon="18.35003"></trkpt>
      <trkpt lat="42.51109" lon="18.34355"></trkpt>
      <trkpt lat="42.51609" lon="18.34077"></trkpt>
      <trkpt lat="42.51765" lon="18.33444"></trkpt>
      <trkpt lat="42.52021" lon="18.33075"></trkpt>
      <trkpt lat="42.52342" lon="18.31723"></trkpt>
      <trkpt lat="42.52891" lon="18.30534"></trkpt>
      <trkpt lat="42.53813" lon="18.29517"></trkpt>
      <trkpt lat="42.54657" lon="18.28506"></trkpt>
      <trkpt lat="42.55262" lon="18.27554"></trkpt>
      <trkpt lat="42.5585" lon="18.26393"></trkpt>
      <trkpt lat="42.56495" lon="18.24615"></trkpt>
      <trkpt lat="42.57098" lon="18.24453"></trkpt>
      <trkpt lat="42.58202" lon="18.23485"></trkpt>
      <trkpt lat="42.58917" lon="18.23002"></trkpt>
      <trkpt lat="42.59592" lon="18.23112"></trkpt>
      <trkpt lat="42.60012" lon="18.23247"></trkpt>
      <trkpt lat="42.60155" lon="18.23139"></trkpt>
      <trkpt lat="42.6022" lon="18.23151"></trkpt>
      <trkpt lat="42.60842" lon="18.23074"></trkpt>
      <trkpt lat="42.61343" lon="18.2256"></trkpt>
      <trkpt lat="42.6174" lon="18.21554"></trkpt>
      <trkpt lat="42.62178" lon="18.21202"></trkpt>
      <trkpt lat="42.6241" lon="18.2054"></trkpt>
      <trkpt lat="42.62515" lon="18.19807"></trkpt>
      <trkpt lat="42.62242" lon="18.17985"></trkpt>
      <trkpt lat="42.62489" lon="18.17524"></trkpt>
      <trkpt lat="42.62747" lon="18.1674"></trkpt>
      <trkpt lat="42.62844" lon="18.16332"></trkpt>
      <trkpt lat="42.63003" lon="18.15415"></trkpt>
      <trkpt lat="42.63115" lon="18.1487"></trkpt>
      <trkpt lat="42.6321" lon="18.1433"></trkpt>
      <trkpt lat="42.63253" lon="18.13778"></trkpt>
      <trkpt lat="42.63415" lon="18.13234"></trkpt>
      <trkpt lat="42.63818" lon="18.12889"></trkpt>
      <trkpt lat="42.64159" lon="18.11868"></trkpt>
      <trkpt lat="42.64206" lon="18.11546"></trkpt>
      <trkpt lat="42.64196" lon="18.11556"></trkpt>
      <trkpt lat="42.64211" lon="18.11568"></trkpt>
      <trkpt lat="42.64211" lon="18.11549"></trkpt>
      <trkpt lat="42.64205" lon="18.11551"></trkpt>
      <trkpt lat="42.64213" lon="18.11554"></trkpt>
      <trkpt lat="42.64187" lon="18.11543"></trkpt>
      <trkpt lat="42.64193" lon="18.11488"></trkpt>
      <trkpt lat="42.64196" lon="18.11448"></trkpt>
      <trkpt lat="42.642" lon="18.113"></trkpt>
      <trkpt lat="42.6416" lon="18.11097"></trkpt>
      <trkpt lat="42.64037" lon="18.11085"></trkpt>
      <trkpt lat="42.63985" lon="18.10957"></trkpt>
      <trkpt lat="42.63948" lon="18.1094"></trkpt>
      <trkpt lat="42.63966" lon="18.10945"></trkpt>
      <trkpt lat="42.63899" lon="18.10868"></trkpt>
      <trkpt lat="42.63925" lon="18.10793"></trkpt>
      <trkpt lat="42.63973" lon="18.10722"></trkpt>
      <trkpt lat="42.6398" lon="18.10865"></trkpt>
      <trkpt lat="42.64028" lon="18.10976"></trkpt>
      <trkpt lat="42.64084" lon="18.10852"></trkpt>
      <trkpt lat="42.64087" lon="18.11019"></trkpt>
      <trkpt lat="42.63963" lon="18.11022"></trkpt>
      <trkpt lat="42.64113" lon="18.11084"></trkpt>
      <trkpt lat="42.64113" lon="18.11108"></trkpt>
      <trkpt lat="42.64155" lon="18.10707"></trkpt>
      <trkpt lat="42.64271" lon="18.10404"></trkpt>
      <trkpt lat="42.6443" lon="18.10059"></trkpt>
      <trkpt lat="42.64621" lon="18.09614"></trkpt>
      <trkpt lat="42.65061" lon="18.0929"></trkpt>
      <trkpt lat="42.65187" lon="18.09219"></trkpt>
      <trkpt lat="42.65175" lon="18.09192"></trkpt>
      <trkpt lat="42.65173" lon="18.09255"></trkpt>
      <trkpt lat="42.65643" lon="18.08779"></trkpt>
      <trkpt lat="42.66072" lon="18.08567"></trkpt>
      <trkpt lat="42.66647" lon="18.08062"></trkpt>
      <trkpt lat="42.66898" lon="18.08798"></trkpt>
      <trkpt lat="42.66845" lon="18.08714"></trkpt>
      <trkpt lat="42.66658" lon="18.08182"></trkpt>
      <trkpt lat="42.66972" lon="18.07796"></trkpt>
      <trkpt lat="42.66989" lon="18.074"></trkpt>
      <trkpt lat="42.67362" lon="18.06942"></trkpt>
      <trkpt lat="42.67763" lon="18.05857"></trkpt>
      <trkpt lat="42.68054" lon="18.05871"></trkpt>
      <trkpt lat="42.68538" lon="18.0512"></trkpt>
      <trkpt lat="42.68763" lon="18.05354"></trkpt>
      <trkpt lat="42.68749" lon="18.04972"></trkpt>
      <trkpt lat="42.6885" lon="18.04977"></trkpt>
      <trkpt lat="42.68752" lon="18.04949"></trkpt>
      <trkpt lat="42.68853" lon="18.0499"></trkpt>
    </trkseg>
  </trk>
  <trk>
    <name>День 4</name>
    <trkseg>
      <trkpt lat="42.68818" lon="18.04993"></trkpt>
      <trkpt lat="42.68799" lon="18.04988"></trkpt>
      <trkpt lat="42.68781" lon="18.04983"></trkpt>
      <trkpt lat="42.68771" lon="18.04932"></trkpt>
      <trkpt lat="42.6874" lon="18.04958"></trkpt>
      <trkpt lat="42.68755" lon="18.04994"></trkpt>
      <trkpt lat="42.68747" lon="18.05045"></trkpt>
      <trkpt lat="42.68745" lon="18.05097"></trkpt>
      <trkpt lat="42.68747" lon="18.05146"></trkpt>
      <trkpt lat="42.68764" lon="18.05192"></trkpt>
      <trkpt lat="42.6878" lon="18.0524"></trkpt>
      <trkpt lat="42.68785" lon="18.05291"></trkpt>
      <trkpt lat="42.68792" lon="18.05336"></trkpt>
      <trkpt lat="42.6877" lon="18.05382"></trkpt>
      <trkpt lat="42.68767" lon="18.05354"></trkpt>
      <trkpt lat="42.68759" lon="18.05319"></trkpt>
      <trkpt lat="42.6879" lon="18.05334"></trkpt>
      <trkpt lat="42.68836" lon="18.05299"></trkpt>
      <trkpt lat="42.68846" lon="18.05217"></trkpt>
      <trkpt lat="42.68831" lon="18.05132"></trkpt>
      <trkpt lat="42.68862" lon="18.05048"></trkpt>
      <trkpt lat="42.68914" lon="18.04975"></trkpt>
      <trkpt lat="42.68974" lon="18.04906"></trkpt>
      <trkpt lat="42.69032" lon="18.04836"></trkpt>
      <trkpt lat="42.69078" lon="18.04752"></trkpt>
      <trkpt lat="42.69146" lon="18.04719"></trkpt>
      <trkpt lat="42.69216" lon="18.04715"></trkpt>
      <trkpt lat="42.69285" lon="18.04707"></trkpt>
      <trkpt lat="42.69343" lon="18.04666"></trkpt>
      <trkpt lat="42.6937" lon="18.04603"></trkpt>
      <trkpt lat="42.69407" lon="18.04548"></trkpt>
      <trkpt lat="42.69449" lon="18.04524"></trkpt>
      <trkpt lat="42.69494" lon="18.0452"></trkpt>
      <trkpt lat="42.69538" lon="18.04543"></trkpt>
      <trkpt lat="42.69575" lon="18.04583"></trkpt>
      <trkpt lat="42.69611" lon="18.0462"></trkpt>
      <trkpt lat="42.69655" lon="18.04634"></trkpt>
      <trkpt lat="42.69695" lon="18.04626"></trkpt>
      <trkpt lat="42.69735" lon="18.0461"></trkpt>
      <trkpt lat="42.69779" lon="18.04602"></trkpt>
      <trkpt lat="42.69828" lon="18.0462"></trkpt>
      <trkpt lat="42.69864" lon="18.04641"></trkpt>
      <trkpt lat="42.69903" lon="18.04658"></trkpt>
      <trkpt lat="42.6994" lon="18.04661"></trkpt>
      <trkpt lat="42.69981" lon="18.04648"></trkpt>
      <trkpt lat="42.70023" lon="18.04636"></trkpt>
      <trkpt lat="42.70063" lon="18.04614"></trkpt>
      <trkpt lat="42.70108" lon="18.04602"></trkpt>
      <trkpt lat="42.70146" lon="18.04593"></trkpt>
      <trkpt lat="42.70186" lon="18.04577"></trkpt>
      <trkpt lat="42.70217" lon="18.04538"></trkpt>
      <trkpt lat="42.70246" lon="18.04481"></trkpt>
      <trkpt lat="42.70255" lon="18.04418"></trkpt>
      <trkpt lat="42.70249" lon="18.04361"></trkpt>
      <trkpt lat="42.70227" lon="18.04312"></trkpt>
      <trkpt lat="42.70196" lon="18.04261"></trkpt>
      <trkpt lat="42.70177" lon="18.04199"></trkpt>
      <trkpt lat="42.70157" lon="18.04134"></trkpt>
      <trkpt lat="42.70142" lon="18.0408"></trkpt>
      <trkpt lat="42.7012" lon="18.04038"></trkpt>
      <trkpt lat="42.70087" lon="18.03993"></trkpt>
      <trkpt lat="42.7005" lon="18.03961"></trkpt>
      <trkpt lat="42.70011" lon="18.03934"></trkpt>
      <trkpt lat="42.69967" lon="18.03909"></trkpt>
      <trkpt lat="42.69918" lon="18.03897"></trkpt>
      <trkpt lat="42.69869" lon="18.03886"></trkpt>
      <trkpt lat="42.69824" lon="18.039"></trkpt>
      <trkpt lat="42.69773" lon="18.03931"></trkpt>
      <trkpt lat="42.69714" lon="18.03938"></trkpt>
      <trkpt lat="42.69654" lon="18.039"></trkpt>
      <trkpt lat="42.69605" lon="18.03867"></trkpt>
      <trkpt lat="42.69557" lon="18.03887"></trkpt>
      <trkpt lat="42.69527" lon="18.03949"></trkpt>
      <trkpt lat="42.69521" lon="18.0401"></trkpt>
      <trkpt lat="42.69514" lon="18.04071"></trkpt>
      <trkpt lat="42.69484" lon="18.04121"></trkpt>
      <trkpt lat="42.69431" lon="18.04143"></trkpt>
      <trkpt lat="42.69385" lon="18.04135"></trkpt>
      <trkpt lat="42.69337" lon="18.04119"></trkpt>
      <trkpt lat="42.69298" lon="18.04095"></trkpt>
      <trkpt lat="42.69272" lon="18.04049"></trkpt>
      <trkpt lat="42.69261" lon="18.03999"></trkpt>
      <trkpt lat="42.69241" lon="18.03953"></trkpt>
      <trkpt lat="42.69218" lon="18.03898"></trkpt>
      <trkpt lat="42.69173" lon="18.0387"></trkpt>
      <trkpt lat="42.69145" lon="18.03828"></trkpt>
      <trkpt lat="42.69107" lon="18.03789"></trkpt>
      <trkpt lat="42.69074" lon="18.03751"></trkpt>
      <trkpt lat="42.69058" lon="18.03701"></trkpt>
      <trkpt lat="42.6905" lon="18.03644"></trkpt>
      <trkpt lat="42.69053" lon="18.03589"></trkpt>
      <trkpt lat="42.69051" lon="18.03529"></trkpt>
      <trkpt lat="42.6905" lon="18.03472"></trkpt>
      <trkpt lat="42.69028" lon="18.03425"></trkpt>
      <trkpt lat="42.69013" lon="18.0337"></trkpt>
      <trkpt lat="42.69008" lon="18.03313"></trkpt>
      <trkpt lat="42.69016" lon="18.03255"></trkpt>
      <trkpt lat="42.69032" lon="18.03202"></trkpt>
      <trkpt lat="42.69052" lon="18.03151"></trkpt>
      <trkpt lat="42.69071" lon="18.03102"></trkpt>
      <trkpt lat="42.6909" lon="18.03054"></trkpt>
      <trkpt lat="42.6911" lon="18.03006"></trkpt>
      <trkpt lat="42.69135" lon="18.02956"></trkpt>
      <trkpt lat="42.69159" lon="18.02907"></trkpt>
      <trkpt lat="42.69176" lon="18.02857"></trkpt>
      <trkpt lat="42.69185" lon="18.02805"></trkpt>
      <trkpt lat="42.69185" lon="18.02747"></trkpt>
      <trkpt lat="42.69188" lon="18.02691"></trkpt>
      <trkpt lat="42.69193" lon="18.02636"></trkpt>
      <trkpt lat="42.69201" lon="18.02579"></trkpt>
      <trkpt lat="42.69214" lon="18.02526"></trkpt>
      <trkpt lat="42.69226" lon="18.02476"></trkpt>
      <trkpt lat="42.69239" lon="18.02423"></trkpt>
      <trkpt lat="42.69254" lon="18.02365"></trkpt>
      <trkpt lat="42.69271" lon="18.02304"></trkpt>
      <trkpt lat="42.69306" lon="18.02265"></trkpt>
      <trkpt lat="42.69339" lon="18.02229"></trkpt>
      <trkpt lat="42.69368" lon="18.02184"></trkpt>
      <trkpt lat="42.69398" lon="18.02135"></trkpt>
      <trkpt lat="42.69434" lon="18.02097"></trkpt>
      <trkpt lat="42.69469" lon="18.02073"></trkpt>
    </trkseg>
  </trk>
  <trk>
    <name>День 5</name>
    <trkseg>
      <trkpt lat="43.1678" lon="17.20738"></trkpt>
      <trkpt lat="43.17129" lon="17.20077"></trkpt>
      <trkpt lat="43.17231" lon="17.1921"></trkpt>
      <trkpt lat="43.17327" lon="17.18482"></trkpt>
      <trkpt lat="43.17433" lon="17.17648"></trkpt>
      <trkpt lat="43.17798" lon="17.16738"></trkpt>
      <trkpt lat="43.18467" lon="17.16427"></trkpt>
      <trkpt lat="43.1898" lon="17.16199"></trkpt>
      <trkpt lat="43.19305" lon="17.15832"></trkpt>
      <trkpt lat="43.19665" lon="17.15101"></trkpt>
      <trkpt lat="43.19916" lon="17.14425"></trkpt>
      <trkpt lat="43.2003" lon="17.13759"></trkpt>
      <trkpt lat="43.20333" lon="17.1323"></trkpt>
      <trkpt lat="43.20613" lon="17.12519"></trkpt>
      <trkpt lat="43.20935" lon="17.11833"></trkpt>
      <trkpt lat="43.21534" lon="17.1147"></trkpt>
      <trkpt lat="43.22257" lon="17.11086"></trkpt>
      <trkpt lat="43.2279" lon="17.10677"></trkpt>
      <trkpt lat="43.22994" lon="17.09789"></trkpt>
      <trkpt lat="43.2308" lon="17.09097"></trkpt>
      <trkpt lat="43.23396" lon="17.08531"></trkpt>
      <trkpt lat="43.23634" lon="17.07938"></trkpt>
      <trkpt lat="43.24224" lon="17.07719"></trkpt>
      <trkpt lat="43.2452" lon="17.07277"></trkpt>
      <trkpt lat="43.24737" lon="17.06721"></trkpt>
      <trkpt lat="43.25153" lon="17.06359"></trkpt>
      <trkpt lat="43.25653" lon="17.06236"></trkpt>
      <trkpt lat="43.26215" lon="17.06127"></trkpt>
      <trkpt lat="43.26743" lon="17.05621"></trkpt>
      <trkpt lat="43.27396" lon="17.05231"></trkpt>
      <trkpt lat="43.27664" lon="17.04483"></trkpt>
      <trkpt lat="43.27811" lon="17.03878"></trkpt>
      <trkpt lat="43.28419" lon="17.03255"></trkpt>
      <trkpt lat="43.28649" lon="17.03285"></trkpt>
      <trkpt lat="43.28596" lon="17.03294"></trkpt>
      <trkpt lat="43.28799" lon="17.02778"></trkpt>
      <trkpt lat="43.29431" lon="17.02114"></trkpt>
      <trkpt lat="43.30063" lon="17.01474"></trkpt>
      <trkpt lat="43.30529" lon="17.00903"></trkpt>
      <trkpt lat="43.31037" lon="17.00553"></trkpt>
      <trkpt lat="43.31669" lon="17.00119"></trkpt>
      <trkpt lat="43.31823" lon="16.99585"></trkpt>
      <trkpt lat="43.32393" lon="16.99009"></trkpt>
      <trkpt lat="43.32858" lon="16.98802"></trkpt>
      <trkpt lat="43.32883" lon="16.98269"></trkpt>
      <trkpt lat="43.33438" lon="16.97794"></trkpt>
      <trkpt lat="43.33954" lon="16.97419"></trkpt>
      <trkpt lat="43.34409" lon="16.97154"></trkpt>
      <trkpt lat="43.34762" lon="16.96698"></trkpt>
      <trkpt lat="43.35267" lon="16.95917"></trkpt>
      <trkpt lat="43.3587" lon="16.95417"></trkpt>
      <trkpt lat="43.36229" lon="16.94602"></trkpt>
      <trkpt lat="43.36629" lon="16.93857"></trkpt>
      <trkpt lat="43.37175" lon="16.93198"></trkpt>
      <trkpt lat="43.37544" lon="16.92457"></trkpt>
      <trkpt lat="43.38145" lon="16.92094"></trkpt>
      <trkpt lat="43.38408" lon="16.91402"></trkpt>
      <trkpt lat="43.38688" lon="16.90827"></trkpt>
      <trkpt lat="43.39142" lon="16.90003"></trkpt>
      <trkpt lat="43.39582" lon="16.89558"></trkpt>
      <trkpt lat="43.39993" lon="16.89361"></trkpt>
      <trkpt lat="43.40219" lon="16.89208"></trkpt>
      <trkpt lat="43.40393" lon="16.88349"></trkpt>
      <trkpt lat="43.40011" lon="16.87582"></trkpt>
      <trkpt lat="43.40134" lon="16.86503"></trkpt>
      <trkpt lat="43.40231" lon="16.85549"></trkpt>
      <trkpt lat="43.40371" lon="16.84648"></trkpt>
      <trkpt lat="43.40282" lon="16.83781"></trkpt>
      <trkpt lat="43.40236" lon="16.8268"></trkpt>
      <trkpt lat="43.40369" lon="16.8179"></trkpt>
      <trkpt lat="43.40482" lon="16.81128"></trkpt>
      <trkpt lat="43.40453" lon="16.80435"></trkpt>
      <trkpt lat="43.40409" lon="16.79309"></trkpt>
      <trkpt lat="43.40665" lon="16.78765"></trkpt>
      <trkpt lat="43.40752" lon="16.77524"></trkpt>
      <trkpt lat="43.40935" lon="16.76443"></trkpt>
      <trkpt lat="43.40815" lon="16.75425"></trkpt>
      <trkpt lat="43.41024" lon="16.74461"></trkpt>
      <trkpt lat="43.41312" lon="16.73472"></trkpt>
      <trkpt lat="43.41434" lon="16.72625"></trkpt>
      <trkpt lat="43.41715" lon="16.71935"></trkpt>
      <trkpt lat="43.424" lon="16.71291"></trkpt>
      <trkpt lat="43.42975" lon="16.7086"></trkpt>
      <trkpt lat="43.43605" lon="16.70299"></trkpt>
      <trkpt lat="43.44142" lon="16.69619"></trkpt>
      <trkpt lat="43.44275" lon="16.68978"></trkpt>
      <trkpt lat="43.44451" lon="16.68571"></trkpt>
      <trkpt lat="43.44024" lon="16.67485"></trkpt>
      <trkpt lat="43.43938" lon="16.66515"></trkpt>
      <trkpt lat="43.4415" lon="16.65577"></trkpt>
      <trkpt lat="43.43998" lon="16.64717"></trkpt>
      <trkpt lat="43.44333" lon="16.64312"></trkpt>
      <trkpt lat="43.44629" lon="16.63498"></trkpt>
      <trkpt lat="43.44822" lon="16.62832"></trkpt>
      <trkpt lat="43.45275" lon="16.62388"></trkpt>
      <trkpt lat="43.45534" lon="16.61734"></trkpt>
      <trkpt lat="43.45771" lon="16.61039"></trkpt>
      <trkpt lat="43.46022" lon="16.60368"></trkpt>
      <trkpt lat="43.46051" lon="16.59657"></trkpt>
      <trkpt lat="43.46454" lon="16.58863"></trkpt>
      <trkpt lat="43.46473" lon="16.58121"></trkpt>
      <trkpt lat="43.4688" lon="16.57615"></trkpt>
      <trkpt lat="43.4733" lon="16.56993"></trkpt>
      <trkpt lat="43.47653" lon="16.56349"></trkpt>
      <trkpt lat="43.48128" lon="16.55789"></trkpt>
      <trkpt lat="43.48486" lon="16.55075"></trkpt>
      <trkpt lat="43.48826" lon="16.54536"></trkpt>
      <trkpt lat="43.49426" lon="16.53897"></trkpt>
      <trkpt lat="43.50058" lon="16.53516"></trkpt>
      <trkpt lat="43.50551" lon="16.5297"></trkpt>
      <trkpt lat="43.50584" lon="16.51752"></trkpt>
      <trkpt lat="43.50576" lon="16.5098"></trkpt>
      <trkpt lat="43.50762" lon="16.50167"></trkpt>
      <trkpt lat="43.50914" lon="16.49464"></trkpt>
      <trkpt lat="43.51122" lon="16.48649"></trkpt>
      <trkpt lat="43.50973" lon="16.4764"></trkpt>
      <trkpt lat="43.50705" lon="16.46691"></trkpt>
      <trkpt lat="43.5051" lon="16.45513"></trkpt>
      <trkpt lat="43.50618" lon="16.44558"></trkpt>
      <trkpt lat="43.50671" lon="16.43929"></trkpt>
      <trkpt lat="43.50331" lon="16.44277"></trkpt>
    </trkseg>
  </trk>
  <trk>
    <name>День 6</name>
    <trkseg>
      <trkpt lat="43.62008" lon="13.50974"></trkpt>
      <trkpt lat="43.61948" lon="13.5128"></trkpt>
      <trkpt lat="43.61728" lon="13.51868"></trkpt>
      <trkpt lat="43.6181" lon="13.51048"></trkpt>
      <trkpt lat="43.61761" lon="13.50784"></trkpt>
      <trkpt lat="43.6118" lon="13.50408"></trkpt>
      <trkpt lat="43.60709" lon="13.49764"></trkpt>
      <trkpt lat="43.60595" lon="13.48996"></trkpt>
      <trkpt lat="43.6065" lon="13.48029"></trkpt>
      <trkpt lat="43.60784" lon="13.46919"></trkpt>
      <trkpt lat="43.60871" lon="13.46045"></trkpt>
      <trkpt lat="43.61019" lon="13.45392"></trkpt>
      <trkpt lat="43.61315" lon="13.44336"></trkpt>
      <trkpt lat="43.61623" lon="13.43216"></trkpt>
      <trkpt lat="43.61977" lon="13.42208"></trkpt>
      <trkpt lat="43.62427" lon="13.41086"></trkpt>
      <trkpt lat="43.62845" lon="13.40123"></trkpt>
      <trkpt lat="43.63211" lon="13.39078"></trkpt>
      <trkpt lat="43.62937" lon="13.3863"></trkpt>
      <trkpt lat="43.63718" lon="13.37656"></trkpt>
      <trkpt lat="43.64173" lon="13.36657"></trkpt>
      <trkpt lat="43.64619" lon="13.35998"></trkpt>
      <trkpt lat="43.64884" lon="13.35292"></trkpt>
      <trkpt lat="43.65046" lon="13.34905"></trkpt>
      <trkpt lat="43.65342" lon="13.34224"></trkpt>
      <trkpt lat="43.65709" lon="13.33314"></trkpt>
      <trkpt lat="43.66074" lon="13.32456"></trkpt>
      <trkpt lat="43.66419" lon="13.3163"></trkpt>
      <trkpt lat="43.66812" lon="13.30759"></trkpt>
      <trkpt lat="43.67231" lon="13.29898"></trkpt>
      <trkpt lat="43.67658" lon="13.29046"></trkpt>
      <trkpt lat="43.68095" lon="13.28179"></trkpt>
      <trkpt lat="43.68552" lon="13.27357"></trkpt>
      <trkpt lat="43.69028" lon="13.26495"></trkpt>
      <trkpt lat="43.69555" lon="13.25624"></trkpt>
      <trkpt lat="43.70088" lon="13.24741"></trkpt>
      <trkpt lat="43.70631" lon="13.23834"></trkpt>
      <trkpt lat="43.71276" lon="13.2287"></trkpt>
      <trkpt lat="43.71841" lon="13.22189"></trkpt>
      <trkpt lat="43.72117" lon="13.21751"></trkpt>
      <trkpt lat="43.72586" lon="13.20814"></trkpt>
      <trkpt lat="43.7313" lon="13.19948"></trkpt>
      <trkpt lat="43.73756" lon="13.19033"></trkpt>
      <trkpt lat="43.744" lon="13.18151"></trkpt>
      <trkpt lat="43.74783" lon="13.17378"></trkpt>
      <trkpt lat="43.75032" lon="13.16704"></trkpt>
      <trkpt lat="43.75531" lon="13.16273"></trkpt>
      <trkpt lat="43.75993" lon="13.15606"></trkpt>
      <trkpt lat="43.76476" lon="13.14769"></trkpt>
      <trkpt lat="43.76956" lon="13.13969"></trkpt>
      <trkpt lat="43.77434" lon="13.13172"></trkpt>
      <trkpt lat="43.77947" lon="13.12387"></trkpt>
      <trkpt lat="43.78456" lon="13.11661"></trkpt>
      <trkpt lat="43.78964" lon="13.10791"></trkpt>
      <trkpt lat="43.79488" lon="13.10045"></trkpt>
      <trkpt lat="43.7987" lon="13.095"></trkpt>
      <trkpt lat="43.80424" lon="13.08832"></trkpt>
      <trkpt lat="43.80792" lon="13.08045"></trkpt>
      <trkpt lat="43.81597" lon="13.07016"></trkpt>
      <trkpt lat="43.82358" lon="13.06024"></trkpt>
      <trkpt lat="43.82834" lon="13.05033"></trkpt>
      <trkpt lat="43.83464" lon="13.03892"></trkpt>
      <trkpt lat="43.8396" lon="13.03369"></trkpt>
      <trkpt lat="43.84429" lon="13.02825"></trkpt>
      <trkpt lat="43.8481" lon="13.02255"></trkpt>
      <trkpt lat="43.85099" lon="13.01557"></trkpt>
      <trkpt lat="43.85229" lon="13.00752"></trkpt>
      <trkpt lat="43.85657" lon="13.0007"></trkpt>
      <trkpt lat="43.86082" lon="12.99351"></trkpt>
      <trkpt lat="43.86502" lon="12.9862"></trkpt>
      <trkpt lat="43.86908" lon="12.98004"></trkpt>
      <trkpt lat="43.87334" lon="12.9735"></trkpt>
      <trkpt lat="43.88024" lon="12.96299"></trkpt>
      <trkpt lat="43.88583" lon="12.95648"></trkpt>
      <trkpt lat="43.8916" lon="12.94843"></trkpt>
      <trkpt lat="43.89827" lon="12.94024"></trkpt>
      <trkpt lat="43.90382" lon="12.93239"></trkpt>
      <trkpt lat="43.90875" lon="12.92506"></trkpt>
      <trkpt lat="43.91422" lon="12.91842"></trkpt>
      <trkpt lat="43.91827" lon="12.91163"></trkpt>
      <trkpt lat="43.91709" lon="12.90597"></trkpt>
      <trkpt lat="43.91889" lon="12.8975"></trkpt>
      <trkpt lat="43.91889" lon="12.89452"></trkpt>
      <trkpt lat="43.91839" lon="12.89306"></trkpt>
      <trkpt lat="43.91954" lon="12.89031"></trkpt>
      <trkpt lat="43.92137" lon="12.88444"></trkpt>
      <trkpt lat="43.92761" lon="12.87637"></trkpt>
      <trkpt lat="43.93042" lon="12.86956"></trkpt>
      <trkpt lat="43.93358" lon="12.86478"></trkpt>
      <trkpt lat="43.93463" lon="12.85724"></trkpt>
      <trkpt lat="43.93784" lon="12.85289"></trkpt>
      <trkpt lat="43.94169" lon="12.848"></trkpt>
      <trkpt lat="43.94002" lon="12.83978"></trkpt>
      <trkpt lat="43.94523" lon="12.83527"></trkpt>
      <trkpt lat="43.94816" lon="12.82858"></trkpt>
      <trkpt lat="43.94952" lon="12.82218"></trkpt>
      <trkpt lat="43.95423" lon="12.8158"></trkpt>
      <trkpt lat="43.95604" lon="12.80992"></trkpt>
      <trkpt lat="43.95827" lon="12.80531"></trkpt>
      <trkpt lat="43.9585" lon="12.79636"></trkpt>
      <trkpt lat="43.95806" lon="12.7915"></trkpt>
      <trkpt lat="43.95761" lon="12.7871"></trkpt>
      <trkpt lat="43.95925" lon="12.78313"></trkpt>
      <trkpt lat="43.96299" lon="12.7783"></trkpt>
      <trkpt lat="43.96358" lon="12.77147"></trkpt>
      <trkpt lat="43.96079" lon="12.76403"></trkpt>
      <trkpt lat="43.95888" lon="12.75841"></trkpt>
      <trkpt lat="43.96158" lon="12.75645"></trkpt>
      <trkpt lat="43.96606" lon="12.75302"></trkpt>
      <trkpt lat="43.96544" lon="12.75025"></trkpt>
      <trkpt lat="43.96718" lon="12.7426"></trkpt>
      <trkpt lat="43.96749" lon="12.73387"></trkpt>
      <trkpt lat="43.96967" lon="12.72541"></trkpt>
      <trkpt lat="43.96929" lon="12.71919"></trkpt>
      <trkpt lat="43.97131" lon="12.71275"></trkpt>
      <trkpt lat="43.97556" lon="12.70924"></trkpt>
      <trkpt lat="43.97892" lon="12.70234"></trkpt>
      <trkpt lat="43.98247" lon="12.69477"></trkpt>
      <trkpt lat="43.9861" lon="12.68796"></trkpt>
      <trkpt lat="43.9899" lon="12.68116"></trkpt>
      <trkpt lat="43.99357" lon="12.67678"></trkpt>
    </trkseg>
  </trk>
  <trk>
    <name>День 7</name>
    <trkseg>
      <trkpt lat="43.9936" lon="12.67679"></trkpt>
      <trkpt lat="43.9959" lon="12.67139"></trkpt>
      <trkpt lat="43.99834" lon="12.66661"></trkpt>
      <trkpt lat="43.99926" lon="12.66759"></trkpt>
      <trkpt lat="44.00143" lon="12.66398"></trkpt>
      <trkpt lat="44.00571" lon="12.65747"></trkpt>
      <trkpt lat="44.00647" lon="12.65323"></trkpt>
      <trkpt lat="44.00896" lon="12.64999"></trkpt>
      <trkpt lat="44.01018" lon="12.64842"></trkpt>
      <trkpt lat="44.0074" lon="12.65202"></trkpt>
      <trkpt lat="44.00492" lon="12.6552"></trkpt>
      <trkpt lat="44.00621" lon="12.6535"></trkpt>
      <trkpt lat="44.00903" lon="12.64988"></trkpt>
      <trkpt lat="44.01133" lon="12.64648"></trkpt>
      <trkpt lat="44.0097" lon="12.64379"></trkpt>
      <trkpt lat="44.0075" lon="12.63961"></trkpt>
      <trkpt lat="44.00518" lon="12.63446"></trkpt>
      <trkpt lat="44.00322" lon="12.63432"></trkpt>
      <trkpt lat="44.00017" lon="12.63164"></trkpt>
      <trkpt lat="43.9952" lon="12.62509"></trkpt>
      <trkpt lat="43.99219" lon="12.62063"></trkpt>
      <trkpt lat="43.99074" lon="12.61169"></trkpt>
      <trkpt lat="43.99113" lon="12.60384"></trkpt>
      <trkpt lat="43.9945" lon="12.60109"></trkpt>
      <trkpt lat="43.99749" lon="12.59749"></trkpt>
      <trkpt lat="43.99497" lon="12.59406"></trkpt>
      <trkpt lat="43.99095" lon="12.58693"></trkpt>
      <trkpt lat="43.99015" lon="12.58076"></trkpt>
      <trkpt lat="43.98851" lon="12.57343"></trkpt>
      <trkpt lat="43.98469" lon="12.5698"></trkpt>
      <trkpt lat="43.98317" lon="12.5655"></trkpt>
      <trkpt lat="43.98522" lon="12.55871"></trkpt>
      <trkpt lat="43.98623" lon="12.55063"></trkpt>
      <trkpt lat="43.98679" lon="12.54166"></trkpt>
      <trkpt lat="43.98322" lon="12.53581"></trkpt>
      <trkpt lat="43.97896" lon="12.53557"></trkpt>
      <trkpt lat="43.97713" lon="12.52764"></trkpt>
      <trkpt lat="43.97492" lon="12.52033"></trkpt>
      <trkpt lat="43.97114" lon="12.51371"></trkpt>
      <trkpt lat="43.96379" lon="12.51031"></trkpt>
      <trkpt lat="43.95598" lon="12.50624"></trkpt>
      <trkpt lat="43.95265" lon="12.50673"></trkpt>
      <trkpt lat="43.95097" lon="12.49874"></trkpt>
      <trkpt lat="43.95036" lon="12.48895"></trkpt>
      <trkpt lat="43.9499" lon="12.47797"></trkpt>
      <trkpt lat="43.95217" lon="12.47341"></trkpt>
      <trkpt lat="43.95259" lon="12.46774"></trkpt>
      <trkpt lat="43.94847" lon="12.46404"></trkpt>
      <trkpt lat="43.94663" lon="12.45895"></trkpt>
      <trkpt lat="43.94544" lon="12.45393"></trkpt>
      <trkpt lat="43.94376" lon="12.44764"></trkpt>
      <trkpt lat="43.94205" lon="12.4443"></trkpt>
      <trkpt lat="43.94088" lon="12.44451"></trkpt>
      <trkpt lat="43.94024" lon="12.44585"></trkpt>
      <trkpt lat="43.94071" lon="12.44342"></trkpt>
      <trkpt lat="43.94324" lon="12.44601"></trkpt>
      <trkpt lat="43.94501" lon="12.45071"></trkpt>
      <trkpt lat="43.95114" lon="12.45388"></trkpt>
      <trkpt lat="43.9547" lon="12.45661"></trkpt>
      <trkpt lat="43.95801" lon="12.45964"></trkpt>
      <trkpt lat="43.96127" lon="12.46172"></trkpt>
      <trkpt lat="43.96274" lon="12.46411"></trkpt>
      <trkpt lat="43.96575" lon="12.46634"></trkpt>
      <trkpt lat="43.96781" lon="12.4693"></trkpt>
      <trkpt lat="43.96868" lon="12.4721"></trkpt>
      <trkpt lat="43.97041" lon="12.47773"></trkpt>
      <trkpt lat="43.97342" lon="12.48187"></trkpt>
      <trkpt lat="43.97681" lon="12.48548"></trkpt>
      <trkpt lat="43.98063" lon="12.48804"></trkpt>
      <trkpt lat="43.98242" lon="12.49033"></trkpt>
      <trkpt lat="43.98436" lon="12.48948"></trkpt>
      <trkpt lat="43.9856" lon="12.48543"></trkpt>
      <trkpt lat="43.98824" lon="12.48183"></trkpt>
      <trkpt lat="43.99035" lon="12.4785"></trkpt>
      <trkpt lat="43.99158" lon="12.47483"></trkpt>
      <trkpt lat="43.99727" lon="12.47353"></trkpt>
      <trkpt lat="44.00025" lon="12.47077"></trkpt>
      <trkpt lat="44.0049" lon="12.46822"></trkpt>
      <trkpt lat="44.01079" lon="12.46716"></trkpt>
      <trkpt lat="44.01468" lon="12.46703"></trkpt>
      <trkpt lat="44.01558" lon="12.4657"></trkpt>
      <trkpt lat="44.01682" lon="12.46515"></trkpt>
      <trkpt lat="44.02278" lon="12.45885"></trkpt>
      <trkpt lat="44.02576" lon="12.46132"></trkpt>
      <trkpt lat="44.03107" lon="12.46911"></trkpt>
      <trkpt lat="44.03527" lon="12.46167"></trkpt>
      <trkpt lat="44.04709" lon="12.45306"></trkpt>
      <trkpt lat="44.05248" lon="12.4519"></trkpt>
      <trkpt lat="44.06002" lon="12.45087"></trkpt>
      <trkpt lat="44.06134" lon="12.44718"></trkpt>
      <trkpt lat="44.06325" lon="12.44557"></trkpt>
      <trkpt lat="44.06224" lon="12.44583"></trkpt>
      <trkpt lat="44.0655" lon="12.44916"></trkpt>
      <trkpt lat="44.07014" lon="12.43444"></trkpt>
      <trkpt lat="44.07706" lon="12.42524"></trkpt>
      <trkpt lat="44.08715" lon="12.41637"></trkpt>
      <trkpt lat="44.09226" lon="12.40667"></trkpt>
      <trkpt lat="44.09273" lon="12.3938"></trkpt>
      <trkpt lat="44.09188" lon="12.3829"></trkpt>
      <trkpt lat="44.0937" lon="12.36534"></trkpt>
      <trkpt lat="44.0992" lon="12.3483"></trkpt>
      <trkpt lat="44.10286" lon="12.33894"></trkpt>
      <trkpt lat="44.10528" lon="12.33327"></trkpt>
      <trkpt lat="44.10956" lon="12.31906"></trkpt>
      <trkpt lat="44.11458" lon="12.30679"></trkpt>
      <trkpt lat="44.11862" lon="12.30075"></trkpt>
      <trkpt lat="44.11895" lon="12.30185"></trkpt>
      <trkpt lat="44.12143" lon="12.29137"></trkpt>
      <trkpt lat="44.1276" lon="12.27744"></trkpt>
      <trkpt lat="44.13261" lon="12.2693"></trkpt>
      <trkpt lat="44.13602" lon="12.26626"></trkpt>
      <trkpt lat="44.13829" lon="12.25987"></trkpt>
      <trkpt lat="44.13985" lon="12.2553"></trkpt>
      <trkpt lat="44.14171" lon="12.25004"></trkpt>
      <trkpt lat="44.1439" lon="12.24353"></trkpt>
      <trkpt lat="44.14482" lon="12.24076"></trkpt>
      <trkpt lat="44.14396" lon="12.2365"></trkpt>
      <trkpt lat="44.14809" lon="12.23458"></trkpt>
      <trkpt lat="44.15113" lon="12.23521"></trkpt>
      <trkpt lat="44.15737" lon="12.23526"></trkpt>
      <trkpt lat="44.16038" lon="12.23748"></trkpt>
    </trkseg>
  </trk>
  <trk>
    <name>День 8</name>
    <trkseg>
      <trkpt lat="44.1604" lon="12.23753"></trkpt>
      <trkpt lat="44.15575" lon="12.23589"></trkpt>
      <trkpt lat="44.1495" lon="12.23489"></trkpt>
      <trkpt lat="44.14405" lon="12.23548"></trkpt>
      <trkpt lat="44.14329" lon="12.2275"></trkpt>
      <trkpt lat="44.14518" lon="12.21969"></trkpt>
      <trkpt lat="44.1474" lon="12.21037"></trkpt>
      <trkpt lat="44.1515" lon="12.20361"></trkpt>
      <trkpt lat="44.15717" lon="12.19404"></trkpt>
      <trkpt lat="44.16351" lon="12.18465"></trkpt>
      <trkpt lat="44.16779" lon="12.17173"></trkpt>
      <trkpt lat="44.17303" lon="12.15902"></trkpt>
      <trkpt lat="44.17633" lon="12.15114"></trkpt>
      <trkpt lat="44.17968" lon="12.14312"></trkpt>
      <trkpt lat="44.18269" lon="12.13586"></trkpt>
      <trkpt lat="44.18501" lon="12.12911"></trkpt>
      <trkpt lat="44.18824" lon="12.12428"></trkpt>
      <trkpt lat="44.18672" lon="12.1242"></trkpt>
      <trkpt lat="44.18679" lon="12.12471"></trkpt>
      <trkpt lat="44.19029" lon="12.11823"></trkpt>
      <trkpt lat="44.19331" lon="12.1113"></trkpt>
      <trkpt lat="44.19641" lon="12.10279"></trkpt>
      <trkpt lat="44.19997" lon="12.09532"></trkpt>
      <trkpt lat="44.20277" lon="12.08747"></trkpt>
      <trkpt lat="44.2057" lon="12.08046"></trkpt>
      <trkpt lat="44.20686" lon="12.0768"></trkpt>
      <trkpt lat="44.2077" lon="12.07526"></trkpt>
      <trkpt lat="44.21082" lon="12.0681"></trkpt>
      <trkpt lat="44.21426" lon="12.05977"></trkpt>
      <trkpt lat="44.2176" lon="12.05165"></trkpt>
      <trkpt lat="44.22243" lon="12.04769"></trkpt>
      <trkpt lat="44.22811" lon="12.04252"></trkpt>
      <trkpt lat="44.22886" lon="12.04139"></trkpt>
      <trkpt lat="44.22853" lon="12.0314"></trkpt>
      <trkpt lat="44.2294" lon="12.02345"></trkpt>
      <trkpt lat="44.23179" lon="12.01681"></trkpt>
      <trkpt lat="44.23557" lon="12.00749"></trkpt>
      <trkpt lat="44.23904" lon="11.9989"></trkpt>
      <trkpt lat="44.24301" lon="11.98908"></trkpt>
      <trkpt lat="44.24666" lon="11.98006"></trkpt>
      <trkpt lat="44.25022" lon="11.97147"></trkpt>
      <trkpt lat="44.25439" lon="11.96107"></trkpt>
      <trkpt lat="44.25871" lon="11.95041"></trkpt>
      <trkpt lat="44.26318" lon="11.93938"></trkpt>
      <trkpt lat="44.26766" lon="11.92837"></trkpt>
      <trkpt lat="44.27213" lon="11.91731"></trkpt>
      <trkpt lat="44.27656" lon="11.90636"></trkpt>
      <trkpt lat="44.28075" lon="11.896"></trkpt>
      <trkpt lat="44.28385" lon="11.88839"></trkpt>
      <trkpt lat="44.28652" lon="11.88427"></trkpt>
      <trkpt lat="44.2908" lon="11.88235"></trkpt>
      <trkpt lat="44.29047" lon="11.872"></trkpt>
      <trkpt lat="44.29475" lon="11.86146"></trkpt>
      <trkpt lat="44.29809" lon="11.85329"></trkpt>
      <trkpt lat="44.30208" lon="11.84322"></trkpt>
      <trkpt lat="44.30678" lon="11.83148"></trkpt>
      <trkpt lat="44.31237" lon="11.82037"></trkpt>
      <trkpt lat="44.31655" lon="11.80738"></trkpt>
      <trkpt lat="44.32108" lon="11.79587"></trkpt>
      <trkpt lat="44.32561" lon="11.78476"></trkpt>
      <trkpt lat="44.32975" lon="11.77437"></trkpt>
      <trkpt lat="44.33429" lon="11.76285"></trkpt>
      <trkpt lat="44.33892" lon="11.75113"></trkpt>
      <trkpt lat="44.34413" lon="11.73931"></trkpt>
      <trkpt lat="44.34573" lon="11.72612"></trkpt>
      <trkpt lat="44.34537" lon="11.7243"></trkpt>
      <trkpt lat="44.34314" lon="11.72294"></trkpt>
      <trkpt lat="44.34096" lon="11.71557"></trkpt>
      <trkpt lat="44.34386" lon="11.71524"></trkpt>
      <trkpt lat="44.34415" lon="11.71293"></trkpt>
      <trkpt lat="44.3442" lon="11.71549"></trkpt>
      <trkpt lat="44.34401" lon="11.72008"></trkpt>
      <trkpt lat="44.34348" lon="11.70772"></trkpt>
      <trkpt lat="44.33657" lon="11.70268"></trkpt>
      <trkpt lat="44.33999" lon="11.71006"></trkpt>
      <trkpt lat="44.34367" lon="11.72438"></trkpt>
      <trkpt lat="44.34456" lon="11.71394"></trkpt>
      <trkpt lat="44.34958" lon="11.71286"></trkpt>
      <trkpt lat="44.35473" lon="11.71097"></trkpt>
      <trkpt lat="44.35759" lon="11.70377"></trkpt>
      <trkpt lat="44.36056" lon="11.69637"></trkpt>
      <trkpt lat="44.36031" lon="11.6956"></trkpt>
      <trkpt lat="44.36319" lon="11.68905"></trkpt>
      <trkpt lat="44.36598" lon="11.68198"></trkpt>
      <trkpt lat="44.36916" lon="11.67378"></trkpt>
      <trkpt lat="44.3726" lon="11.66513"></trkpt>
      <trkpt lat="44.37662" lon="11.65483"></trkpt>
      <trkpt lat="44.38063" lon="11.64434"></trkpt>
      <trkpt lat="44.38456" lon="11.63425"></trkpt>
      <trkpt lat="44.38822" lon="11.62466"></trkpt>
      <trkpt lat="44.39263" lon="11.61319"></trkpt>
      <trkpt lat="44.39741" lon="11.60079"></trkpt>
      <trkpt lat="44.40237" lon="11.59046"></trkpt>
      <trkpt lat="44.40543" lon="11.5799"></trkpt>
      <trkpt lat="44.41019" lon="11.56766"></trkpt>
      <trkpt lat="44.41465" lon="11.55617"></trkpt>
      <trkpt lat="44.41902" lon="11.54462"></trkpt>
      <trkpt lat="44.42395" lon="11.53173"></trkpt>
      <trkpt lat="44.42821" lon="11.5206"></trkpt>
      <trkpt lat="44.43018" lon="11.5153"></trkpt>
      <trkpt lat="44.43449" lon="11.50398"></trkpt>
      <trkpt lat="44.43895" lon="11.49276"></trkpt>
      <trkpt lat="44.44209" lon="11.48379"></trkpt>
      <trkpt lat="44.44645" lon="11.47236"></trkpt>
      <trkpt lat="44.45021" lon="11.46248"></trkpt>
      <trkpt lat="44.45351" lon="11.45353"></trkpt>
      <trkpt lat="44.4569" lon="11.44399"></trkpt>
      <trkpt lat="44.46072" lon="11.43488"></trkpt>
      <trkpt lat="44.46444" lon="11.42491"></trkpt>
      <trkpt lat="44.46848" lon="11.41423"></trkpt>
      <trkpt lat="44.47239" lon="11.40395"></trkpt>
      <trkpt lat="44.47641" lon="11.39352"></trkpt>
      <trkpt lat="44.4794" lon="11.38547"></trkpt>
      <trkpt lat="44.48239" lon="11.3777"></trkpt>
      <trkpt lat="44.48573" lon="11.36891"></trkpt>
      <trkpt lat="44.48887" lon="11.36043"></trkpt>
      <trkpt lat="44.49133" lon="11.35385"></trkpt>
      <trkpt lat="44.49568" lon="11.35107"></trkpt>
      <trkpt lat="44.49387" lon="11.34513"></trkpt>
      <trkpt lat="44.49504" lon="11.34742"></trkpt>
      <trkpt lat="44.49778" lon="11.35469"></trkpt>
    </trkseg>
  </trk>
  <trk>
    <name>День 9 (сегмент 1)</name>
    <trkseg>
      <trkpt lat="44.50277" lon="11.3455"></trkpt>
      <trkpt lat="44.50239" lon="11.34652"></trkpt>
      <trkpt lat="44.50242" lon="11.34708"></trkpt>
      <trkpt lat="44.50213" lon="11.34726"></trkpt>
      <trkpt lat="44.50182" lon="11.34679"></trkpt>
      <trkpt lat="44.50145" lon="11.34658"></trkpt>
      <trkpt lat="44.50111" lon="11.34641"></trkpt>
      <trkpt lat="44.50072" lon="11.34628"></trkpt>
      <trkpt lat="44.50035" lon="11.34601"></trkpt>
      <trkpt lat="44.49999" lon="11.34581"></trkpt>
      <trkpt lat="44.4992" lon="11.34546"></trkpt>
      <trkpt lat="44.4983" lon="11.34516"></trkpt>
      <trkpt lat="44.49768" lon="11.34492"></trkpt>
      <trkpt lat="44.49717" lon="11.34516"></trkpt>
      <trkpt lat="44.49651" lon="11.34502"></trkpt>
      <trkpt lat="44.49607" lon="11.34487"></trkpt>
      <trkpt lat="44.49566" lon="11.34455"></trkpt>
      <trkpt lat="44.49538" lon="11.34433"></trkpt>
      <trkpt lat="44.4954" lon="11.3439"></trkpt>
      <trkpt lat="44.49502" lon="11.34366"></trkpt>
      <trkpt lat="44.49482" lon="11.34331"></trkpt>
      <trkpt lat="44.49474" lon="11.34273"></trkpt>
      <trkpt lat="44.49428" lon="11.34255"></trkpt>
      <trkpt lat="44.49361" lon="11.34281"></trkpt>
      <trkpt lat="44.49346" lon="11.34325"></trkpt>
      <trkpt lat="44.49338" lon="11.34351"></trkpt>
      <trkpt lat="44.49363" lon="11.34317"></trkpt>
      <trkpt lat="44.49325" lon="11.34319"></trkpt>
      <trkpt lat="44.4934" lon="11.3436"></trkpt>
      <trkpt lat="44.49332" lon="11.34414"></trkpt>
      <trkpt lat="44.49332" lon="11.34465"></trkpt>
      <trkpt lat="44.49325" lon="11.34522"></trkpt>
      <trkpt lat="44.49301" lon="11.34576"></trkpt>
      <trkpt lat="44.49323" lon="11.34637"></trkpt>
      <trkpt lat="44.49384" lon="11.34653"></trkpt>
      <trkpt lat="44.49423" lon="11.34655"></trkpt>
      <trkpt lat="44.49425" lon="11.34684"></trkpt>
      <trkpt lat="44.49421" lon="11.34678"></trkpt>
      <trkpt lat="44.49426" lon="11.34664"></trkpt>
      <trkpt lat="44.49477" lon="11.34677"></trkpt>
      <trkpt lat="44.49526" lon="11.3469"></trkpt>
      <trkpt lat="44.49585" lon="11.34684"></trkpt>
      <trkpt lat="44.49654" lon="11.34722"></trkpt>
      <trkpt lat="44.49702" lon="11.34732"></trkpt>
      <trkpt lat="44.49679" lon="11.34746"></trkpt>
      <trkpt lat="44.49662" lon="11.34799"></trkpt>
      <trkpt lat="44.49589" lon="11.34909"></trkpt>
      <trkpt lat="44.49544" lon="11.3489"></trkpt>
      <trkpt lat="44.495" lon="11.3491"></trkpt>
      <trkpt lat="44.49468" lon="11.34927"></trkpt>
      <trkpt lat="44.49365" lon="11.34937"></trkpt>
      <trkpt lat="44.49323" lon="11.34938"></trkpt>
      <trkpt lat="44.49259" lon="11.34932"></trkpt>
      <trkpt lat="44.49218" lon="11.3485"></trkpt>
      <trkpt lat="44.49181" lon="11.34844"></trkpt>
      <trkpt lat="44.49155" lon="11.34867"></trkpt>
      <trkpt lat="44.49116" lon="11.34853"></trkpt>
      <trkpt lat="44.49092" lon="11.34812"></trkpt>
      <trkpt lat="44.49089" lon="11.34769"></trkpt>
      <trkpt lat="44.49056" lon="11.34724"></trkpt>
      <trkpt lat="44.49036" lon="11.34652"></trkpt>
      <trkpt lat="44.49041" lon="11.34595"></trkpt>
      <trkpt lat="44.49061" lon="11.34501"></trkpt>
      <trkpt lat="44.49044" lon="11.34411"></trkpt>
      <trkpt lat="44.49005" lon="11.34408"></trkpt>
      <trkpt lat="44.48975" lon="11.34383"></trkpt>
      <trkpt lat="44.48956" lon="11.3444"></trkpt>
      <trkpt lat="44.48963" lon="11.3437"></trkpt>
      <trkpt lat="44.48933" lon="11.34326"></trkpt>
      <trkpt lat="44.4889" lon="11.34308"></trkpt>
      <trkpt lat="44.4886" lon="11.343"></trkpt>
      <trkpt lat="44.48858" lon="11.34243"></trkpt>
      <trkpt lat="44.48854" lon="11.34181"></trkpt>
      <trkpt lat="44.48889" lon="11.34129"></trkpt>
      <trkpt lat="44.48893" lon="11.34067"></trkpt>
      <trkpt lat="44.48963" lon="11.34086"></trkpt>
      <trkpt lat="44.49012" lon="11.34041"></trkpt>
      <trkpt lat="44.49044" lon="11.34005"></trkpt>
      <trkpt lat="44.49114" lon="11.34017"></trkpt>
      <trkpt lat="44.49206" lon="11.34016"></trkpt>
      <trkpt lat="44.49268" lon="11.34015"></trkpt>
      <trkpt lat="44.49294" lon="11.3395"></trkpt>
      <trkpt lat="44.49337" lon="11.33952"></trkpt>
      <trkpt lat="44.4939" lon="11.33944"></trkpt>
      <trkpt lat="44.49413" lon="11.33905"></trkpt>
      <trkpt lat="44.49451" lon="11.33873"></trkpt>
      <trkpt lat="44.49486" lon="11.33885"></trkpt>
      <trkpt lat="44.49543" lon="11.33896"></trkpt>
      <trkpt lat="44.49648" lon="11.33944"></trkpt>
      <trkpt lat="44.49688" lon="11.33941"></trkpt>
      <trkpt lat="44.49742" lon="11.33955"></trkpt>
      <trkpt lat="44.4978" lon="11.3397"></trkpt>
      <trkpt lat="44.49878" lon="11.33997"></trkpt>
      <trkpt lat="44.49948" lon="11.34032"></trkpt>
      <trkpt lat="44.50023" lon="11.34066"></trkpt>
      <trkpt lat="44.50094" lon="11.34097"></trkpt>
      <trkpt lat="44.5007" lon="11.34193"></trkpt>
      <trkpt lat="44.5005" lon="11.34242"></trkpt>
      <trkpt lat="44.50035" lon="11.343"></trkpt>
      <trkpt lat="44.50002" lon="11.34368"></trkpt>
      <trkpt lat="44.50001" lon="11.34446"></trkpt>
      <trkpt lat="44.50027" lon="11.34476"></trkpt>
      <trkpt lat="44.50024" lon="11.34535"></trkpt>
      <trkpt lat="44.5003" lon="11.34583"></trkpt>
      <trkpt lat="44.50056" lon="11.346"></trkpt>
      <trkpt lat="44.50084" lon="11.34632"></trkpt>
      <trkpt lat="44.50116" lon="11.34623"></trkpt>
      <trkpt lat="44.50156" lon="11.34613"></trkpt>
      <trkpt lat="44.50174" lon="11.3459"></trkpt>
      <trkpt lat="44.50211" lon="11.34606"></trkpt>
      <trkpt lat="44.5026" lon="11.34639"></trkpt>
      <trkpt lat="44.50306" lon="11.34669"></trkpt>
      <trkpt lat="44.50345" lon="11.34667"></trkpt>
      <trkpt lat="44.50348" lon="11.34607"></trkpt>
      <trkpt lat="44.50373" lon="11.34573"></trkpt>
      <trkpt lat="44.50374" lon="11.34523"></trkpt>
      <trkpt lat="44.50359" lon="11.34468"></trkpt>
      <trkpt lat="44.50358" lon="11.34477"></trkpt>
      <trkpt lat="44.50378" lon="11.34535"></trkpt>
      <trkpt lat="44.50416" lon="11.34592"></trkpt>
      <trkpt lat="44.50437" lon="11.34714"></trkpt>
    </trkseg>
  </trk>
  <trk>
    <name>День 9 (сегмент 2)</name>
    <trkseg>
      <trkpt lat="44.50471" lon="11.34578"></trkpt>
      <trkpt lat="44.505" lon="11.34524"></trkpt>
      <trkpt lat="44.50514" lon="11.34394"></trkpt>
      <trkpt lat="44.50526" lon="11.34275"></trkpt>
      <trkpt lat="44.5054" lon="11.34153"></trkpt>
      <trkpt lat="44.50565" lon="11.34038"></trkpt>
      <trkpt lat="44.50565" lon="11.33912"></trkpt>
      <trkpt lat="44.50523" lon="11.33819"></trkpt>
      <trkpt lat="44.50474" lon="11.33721"></trkpt>
      <trkpt lat="44.50426" lon="11.33624"></trkpt>
      <trkpt lat="44.50378" lon="11.33528"></trkpt>
      <trkpt lat="44.50351" lon="11.33454"></trkpt>
      <trkpt lat="44.50304" lon="11.33375"></trkpt>
      <trkpt lat="44.50261" lon="11.33292"></trkpt>
      <trkpt lat="44.50215" lon="11.33206"></trkpt>
      <trkpt lat="44.50169" lon="11.33123"></trkpt>
      <trkpt lat="44.50131" lon="11.33048"></trkpt>
      <trkpt lat="44.50094" lon="11.3297"></trkpt>
      <trkpt lat="44.50047" lon="11.32885"></trkpt>
      <trkpt lat="44.50015" lon="11.32825"></trkpt>
      <trkpt lat="44.49988" lon="11.32769"></trkpt>
      <trkpt lat="44.49957" lon="11.32707"></trkpt>
      <trkpt lat="44.49968" lon="11.32625"></trkpt>
      <trkpt lat="44.49991" lon="11.32545"></trkpt>
      <trkpt lat="44.50039" lon="11.32464"></trkpt>
      <trkpt lat="44.50058" lon="11.32374"></trkpt>
      <trkpt lat="44.50079" lon="11.32274"></trkpt>
      <trkpt lat="44.50114" lon="11.32188"></trkpt>
      <trkpt lat="44.50146" lon="11.32104"></trkpt>
      <trkpt lat="44.50177" lon="11.32037"></trkpt>
      <trkpt lat="44.50217" lon="11.31912"></trkpt>
      <trkpt lat="44.50256" lon="11.318"></trkpt>
      <trkpt lat="44.50293" lon="11.317"></trkpt>
      <trkpt lat="44.50325" lon="11.31607"></trkpt>
      <trkpt lat="44.50357" lon="11.31536"></trkpt>
      <trkpt lat="44.50389" lon="11.31439"></trkpt>
      <trkpt lat="44.50419" lon="11.31338"></trkpt>
      <trkpt lat="44.50457" lon="11.31236"></trkpt>
      <trkpt lat="44.50503" lon="11.31135"></trkpt>
      <trkpt lat="44.50536" lon="11.31035"></trkpt>
      <trkpt lat="44.50567" lon="11.30955"></trkpt>
      <trkpt lat="44.50587" lon="11.3087"></trkpt>
      <trkpt lat="44.50612" lon="11.30795"></trkpt>
      <trkpt lat="44.50648" lon="11.30689"></trkpt>
      <trkpt lat="44.50686" lon="11.30578"></trkpt>
      <trkpt lat="44.50726" lon="11.30463"></trkpt>
      <trkpt lat="44.50748" lon="11.30374"></trkpt>
      <trkpt lat="44.50766" lon="11.30277"></trkpt>
      <trkpt lat="44.50791" lon="11.30171"></trkpt>
      <trkpt lat="44.50814" lon="11.3007"></trkpt>
      <trkpt lat="44.50834" lon="11.29967"></trkpt>
      <trkpt lat="44.50859" lon="11.29859"></trkpt>
      <trkpt lat="44.50876" lon="11.2977"></trkpt>
      <trkpt lat="44.5089" lon="11.29678"></trkpt>
      <trkpt lat="44.50907" lon="11.29603"></trkpt>
      <trkpt lat="44.50929" lon="11.29506"></trkpt>
      <trkpt lat="44.50954" lon="11.29429"></trkpt>
      <trkpt lat="44.50995" lon="11.29324"></trkpt>
      <trkpt lat="44.51034" lon="11.29227"></trkpt>
      <trkpt lat="44.51071" lon="11.29128"></trkpt>
      <trkpt lat="44.51109" lon="11.29052"></trkpt>
      <trkpt lat="44.51145" lon="11.28958"></trkpt>
      <trkpt lat="44.5118" lon="11.28868"></trkpt>
      <trkpt lat="44.51206" lon="11.28808"></trkpt>
      <trkpt lat="44.51243" lon="11.28733"></trkpt>
      <trkpt lat="44.51274" lon="11.28672"></trkpt>
      <trkpt lat="44.51326" lon="11.2858"></trkpt>
      <trkpt lat="44.51374" lon="11.28491"></trkpt>
      <trkpt lat="44.51422" lon="11.2841"></trkpt>
      <trkpt lat="44.51451" lon="11.28341"></trkpt>
      <trkpt lat="44.51494" lon="11.28234"></trkpt>
      <trkpt lat="44.51532" lon="11.28143"></trkpt>
      <trkpt lat="44.51527" lon="11.28116"></trkpt>
      <trkpt lat="44.51491" lon="11.28186"></trkpt>
      <trkpt lat="44.51469" lon="11.28206"></trkpt>
      <trkpt lat="44.51478" lon="11.28204"></trkpt>
      <trkpt lat="44.51516" lon="11.28133"></trkpt>
      <trkpt lat="44.51545" lon="11.28126"></trkpt>
      <trkpt lat="44.51556" lon="11.28144"></trkpt>
      <trkpt lat="44.51595" lon="11.28173"></trkpt>
      <trkpt lat="44.51545" lon="11.28223"></trkpt>
      <trkpt lat="44.51482" lon="11.28268"></trkpt>
      <trkpt lat="44.51459" lon="11.28338"></trkpt>
      <trkpt lat="44.51485" lon="11.28406"></trkpt>
      <trkpt lat="44.51528" lon="11.28454"></trkpt>
      <trkpt lat="44.51553" lon="11.28497"></trkpt>
      <trkpt lat="44.51567" lon="11.28549"></trkpt>
      <trkpt lat="44.51558" lon="11.28533"></trkpt>
      <trkpt lat="44.51587" lon="11.28574"></trkpt>
      <trkpt lat="44.51654" lon="11.28621"></trkpt>
      <trkpt lat="44.51672" lon="11.28699"></trkpt>
      <trkpt lat="44.51681" lon="11.28789"></trkpt>
      <trkpt lat="44.51712" lon="11.28896"></trkpt>
      <trkpt lat="44.51733" lon="11.28992"></trkpt>
      <trkpt lat="44.51748" lon="11.29087"></trkpt>
      <trkpt lat="44.51753" lon="11.2919"></trkpt>
      <trkpt lat="44.51746" lon="11.29281"></trkpt>
      <trkpt lat="44.51801" lon="11.29352"></trkpt>
      <trkpt lat="44.51858" lon="11.29369"></trkpt>
      <trkpt lat="44.51909" lon="11.29401"></trkpt>
      <trkpt lat="44.51967" lon="11.29414"></trkpt>
      <trkpt lat="44.52031" lon="11.29441"></trkpt>
      <trkpt lat="44.52112" lon="11.29486"></trkpt>
      <trkpt lat="44.52196" lon="11.29533"></trkpt>
      <trkpt lat="44.52258" lon="11.29586"></trkpt>
      <trkpt lat="44.52315" lon="11.29617"></trkpt>
      <trkpt lat="44.524" lon="11.29645"></trkpt>
      <trkpt lat="44.52497" lon="11.29709"></trkpt>
      <trkpt lat="44.52554" lon="11.29764"></trkpt>
      <trkpt lat="44.52617" lon="11.29753"></trkpt>
      <trkpt lat="44.5261" lon="11.29661"></trkpt>
      <trkpt lat="44.52636" lon="11.29579"></trkpt>
      <trkpt lat="44.52673" lon="11.29475"></trkpt>
      <trkpt lat="44.52731" lon="11.29459"></trkpt>
      <trkpt lat="44.52792" lon="11.29415"></trkpt>
      <trkpt lat="44.52836" lon="11.29404"></trkpt>
      <trkpt lat="44.52895" lon="11.29395"></trkpt>
      <trkpt lat="44.52922" lon="11.29351"></trkpt>
      <trkpt lat="44.52912" lon="11.29272"></trkpt>
      <trkpt lat="44.52893" lon="11.29233"></trkpt>
      <trkpt lat="44.52909" lon="11.29209"></trkpt>
    </trkseg>
  </trk>
</gpx>
