<?xml version="1.0" encoding="UTF-8"?>
<gpx version="1.1" creator="bike-reports.velotrips" xmlns="http://www.opengis.net/gpx/1.1">
  <trk>
    <name>День 1 (сегмент 1)</name>
    <trkseg>
      <trkpt lat="45.03356" lon="39.13904"></trkpt>
      <trkpt lat="45.03453" lon="39.13852"></trkpt>
      <trkpt lat="45.03323" lon="39.13648"></trkpt>
      <trkpt lat="45.03082" lon="39.12794"></trkpt>
      <trkpt lat="45.02845" lon="39.12129"></trkpt>
      <trkpt lat="45.02537" lon="39.11505"></trkpt>
      <trkpt lat="45.02343" lon="39.11017"></trkpt>
      <trkpt lat="45.0254" lon="39.10823"></trkpt>
      <trkpt lat="45.02699" lon="39.10632"></trkpt>
      <trkpt lat="45.03006" lon="39.1031"></trkpt>
      <trkpt lat="45.02673" lon="39.0977"></trkpt>
      <trkpt lat="45.02416" lon="39.09225"></trkpt>
      <trkpt lat="45.02729" lon="39.08759"></trkpt>
      <trkpt lat="45.03076" lon="39.08525"></trkpt>
      <trkpt lat="45.02863" lon="39.07868"></trkpt>
      <trkpt lat="45.02661" lon="39.07252"></trkpt>
      <trkpt lat="45.02491" lon="39.06816"></trkpt>
      <trkpt lat="45.02389" lon="39.06287"></trkpt>
      <trkpt lat="45.02348" lon="39.05744"></trkpt>
      <trkpt lat="45.02473" lon="39.05788"></trkpt>
      <trkpt lat="45.02472" lon="39.05804"></trkpt>
      <trkpt lat="45.02548" lon="39.05757"></trkpt>
      <trkpt lat="45.02735" lon="39.0576"></trkpt>
      <trkpt lat="45.02742" lon="39.05726"></trkpt>
      <trkpt lat="45.02885" lon="39.05731"></trkpt>
      <trkpt lat="45.03052" lon="39.05704"></trkpt>
      <trkpt lat="45.0348" lon="39.05828"></trkpt>
      <trkpt lat="45.0378" lon="39.05562"></trkpt>
      <trkpt lat="45.03682" lon="39.04629"></trkpt>
      <trkpt lat="45.03618" lon="39.03992"></trkpt>
      <trkpt lat="45.03561" lon="39.03468"></trkpt>
      <trkpt lat="45.0348" lon="39.02995"></trkpt>
      <trkpt lat="45.0325" lon="39.02474"></trkpt>
      <trkpt lat="45.03324" lon="39.02514"></trkpt>
      <trkpt lat="45.03469" lon="39.02812"></trkpt>
      <trkpt lat="45.03805" lon="39.02761"></trkpt>
      <trkpt lat="45.03906" lon="39.02817"></trkpt>
      <trkpt lat="45.03912" lon="39.02926"></trkpt>
      <trkpt lat="45.04038" lon="39.02879"></trkpt>
      <trkpt lat="45.04072" lon="39.03044"></trkpt>
      <trkpt lat="45.04119" lon="39.03028"></trkpt>
      <trkpt lat="45.04265" lon="39.03003"></trkpt>
      <trkpt lat="45.04515" lon="39.02721"></trkpt>
      <trkpt lat="45.04633" lon="39.02803"></trkpt>
      <trkpt lat="45.04596" lon="39.03101"></trkpt>
      <trkpt lat="45.04674" lon="39.03069"></trkpt>
      <trkpt lat="45.04683" lon="39.0305"></trkpt>
      <trkpt lat="45.04678" lon="39.03038"></trkpt>
      <trkpt lat="45.04673" lon="39.03035"></trkpt>
      <trkpt lat="45.04655" lon="39.03012"></trkpt>
      <trkpt lat="45.04594" lon="39.0307"></trkpt>
      <trkpt lat="45.04451" lon="39.02741"></trkpt>
      <trkpt lat="45.04279" lon="39.03083"></trkpt>
      <trkpt lat="45.04169" lon="39.03285"></trkpt>
      <trkpt lat="45.04179" lon="39.0305"></trkpt>
      <trkpt lat="45.04104" lon="39.03319"></trkpt>
      <trkpt lat="45.04153" lon="39.03498"></trkpt>
      <trkpt lat="45.04238" lon="39.0371"></trkpt>
      <trkpt lat="45.04239" lon="39.03363"></trkpt>
      <trkpt lat="45.0412" lon="39.03086"></trkpt>
      <trkpt lat="45.0416" lon="39.02798"></trkpt>
      <trkpt lat="45.03934" lon="39.02722"></trkpt>
      <trkpt lat="45.03712" lon="39.02445"></trkpt>
      <trkpt lat="45.03596" lon="39.02037"></trkpt>
      <trkpt lat="45.03504" lon="39.0172"></trkpt>
      <trkpt lat="45.03481" lon="39.01044"></trkpt>
      <trkpt lat="45.03633" lon="39.00122"></trkpt>
      <trkpt lat="45.03605" lon="39.00071"></trkpt>
      <trkpt lat="45.03645" lon="39.00035"></trkpt>
      <trkpt lat="45.03695" lon="38.9966"></trkpt>
      <trkpt lat="45.03748" lon="38.99384"></trkpt>
      <trkpt lat="45.0379" lon="38.99084"></trkpt>
      <trkpt lat="45.03847" lon="38.98751"></trkpt>
      <trkpt lat="45.03887" lon="38.98466"></trkpt>
      <trkpt lat="45.03938" lon="38.9818"></trkpt>
      <trkpt lat="45.0397" lon="38.97926"></trkpt>
      <trkpt lat="45.04059" lon="38.97618"></trkpt>
      <trkpt lat="45.04248" lon="38.97683"></trkpt>
      <trkpt lat="45.04508" lon="38.97765"></trkpt>
      <trkpt lat="45.04644" lon="38.97817"></trkpt>
      <trkpt lat="45.05017" lon="38.9794"></trkpt>
      <trkpt lat="45.05328" lon="38.98051"></trkpt>
      <trkpt lat="45.05522" lon="38.98113"></trkpt>
      <trkpt lat="45.05655" lon="38.98185"></trkpt>
      <trkpt lat="45.05721" lon="38.98249"></trkpt>
      <trkpt lat="45.05743" lon="38.9825"></trkpt>
      <trkpt lat="45.05783" lon="38.98326"></trkpt>
      <trkpt lat="45.05876" lon="38.98324"></trkpt>
      <trkpt lat="45.05941" lon="38.98852"></trkpt>
      <trkpt lat="45.05769" lon="38.98945"></trkpt>
      <trkpt lat="45.05751" lon="38.99172"></trkpt>
      <trkpt lat="45.05761" lon="38.9931"></trkpt>
      <trkpt lat="45.05773" lon="38.99515"></trkpt>
      <trkpt lat="45.05656" lon="38.99699"></trkpt>
      <trkpt lat="45.05591" lon="38.99474"></trkpt>
      <trkpt lat="45.05474" lon="38.99569"></trkpt>
      <trkpt lat="45.05483" lon="38.99886"></trkpt>
      <trkpt lat="45.0549" lon="39.00145"></trkpt>
      <trkpt lat="45.05502" lon="39.00242"></trkpt>
      <trkpt lat="45.0503" lon="39.00327"></trkpt>
      <trkpt lat="45.04734" lon="39.00367"></trkpt>
      <trkpt lat="45.04474" lon="39.00327"></trkpt>
      <trkpt lat="45.04337" lon="39.00318"></trkpt>
      <trkpt lat="45.0428" lon="39.00348"></trkpt>
      <trkpt lat="45.04029" lon="39.00769"></trkpt>
      <trkpt lat="45.03596" lon="39.01136"></trkpt>
      <trkpt lat="45.03464" lon="39.01727"></trkpt>
      <trkpt lat="45.03161" lon="39.02756"></trkpt>
      <trkpt lat="45.02717" lon="39.02814"></trkpt>
      <trkpt lat="45.0255" lon="39.03517"></trkpt>
      <trkpt lat="45.02401" lon="39.03995"></trkpt>
      <trkpt lat="45.0235" lon="39.04143"></trkpt>
      <trkpt lat="45.02242" lon="39.04569"></trkpt>
      <trkpt lat="45.01682" lon="39.05327"></trkpt>
      <trkpt lat="45.01362" lon="39.05525"></trkpt>
      <trkpt lat="45.01428" lon="39.06161"></trkpt>
      <trkpt lat="45.01235" lon="39.0683"></trkpt>
      <trkpt lat="45.01226" lon="39.07225"></trkpt>
      <trkpt lat="45.01256" lon="39.07723"></trkpt>
      <trkpt lat="45.01391" lon="39.08426"></trkpt>
      <trkpt lat="45.01545" lon="39.0919"></trkpt>
      <trkpt lat="45.01537" lon="39.09441"></trkpt>
      <trkpt lat="45.01023" lon="39.10103"></trkpt>
      <trkpt lat="45.00463" lon="39.10682"></trkpt>
      <trkpt lat="45.00506" lon="39.11114"></trkpt>
      <trkpt lat="45.00962" lon="39.12644"></trkpt>
      <trkpt lat="45.01108" lon="39.1312"></trkpt>
      <trkpt lat="45.01925" lon="39.1628"></trkpt>
      <trkpt lat="45.01979" lon="39.18497"></trkpt>
      <trkpt lat="45.01587" lon="39.18511"></trkpt>
      <trkpt lat="45.01458" lon="39.18661"></trkpt>
      <trkpt lat="45.01578" lon="39.18655"></trkpt>
      <trkpt lat="45.01708" lon="39.1909"></trkpt>
      <trkpt lat="45.01494" lon="39.19169"></trkpt>
      <trkpt lat="45.01377" lon="39.19422"></trkpt>
      <trkpt lat="45.01231" lon="39.19723"></trkpt>
      <trkpt lat="45.01122" lon="39.20152"></trkpt>
      <trkpt lat="45.01154" lon="39.20635"></trkpt>
      <trkpt lat="45.01253" lon="39.21086"></trkpt>
      <trkpt lat="45.0133" lon="39.21239"></trkpt>
      <trkpt lat="45.01554" lon="39.21597"></trkpt>
      <trkpt lat="45.01448" lon="39.21739"></trkpt>
      <trkpt lat="45.01674" lon="39.22076"></trkpt>
      <trkpt lat="45.02125" lon="39.22729"></trkpt>
      <trkpt lat="45.02142" lon="39.22769"></trkpt>
      <trkpt lat="45.0253" lon="39.22885"></trkpt>
      <trkpt lat="45.02545" lon="39.23028"></trkpt>
      <trkpt lat="45.02095" lon="39.23512"></trkpt>
      <trkpt lat="45.0179" lon="39.24193"></trkpt>
      <trkpt lat="45.01696" lon="39.24603"></trkpt>
      <trkpt lat="45.0158" lon="39.24868"></trkpt>
    </trkseg>
  </trk>
  <trk>
    <name>День 1 (сегмент 2)</name>
    <trkseg>
      <trkpt lat="45.01632" lon="39.24849"></trkpt>
      <trkpt lat="45.01613" lon="39.25196"></trkpt>
      <trkpt lat="45.01681" lon="39.25665"></trkpt>
      <trkpt lat="45.01983" lon="39.25568"></trkpt>
      <trkpt lat="45.0241" lon="39.25263"></trkpt>
      <trkpt lat="45.02409" lon="39.25265"></trkpt>
      <trkpt lat="45.0266" lon="39.25077"></trkpt>
      <trkpt lat="45.0333" lon="39.2459"></trkpt>
      <trkpt lat="45.03682" lon="39.24856"></trkpt>
      <trkpt lat="45.04065" lon="39.25955"></trkpt>
      <trkpt lat="45.04508" lon="39.27195"></trkpt>
      <trkpt lat="45.04874" lon="39.28241"></trkpt>
      <trkpt lat="45.04917" lon="39.28365"></trkpt>
      <trkpt lat="45.05334" lon="39.29407"></trkpt>
      <trkpt lat="45.05258" lon="39.30006"></trkpt>
      <trkpt lat="45.05191" lon="39.30646"></trkpt>
      <trkpt lat="45.05158" lon="39.30944"></trkpt>
      <trkpt lat="45.05118" lon="39.31161"></trkpt>
      <trkpt lat="45.05191" lon="39.31338"></trkpt>
      <trkpt lat="45.052" lon="39.31329"></trkpt>
      <trkpt lat="45.05123" lon="39.3136"></trkpt>
      <trkpt lat="45.05101" lon="39.3122"></trkpt>
      <trkpt lat="45.05363" lon="39.31243"></trkpt>
      <trkpt lat="45.0586" lon="39.31178"></trkpt>
      <trkpt lat="45.06289" lon="39.3009"></trkpt>
      <trkpt lat="45.06702" lon="39.30382"></trkpt>
      <trkpt lat="45.07271" lon="39.3"></trkpt>
      <trkpt lat="45.07831" lon="39.29633"></trkpt>
      <trkpt lat="45.08361" lon="39.29288"></trkpt>
      <trkpt lat="45.08464" lon="39.28675"></trkpt>
      <trkpt lat="45.089" lon="39.28595"></trkpt>
      <trkpt lat="45.0933" lon="39.28552"></trkpt>
      <trkpt lat="45.09968" lon="39.28551"></trkpt>
      <trkpt lat="45.10628" lon="39.28557"></trkpt>
      <trkpt lat="45.11166" lon="39.28558"></trkpt>
      <trkpt lat="45.11635" lon="39.28562"></trkpt>
      <trkpt lat="45.12197" lon="39.28572"></trkpt>
      <trkpt lat="45.12849" lon="39.28768"></trkpt>
      <trkpt lat="45.13764" lon="39.28758"></trkpt>
      <trkpt lat="45.14461" lon="39.28751"></trkpt>
      <trkpt lat="45.15308" lon="39.28485"></trkpt>
      <trkpt lat="45.16073" lon="39.28026"></trkpt>
      <trkpt lat="45.16717" lon="39.27414"></trkpt>
      <trkpt lat="45.17478" lon="39.26689"></trkpt>
      <trkpt lat="45.18188" lon="39.26017"></trkpt>
      <trkpt lat="45.19179" lon="39.25048"></trkpt>
      <trkpt lat="45.19603" lon="39.24322"></trkpt>
      <trkpt lat="45.20172" lon="39.23809"></trkpt>
      <trkpt lat="45.20697" lon="39.23869"></trkpt>
      <trkpt lat="45.20845" lon="39.2396"></trkpt>
      <trkpt lat="45.20956" lon="39.2369"></trkpt>
      <trkpt lat="45.21052" lon="39.23294"></trkpt>
      <trkpt lat="45.21456" lon="39.22843"></trkpt>
      <trkpt lat="45.21762" lon="39.22526"></trkpt>
      <trkpt lat="45.21632" lon="39.22567"></trkpt>
      <trkpt lat="45.21746" lon="39.2253"></trkpt>
      <trkpt lat="45.22152" lon="39.22029"></trkpt>
      <trkpt lat="45.22619" lon="39.21583"></trkpt>
      <trkpt lat="45.23256" lon="39.21211"></trkpt>
      <trkpt lat="45.23913" lon="39.20886"></trkpt>
      <trkpt lat="45.24927" lon="39.19961"></trkpt>
      <trkpt lat="45.25354" lon="39.2014"></trkpt>
      <trkpt lat="45.25515" lon="39.19681"></trkpt>
      <trkpt lat="45.26013" lon="39.1961"></trkpt>
      <trkpt lat="45.26169" lon="39.19041"></trkpt>
      <trkpt lat="45.26315" lon="39.17642"></trkpt>
      <trkpt lat="45.26543" lon="39.16419"></trkpt>
      <trkpt lat="45.26862" lon="39.15844"></trkpt>
      <trkpt lat="45.273" lon="39.15773"></trkpt>
      <trkpt lat="45.27794" lon="39.15671"></trkpt>
      <trkpt lat="45.28166" lon="39.1555"></trkpt>
      <trkpt lat="45.28471" lon="39.15546"></trkpt>
      <trkpt lat="45.28471" lon="39.15619"></trkpt>
      <trkpt lat="45.28464" lon="39.15639"></trkpt>
      <trkpt lat="45.28541" lon="39.1553"></trkpt>
      <trkpt lat="45.29172" lon="39.15528"></trkpt>
      <trkpt lat="45.29845" lon="39.15504"></trkpt>
      <trkpt lat="45.30348" lon="39.15477"></trkpt>
      <trkpt lat="45.30956" lon="39.15634"></trkpt>
      <trkpt lat="45.31504" lon="39.15718"></trkpt>
      <trkpt lat="45.31507" lon="39.14723"></trkpt>
      <trkpt lat="45.31509" lon="39.13803"></trkpt>
      <trkpt lat="45.31508" lon="39.13272"></trkpt>
      <trkpt lat="45.31515" lon="39.12716"></trkpt>
      <trkpt lat="45.3196" lon="39.12628"></trkpt>
      <trkpt lat="45.32113" lon="39.12082"></trkpt>
      <trkpt lat="45.3225" lon="39.11463"></trkpt>
      <trkpt lat="45.32479" lon="39.10727"></trkpt>
      <trkpt lat="45.32708" lon="39.0998"></trkpt>
      <trkpt lat="45.32887" lon="39.0945"></trkpt>
      <trkpt lat="45.3356" lon="39.08645"></trkpt>
      <trkpt lat="45.34046" lon="39.08234"></trkpt>
      <trkpt lat="45.34589" lon="39.07605"></trkpt>
      <trkpt lat="45.34446" lon="39.07026"></trkpt>
      <trkpt lat="45.34277" lon="39.06468"></trkpt>
      <trkpt lat="45.34111" lon="39.05885"></trkpt>
      <trkpt lat="45.33948" lon="39.05187"></trkpt>
      <trkpt lat="45.33769" lon="39.04456"></trkpt>
      <trkpt lat="45.33466" lon="39.03953"></trkpt>
      <trkpt lat="45.33476" lon="39.03736"></trkpt>
      <trkpt lat="45.33583" lon="39.03694"></trkpt>
      <trkpt lat="45.3429" lon="39.03757"></trkpt>
      <trkpt lat="45.34888" lon="39.03719"></trkpt>
      <trkpt lat="45.35616" lon="39.03664"></trkpt>
      <trkpt lat="45.36465" lon="39.03518"></trkpt>
      <trkpt lat="45.37173" lon="39.03166"></trkpt>
      <trkpt lat="45.37548" lon="39.02975"></trkpt>
      <trkpt lat="45.37919" lon="39.02802"></trkpt>
      <trkpt lat="45.3837" lon="39.02566"></trkpt>
      <trkpt lat="45.38783" lon="39.02362"></trkpt>
      <trkpt lat="45.39223" lon="39.02146"></trkpt>
      <trkpt lat="45.39796" lon="39.01851"></trkpt>
      <trkpt lat="45.40628" lon="39.0143"></trkpt>
      <trkpt lat="45.4117" lon="39.01149"></trkpt>
      <trkpt lat="45.4181" lon="39.00829"></trkpt>
      <trkpt lat="45.42473" lon="39.00485"></trkpt>
      <trkpt lat="45.42966" lon="39.00248"></trkpt>
      <trkpt lat="45.43559" lon="38.99929"></trkpt>
      <trkpt lat="45.44027" lon="38.99683"></trkpt>
      <trkpt lat="45.44499" lon="38.9945"></trkpt>
      <trkpt lat="45.45021" lon="38.99186"></trkpt>
      <trkpt lat="45.45468" lon="38.98932"></trkpt>
      <trkpt lat="45.46258" lon="38.98485"></trkpt>
      <trkpt lat="45.47195" lon="38.97653"></trkpt>
      <trkpt lat="45.47951" lon="38.96885"></trkpt>
      <trkpt lat="45.4883" lon="38.95999"></trkpt>
      <trkpt lat="45.4939" lon="38.95429"></trkpt>
      <trkpt lat="45.49943" lon="38.94672"></trkpt>
      <trkpt lat="45.50612" lon="38.94199"></trkpt>
      <trkpt lat="45.50678" lon="38.94205"></trkpt>
      <trkpt lat="45.51393" lon="38.94128"></trkpt>
      <trkpt lat="45.52078" lon="38.94197"></trkpt>
      <trkpt lat="45.52886" lon="38.94097"></trkpt>
      <trkpt lat="45.53555" lon="38.93788"></trkpt>
      <trkpt lat="45.54429" lon="38.93391"></trkpt>
      <trkpt lat="45.55301" lon="38.92999"></trkpt>
      <trkpt lat="45.5595" lon="38.92698"></trkpt>
      <trkpt lat="45.56512" lon="38.9244"></trkpt>
      <trkpt lat="45.56981" lon="38.92232"></trkpt>
      <trkpt lat="45.57809" lon="38.9185"></trkpt>
      <trkpt lat="45.58809" lon="38.91647"></trkpt>
      <trkpt lat="45.59485" lon="38.92054"></trkpt>
      <trkpt lat="45.59931" lon="38.92793"></trkpt>
      <trkpt lat="45.60052" lon="38.93135"></trkpt>
      <trkpt lat="45.60618" lon="38.93185"></trkpt>
      <trkpt lat="45.61164" lon="38.93334"></trkpt>
      <trkpt lat="45.61468" lon="38.93473"></trkpt>
      <trkpt lat="45.61689" lon="38.93583"></trkpt>
      <trkpt lat="45.61849" lon="38.93943"></trkpt>
      <trkpt lat="45.61856" lon="38.93964"></trkpt>
      <trkpt lat="45.61847" lon="38.93961"></trkpt>
    </trkseg>
  </trk>
  <trk>
    <name>День 2</name>
    <trkseg>
      <trkpt lat="45.67344" lon="38.83276"></trkpt>
      <trkpt lat="45.67327" lon="38.83293"></trkpt>
      <trkpt lat="45.67338" lon="38.83281"></trkpt>
      <trkpt lat="45.67322" lon="38.83272"></trkpt>
      <trkpt lat="45.67279" lon="38.83207"></trkpt>
      <trkpt lat="45.67267" lon="38.83261"></trkpt>
      <trkpt lat="45.67309" lon="38.83766"></trkpt>
      <trkpt lat="45.67527" lon="38.84425"></trkpt>
      <trkpt lat="45.67576" lon="38.84532"></trkpt>
      <trkpt lat="45.67778" lon="38.84611"></trkpt>
      <trkpt lat="45.68259" lon="38.84179"></trkpt>
      <trkpt lat="45.68924" lon="38.83666"></trkpt>
      <trkpt lat="45.69732" lon="38.83536"></trkpt>
      <trkpt lat="45.70111" lon="38.83396"></trkpt>
      <trkpt lat="45.70872" lon="38.83115"></trkpt>
      <trkpt lat="45.71355" lon="38.82941"></trkpt>
      <trkpt lat="45.72041" lon="38.82443"></trkpt>
      <trkpt lat="45.72578" lon="38.81604"></trkpt>
      <trkpt lat="45.73021" lon="38.80903"></trkpt>
      <trkpt lat="45.73403" lon="38.80296"></trkpt>
      <trkpt lat="45.73719" lon="38.7979"></trkpt>
      <trkpt lat="45.74045" lon="38.79232"></trkpt>
      <trkpt lat="45.74442" lon="38.78578"></trkpt>
      <trkpt lat="45.74771" lon="38.78044"></trkpt>
      <trkpt lat="45.75181" lon="38.77179"></trkpt>
      <trkpt lat="45.75425" lon="38.76502"></trkpt>
      <trkpt lat="45.7583" lon="38.75746"></trkpt>
      <trkpt lat="45.76346" lon="38.74566"></trkpt>
      <trkpt lat="45.76719" lon="38.73634"></trkpt>
      <trkpt lat="45.7723" lon="38.72376"></trkpt>
      <trkpt lat="45.77699" lon="38.71163"></trkpt>
      <trkpt lat="45.78082" lon="38.70177"></trkpt>
      <trkpt lat="45.78459" lon="38.69196"></trkpt>
      <trkpt lat="45.78666" lon="38.68457"></trkpt>
      <trkpt lat="45.78821" lon="38.68068"></trkpt>
      <trkpt lat="45.78942" lon="38.67915"></trkpt>
      <trkpt lat="45.79441" lon="38.67389"></trkpt>
      <trkpt lat="45.80121" lon="38.66792"></trkpt>
      <trkpt lat="45.80613" lon="38.66356"></trkpt>
      <trkpt lat="45.81226" lon="38.65821"></trkpt>
      <trkpt lat="45.81845" lon="38.65165"></trkpt>
      <trkpt lat="45.82347" lon="38.64629"></trkpt>
      <trkpt lat="45.82923" lon="38.64002"></trkpt>
      <trkpt lat="45.83612" lon="38.63189"></trkpt>
      <trkpt lat="45.84151" lon="38.62576"></trkpt>
      <trkpt lat="45.84725" lon="38.61877"></trkpt>
      <trkpt lat="45.85168" lon="38.61015"></trkpt>
      <trkpt lat="45.8603" lon="38.60366"></trkpt>
      <trkpt lat="45.86771" lon="38.59519"></trkpt>
      <trkpt lat="45.87224" lon="38.58995"></trkpt>
      <trkpt lat="45.8755" lon="38.58729"></trkpt>
      <trkpt lat="45.88192" lon="38.58011"></trkpt>
      <trkpt lat="45.88722" lon="38.57384"></trkpt>
      <trkpt lat="45.89465" lon="38.56514"></trkpt>
      <trkpt lat="45.90187" lon="38.55676"></trkpt>
      <trkpt lat="45.91001" lon="38.54728"></trkpt>
      <trkpt lat="45.91732" lon="38.53877"></trkpt>
      <trkpt lat="45.92675" lon="38.52957"></trkpt>
      <trkpt lat="45.93139" lon="38.52626"></trkpt>
      <trkpt lat="45.93285" lon="38.53049"></trkpt>
      <trkpt lat="45.93486" lon="38.53976"></trkpt>
      <trkpt lat="45.93788" lon="38.54632"></trkpt>
      <trkpt lat="45.93905" lon="38.54844"></trkpt>
      <trkpt lat="45.93946" lon="38.54806"></trkpt>
      <trkpt lat="45.93964" lon="38.54948"></trkpt>
      <trkpt lat="45.94104" lon="38.55171"></trkpt>
      <trkpt lat="45.94137" lon="38.55158"></trkpt>
      <trkpt lat="45.94173" lon="38.55147"></trkpt>
      <trkpt lat="45.94169" lon="38.55149"></trkpt>
      <trkpt lat="45.94174" lon="38.55139"></trkpt>
      <trkpt lat="45.94389" lon="38.54982"></trkpt>
      <trkpt lat="45.94633" lon="38.54608"></trkpt>
      <trkpt lat="45.94938" lon="38.54559"></trkpt>
      <trkpt lat="45.95267" lon="38.54523"></trkpt>
      <trkpt lat="45.9547" lon="38.5449"></trkpt>
      <trkpt lat="45.95551" lon="38.54402"></trkpt>
      <trkpt lat="45.95537" lon="38.54306"></trkpt>
      <trkpt lat="45.95533" lon="38.54298"></trkpt>
      <trkpt lat="45.9551" lon="38.53771"></trkpt>
      <trkpt lat="45.95599" lon="38.53308"></trkpt>
      <trkpt lat="45.96233" lon="38.53761"></trkpt>
      <trkpt lat="45.96919" lon="38.54255"></trkpt>
      <trkpt lat="45.97486" lon="38.54675"></trkpt>
      <trkpt lat="45.98075" lon="38.55102"></trkpt>
      <trkpt lat="45.98946" lon="38.55742"></trkpt>
      <trkpt lat="45.99508" lon="38.56156"></trkpt>
      <trkpt lat="46.00203" lon="38.5666"></trkpt>
      <trkpt lat="46.00647" lon="38.56984"></trkpt>
      <trkpt lat="46.01017" lon="38.57247"></trkpt>
      <trkpt lat="46.0186" lon="38.57866"></trkpt>
      <trkpt lat="46.02392" lon="38.57708"></trkpt>
      <trkpt lat="46.02973" lon="38.57316"></trkpt>
      <trkpt lat="46.03056" lon="38.5752"></trkpt>
      <trkpt lat="46.03282" lon="38.58066"></trkpt>
      <trkpt lat="46.03611" lon="38.58859"></trkpt>
      <trkpt lat="46.03897" lon="38.59565"></trkpt>
      <trkpt lat="46.04363" lon="38.60681"></trkpt>
      <trkpt lat="46.04893" lon="38.61899"></trkpt>
      <trkpt lat="46.0517" lon="38.63638"></trkpt>
      <trkpt lat="46.05321" lon="38.65425"></trkpt>
      <trkpt lat="46.05313" lon="38.6648"></trkpt>
      <trkpt lat="46.05873" lon="38.67167"></trkpt>
      <trkpt lat="46.06917" lon="38.67235"></trkpt>
      <trkpt lat="46.07487" lon="38.67255"></trkpt>
      <trkpt lat="46.07876" lon="38.67912"></trkpt>
      <trkpt lat="46.08423" lon="38.68529"></trkpt>
      <trkpt lat="46.08736" lon="38.68537"></trkpt>
      <trkpt lat="46.09014" lon="38.6891"></trkpt>
      <trkpt lat="46.09518" lon="38.69011"></trkpt>
      <trkpt lat="46.10197" lon="38.69014"></trkpt>
      <trkpt lat="46.10678" lon="38.69005"></trkpt>
      <trkpt lat="46.10697" lon="38.69016"></trkpt>
      <trkpt lat="46.11649" lon="38.69022"></trkpt>
      <trkpt lat="46.12394" lon="38.69039"></trkpt>
      <trkpt lat="46.13123" lon="38.69589"></trkpt>
      <trkpt lat="46.13361" lon="38.69227"></trkpt>
      <trkpt lat="46.13371" lon="38.6922"></trkpt>
      <trkpt lat="46.13644" lon="38.68741"></trkpt>
      <trkpt lat="46.14048" lon="38.68049"></trkpt>
      <trkpt lat="46.14222" lon="38.6774"></trkpt>
      <trkpt lat="46.14399" lon="38.67265"></trkpt>
      <trkpt lat="46.1466" lon="38.66549"></trkpt>
      <trkpt lat="46.14998" lon="38.65615"></trkpt>
      <trkpt lat="46.15084" lon="38.64977"></trkpt>
      <trkpt lat="46.15091" lon="38.64117"></trkpt>
      <trkpt lat="46.15095" lon="38.63275"></trkpt>
      <trkpt lat="46.15101" lon="38.62441"></trkpt>
      <trkpt lat="46.15107" lon="38.61518"></trkpt>
      <trkpt lat="46.15113" lon="38.60674"></trkpt>
      <trkpt lat="46.15121" lon="38.58637"></trkpt>
      <trkpt lat="46.15127" lon="38.5785"></trkpt>
      <trkpt lat="46.15133" lon="38.56721"></trkpt>
      <trkpt lat="46.15139" lon="38.55109"></trkpt>
      <trkpt lat="46.15146" lon="38.53845"></trkpt>
      <trkpt lat="46.15145" lon="38.52638"></trkpt>
      <trkpt lat="46.14846" lon="38.52065"></trkpt>
      <trkpt lat="46.14587" lon="38.51694"></trkpt>
      <trkpt lat="46.14522" lon="38.51334"></trkpt>
      <trkpt lat="46.14662" lon="38.50012"></trkpt>
      <trkpt lat="46.14698" lon="38.49406"></trkpt>
      <trkpt lat="46.14751" lon="38.48916"></trkpt>
      <trkpt lat="46.14904" lon="38.48129"></trkpt>
      <trkpt lat="46.1504" lon="38.47627"></trkpt>
      <trkpt lat="46.15211" lon="38.47144"></trkpt>
      <trkpt lat="46.15581" lon="38.46531"></trkpt>
      <trkpt lat="46.15758" lon="38.46272"></trkpt>
      <trkpt lat="46.16136" lon="38.45574"></trkpt>
      <trkpt lat="46.16453" lon="38.44931"></trkpt>
      <trkpt lat="46.16645" lon="38.44464"></trkpt>
      <trkpt lat="46.16789" lon="38.44119"></trkpt>
      <trkpt lat="46.16999" lon="38.43693"></trkpt>
    </trkseg>
  </trk>
  <trk>
    <name>День 3</name>
    <trkseg>
      <trkpt lat="46.21355" lon="38.34104"></trkpt>
      <trkpt lat="46.21556" lon="38.34312"></trkpt>
      <trkpt lat="46.21745" lon="38.34519"></trkpt>
      <trkpt lat="46.21785" lon="38.34566"></trkpt>
      <trkpt lat="46.21876" lon="38.34668"></trkpt>
      <trkpt lat="46.21989" lon="38.34786"></trkpt>
      <trkpt lat="46.21926" lon="38.34726"></trkpt>
      <trkpt lat="46.21745" lon="38.34526"></trkpt>
      <trkpt lat="46.21407" lon="38.34155"></trkpt>
      <trkpt lat="46.24101" lon="38.30812"></trkpt>
      <trkpt lat="46.24671" lon="38.29525"></trkpt>
      <trkpt lat="46.25916" lon="38.29038"></trkpt>
      <trkpt lat="46.26566" lon="38.28614"></trkpt>
      <trkpt lat="46.2857" lon="38.26749"></trkpt>
      <trkpt lat="46.29324" lon="38.25859"></trkpt>
      <trkpt lat="46.30584" lon="38.24307"></trkpt>
      <trkpt lat="46.31529" lon="38.23162"></trkpt>
      <trkpt lat="46.31963" lon="38.2308"></trkpt>
      <trkpt lat="46.32856" lon="38.23151"></trkpt>
      <trkpt lat="46.32606" lon="38.22465"></trkpt>
      <trkpt lat="46.32641" lon="38.22371"></trkpt>
      <trkpt lat="46.33858" lon="38.23642"></trkpt>
      <trkpt lat="46.3479" lon="38.24675"></trkpt>
      <trkpt lat="46.35393" lon="38.25282"></trkpt>
      <trkpt lat="46.3586" lon="38.25591"></trkpt>
      <trkpt lat="46.35873" lon="38.26223"></trkpt>
      <trkpt lat="46.3587" lon="38.26733"></trkpt>
      <trkpt lat="46.35852" lon="38.26756"></trkpt>
      <trkpt lat="46.35854" lon="38.26267"></trkpt>
      <trkpt lat="46.35813" lon="38.26288"></trkpt>
      <trkpt lat="46.35836" lon="38.26374"></trkpt>
      <trkpt lat="46.35806" lon="38.26291"></trkpt>
      <trkpt lat="46.35805" lon="38.26279"></trkpt>
      <trkpt lat="46.35884" lon="38.27164"></trkpt>
      <trkpt lat="46.36331" lon="38.27233"></trkpt>
      <trkpt lat="46.36811" lon="38.27195"></trkpt>
      <trkpt lat="46.37453" lon="38.27192"></trkpt>
      <trkpt lat="46.37837" lon="38.27193"></trkpt>
      <trkpt lat="46.38589" lon="38.27185"></trkpt>
      <trkpt lat="46.3935" lon="38.27164"></trkpt>
      <trkpt lat="46.40136" lon="38.27156"></trkpt>
      <trkpt lat="46.40368" lon="38.2718"></trkpt>
      <trkpt lat="46.41106" lon="38.2715"></trkpt>
      <trkpt lat="46.41851" lon="38.27149"></trkpt>
      <trkpt lat="46.42753" lon="38.27137"></trkpt>
      <trkpt lat="46.43461" lon="38.2714"></trkpt>
      <trkpt lat="46.44157" lon="38.27129"></trkpt>
      <trkpt lat="46.44635" lon="38.27136"></trkpt>
      <trkpt lat="46.45765" lon="38.27119"></trkpt>
      <trkpt lat="46.46485" lon="38.27117"></trkpt>
      <trkpt lat="46.46974" lon="38.27103"></trkpt>
      <trkpt lat="46.47208" lon="38.27112"></trkpt>
      <trkpt lat="46.48149" lon="38.27088"></trkpt>
      <trkpt lat="46.48854" lon="38.27074"></trkpt>
      <trkpt lat="46.49355" lon="38.27082"></trkpt>
      <trkpt lat="46.49734" lon="38.27084"></trkpt>
      <trkpt lat="46.50271" lon="38.27077"></trkpt>
      <trkpt lat="46.5073" lon="38.27065"></trkpt>
      <trkpt lat="46.51196" lon="38.2706"></trkpt>
      <trkpt lat="46.5191" lon="38.27051"></trkpt>
      <trkpt lat="46.52353" lon="38.27053"></trkpt>
      <trkpt lat="46.53012" lon="38.27031"></trkpt>
      <trkpt lat="46.53578" lon="38.27039"></trkpt>
      <trkpt lat="46.53993" lon="38.2703"></trkpt>
      <trkpt lat="46.54364" lon="38.27022"></trkpt>
      <trkpt lat="46.54804" lon="38.2702"></trkpt>
      <trkpt lat="46.55354" lon="38.27009"></trkpt>
      <trkpt lat="46.5618" lon="38.26996"></trkpt>
      <trkpt lat="46.57098" lon="38.26991"></trkpt>
      <trkpt lat="46.57528" lon="38.26988"></trkpt>
      <trkpt lat="46.58118" lon="38.26972"></trkpt>
      <trkpt lat="46.5849" lon="38.26986"></trkpt>
      <trkpt lat="46.58868" lon="38.26976"></trkpt>
      <trkpt lat="46.59089" lon="38.26979"></trkpt>
      <trkpt lat="46.59453" lon="38.26965"></trkpt>
      <trkpt lat="46.5986" lon="38.2696"></trkpt>
      <trkpt lat="46.6026" lon="38.26965"></trkpt>
      <trkpt lat="46.60617" lon="38.26953"></trkpt>
      <trkpt lat="46.60887" lon="38.26958"></trkpt>
      <trkpt lat="46.61518" lon="38.26936"></trkpt>
      <trkpt lat="46.62046" lon="38.26927"></trkpt>
      <trkpt lat="46.62193" lon="38.26936"></trkpt>
      <trkpt lat="46.62355" lon="38.26925"></trkpt>
      <trkpt lat="46.62694" lon="38.2692"></trkpt>
      <trkpt lat="46.63375" lon="38.26917"></trkpt>
      <trkpt lat="46.63869" lon="38.26914"></trkpt>
      <trkpt lat="46.64484" lon="38.26905"></trkpt>
      <trkpt lat="46.65086" lon="38.26899"></trkpt>
      <trkpt lat="46.65799" lon="38.26877"></trkpt>
      <trkpt lat="46.66337" lon="38.26876"></trkpt>
      <trkpt lat="46.67014" lon="38.26533"></trkpt>
      <trkpt lat="46.67271" lon="38.26345"></trkpt>
      <trkpt lat="46.67604" lon="38.26144"></trkpt>
      <trkpt lat="46.6813" lon="38.25793"></trkpt>
      <trkpt lat="46.68572" lon="38.26932"></trkpt>
      <trkpt lat="46.68917" lon="38.27473"></trkpt>
      <trkpt lat="46.69605" lon="38.28369"></trkpt>
      <trkpt lat="46.70128" lon="38.29151"></trkpt>
      <trkpt lat="46.70641" lon="38.2887"></trkpt>
      <trkpt lat="46.7138" lon="38.28442"></trkpt>
      <trkpt lat="46.71739" lon="38.2854"></trkpt>
      <trkpt lat="46.72" lon="38.28546"></trkpt>
      <trkpt lat="46.72824" lon="38.28192"></trkpt>
      <trkpt lat="46.73267" lon="38.28641"></trkpt>
      <trkpt lat="46.73646" lon="38.28762"></trkpt>
      <trkpt lat="46.74036" lon="38.29069"></trkpt>
      <trkpt lat="46.7404" lon="38.29092"></trkpt>
      <trkpt lat="46.74027" lon="38.29062"></trkpt>
      <trkpt lat="46.74197" lon="38.2925"></trkpt>
      <trkpt lat="46.74186" lon="38.29236"></trkpt>
      <trkpt lat="46.74107" lon="38.2917"></trkpt>
      <trkpt lat="46.73766" lon="38.28853"></trkpt>
      <trkpt lat="46.73252" lon="38.28616"></trkpt>
      <trkpt lat="46.72711" lon="38.28107"></trkpt>
      <trkpt lat="46.72543" lon="38.27815"></trkpt>
      <trkpt lat="46.7234" lon="38.27749"></trkpt>
      <trkpt lat="46.71788" lon="38.27893"></trkpt>
      <trkpt lat="46.71514" lon="38.28231"></trkpt>
      <trkpt lat="46.71223" lon="38.28538"></trkpt>
      <trkpt lat="46.70729" lon="38.28818"></trkpt>
      <trkpt lat="46.70152" lon="38.29129"></trkpt>
      <trkpt lat="46.69833" lon="38.28605"></trkpt>
      <trkpt lat="46.69703" lon="38.28439"></trkpt>
      <trkpt lat="46.69586" lon="38.28323"></trkpt>
      <trkpt lat="46.69437" lon="38.28524"></trkpt>
      <trkpt lat="46.68758" lon="38.28945"></trkpt>
      <trkpt lat="46.68023" lon="38.29422"></trkpt>
      <trkpt lat="46.67462" lon="38.29845"></trkpt>
      <trkpt lat="46.66833" lon="38.30302"></trkpt>
      <trkpt lat="46.66656" lon="38.32224"></trkpt>
      <trkpt lat="46.66212" lon="38.33343"></trkpt>
      <trkpt lat="46.66156" lon="38.33567"></trkpt>
      <trkpt lat="46.65945" lon="38.35012"></trkpt>
      <trkpt lat="46.65667" lon="38.36885"></trkpt>
      <trkpt lat="46.65335" lon="38.39142"></trkpt>
      <trkpt lat="46.65033" lon="38.40856"></trkpt>
      <trkpt lat="46.64315" lon="38.44141"></trkpt>
      <trkpt lat="46.64111" lon="38.45145"></trkpt>
      <trkpt lat="46.63832" lon="38.47404"></trkpt>
      <trkpt lat="46.63683" lon="38.49958"></trkpt>
      <trkpt lat="46.63661" lon="38.50666"></trkpt>
      <trkpt lat="46.63817" lon="38.50687"></trkpt>
      <trkpt lat="46.64152" lon="38.51281"></trkpt>
      <trkpt lat="46.6442" lon="38.51726"></trkpt>
      <trkpt lat="46.64734" lon="38.52111"></trkpt>
      <trkpt lat="46.64929" lon="38.52005"></trkpt>
      <trkpt lat="46.64963" lon="38.52087"></trkpt>
      <trkpt lat="46.64872" lon="38.51921"></trkpt>
      <trkpt lat="46.64821" lon="38.51782"></trkpt>
      <trkpt lat="46.64842" lon="38.5181"></trkpt>
      <trkpt lat="46.64808" lon="38.51746"></trkpt>
    </trkseg>
  </trk>
  <trk>
    <name>День 4</name>
    <trkseg>
      <trkpt lat="46.64808" lon="38.51769"></trkpt>
      <trkpt lat="46.64851" lon="38.51928"></trkpt>
      <trkpt lat="46.64925" lon="38.52002"></trkpt>
      <trkpt lat="46.64829" lon="38.52235"></trkpt>
      <trkpt lat="46.64623" lon="38.52489"></trkpt>
      <trkpt lat="46.64532" lon="38.53459"></trkpt>
      <trkpt lat="46.64532" lon="38.54066"></trkpt>
      <trkpt lat="46.64501" lon="38.54145"></trkpt>
      <trkpt lat="46.64451" lon="38.54671"></trkpt>
      <trkpt lat="46.6441" lon="38.5566"></trkpt>
      <trkpt lat="46.6462" lon="38.55649"></trkpt>
      <trkpt lat="46.64617" lon="38.56264"></trkpt>
      <trkpt lat="46.6458" lon="38.56943"></trkpt>
      <trkpt lat="46.64549" lon="38.57707"></trkpt>
      <trkpt lat="46.64533" lon="38.58404"></trkpt>
      <trkpt lat="46.64521" lon="38.59166"></trkpt>
      <trkpt lat="46.64692" lon="38.59536"></trkpt>
      <trkpt lat="46.65431" lon="38.59547"></trkpt>
      <trkpt lat="46.6593" lon="38.59337"></trkpt>
      <trkpt lat="46.66085" lon="38.59301"></trkpt>
      <trkpt lat="46.66557" lon="38.59653"></trkpt>
      <trkpt lat="46.67281" lon="38.60192"></trkpt>
      <trkpt lat="46.68094" lon="38.60801"></trkpt>
      <trkpt lat="46.68933" lon="38.61426"></trkpt>
      <trkpt lat="46.69549" lon="38.61802"></trkpt>
      <trkpt lat="46.70046" lon="38.61373"></trkpt>
      <trkpt lat="46.70616" lon="38.60627"></trkpt>
      <trkpt lat="46.70999" lon="38.60078"></trkpt>
      <trkpt lat="46.71377" lon="38.59694"></trkpt>
      <trkpt lat="46.72221" lon="38.59513"></trkpt>
      <trkpt lat="46.72784" lon="38.5902"></trkpt>
      <trkpt lat="46.73571" lon="38.58231"></trkpt>
      <trkpt lat="46.73671" lon="38.57632"></trkpt>
      <trkpt lat="46.73757" lon="38.57082"></trkpt>
      <trkpt lat="46.73837" lon="38.55987"></trkpt>
      <trkpt lat="46.73864" lon="38.554"></trkpt>
      <trkpt lat="46.74049" lon="38.54466"></trkpt>
      <trkpt lat="46.74621" lon="38.53072"></trkpt>
      <trkpt lat="46.75311" lon="38.51576"></trkpt>
      <trkpt lat="46.7563" lon="38.51043"></trkpt>
      <trkpt lat="46.75958" lon="38.50494"></trkpt>
      <trkpt lat="46.76258" lon="38.499"></trkpt>
      <trkpt lat="46.76271" lon="38.48651"></trkpt>
      <trkpt lat="46.76281" lon="38.47805"></trkpt>
      <trkpt lat="46.76278" lon="38.46832"></trkpt>
      <trkpt lat="46.76277" lon="38.45857"></trkpt>
      <trkpt lat="46.76273" lon="38.44963"></trkpt>
      <trkpt lat="46.76263" lon="38.43816"></trkpt>
      <trkpt lat="46.76255" lon="38.43004"></trkpt>
      <trkpt lat="46.76186" lon="38.41687"></trkpt>
      <trkpt lat="46.76216" lon="38.41502"></trkpt>
      <trkpt lat="46.76059" lon="38.41251"></trkpt>
      <trkpt lat="46.75799" lon="38.41088"></trkpt>
      <trkpt lat="46.75789" lon="38.41063"></trkpt>
      <trkpt lat="46.75635" lon="38.41023"></trkpt>
      <trkpt lat="46.75473" lon="38.40936"></trkpt>
      <trkpt lat="46.75432" lon="38.40987"></trkpt>
      <trkpt lat="46.75586" lon="38.41031"></trkpt>
      <trkpt lat="46.75784" lon="38.41082"></trkpt>
      <trkpt lat="46.76508" lon="38.41549"></trkpt>
      <trkpt lat="46.77007" lon="38.41901"></trkpt>
      <trkpt lat="46.77146" lon="38.42526"></trkpt>
      <trkpt lat="46.7742" lon="38.42476"></trkpt>
      <trkpt lat="46.77968" lon="38.42441"></trkpt>
      <trkpt lat="46.78666" lon="38.42545"></trkpt>
      <trkpt lat="46.78746" lon="38.42601"></trkpt>
      <trkpt lat="46.79212" lon="38.42901"></trkpt>
      <trkpt lat="46.80531" lon="38.43563"></trkpt>
      <trkpt lat="46.81035" lon="38.43766"></trkpt>
      <trkpt lat="46.81666" lon="38.44171"></trkpt>
      <trkpt lat="46.82399" lon="38.44642"></trkpt>
      <trkpt lat="46.83485" lon="38.45502"></trkpt>
      <trkpt lat="46.84353" lon="38.46191"></trkpt>
      <trkpt lat="46.84373" lon="38.46845"></trkpt>
      <trkpt lat="46.8429" lon="38.48651"></trkpt>
      <trkpt lat="46.8436" lon="38.5101"></trkpt>
      <trkpt lat="46.8437" lon="38.52481"></trkpt>
      <trkpt lat="46.84371" lon="38.54139"></trkpt>
      <trkpt lat="46.8437" lon="38.55415"></trkpt>
      <trkpt lat="46.8442" lon="38.58388"></trkpt>
      <trkpt lat="46.84425" lon="38.60201"></trkpt>
      <trkpt lat="46.84438" lon="38.61865"></trkpt>
      <trkpt lat="46.84434" lon="38.62375"></trkpt>
      <trkpt lat="46.84427" lon="38.63159"></trkpt>
      <trkpt lat="46.84438" lon="38.63315"></trkpt>
      <trkpt lat="46.84426" lon="38.63563"></trkpt>
      <trkpt lat="46.84438" lon="38.63928"></trkpt>
      <trkpt lat="46.84442" lon="38.64347"></trkpt>
      <trkpt lat="46.84452" lon="38.6523"></trkpt>
      <trkpt lat="46.84451" lon="38.65789"></trkpt>
      <trkpt lat="46.84448" lon="38.66423"></trkpt>
      <trkpt lat="46.84446" lon="38.67588"></trkpt>
      <trkpt lat="46.84452" lon="38.68496"></trkpt>
      <trkpt lat="46.84464" lon="38.68601"></trkpt>
      <trkpt lat="46.85086" lon="38.6925"></trkpt>
      <trkpt lat="46.85108" lon="38.70636"></trkpt>
      <trkpt lat="46.85109" lon="38.71264"></trkpt>
      <trkpt lat="46.85109" lon="38.71746"></trkpt>
      <trkpt lat="46.85047" lon="38.72366"></trkpt>
      <trkpt lat="46.85048" lon="38.73569"></trkpt>
      <trkpt lat="46.85158" lon="38.74591"></trkpt>
      <trkpt lat="46.85227" lon="38.7603"></trkpt>
      <trkpt lat="46.85231" lon="38.76522"></trkpt>
      <trkpt lat="46.8525" lon="38.77296"></trkpt>
      <trkpt lat="46.85547" lon="38.77822"></trkpt>
      <trkpt lat="46.86227" lon="38.78534"></trkpt>
      <trkpt lat="46.87103" lon="38.79457"></trkpt>
      <trkpt lat="46.87936" lon="38.80316"></trkpt>
      <trkpt lat="46.8871" lon="38.81133"></trkpt>
      <trkpt lat="46.89181" lon="38.82326"></trkpt>
      <trkpt lat="46.89391" lon="38.84134"></trkpt>
      <trkpt lat="46.9025" lon="38.85315"></trkpt>
      <trkpt lat="46.91077" lon="38.86205"></trkpt>
      <trkpt lat="46.91679" lon="38.8723"></trkpt>
      <trkpt lat="46.91773" lon="38.87377"></trkpt>
      <trkpt lat="46.92054" lon="38.86874"></trkpt>
      <trkpt lat="46.92311" lon="38.86698"></trkpt>
      <trkpt lat="46.92496" lon="38.87059"></trkpt>
      <trkpt lat="46.92604" lon="38.87057"></trkpt>
      <trkpt lat="46.92955" lon="38.8695"></trkpt>
      <trkpt lat="46.93173" lon="38.86906"></trkpt>
      <trkpt lat="46.93373" lon="38.87687"></trkpt>
      <trkpt lat="46.9374" lon="38.87855"></trkpt>
      <trkpt lat="46.93945" lon="38.87585"></trkpt>
      <trkpt lat="46.94205" lon="38.87878"></trkpt>
      <trkpt lat="46.94443" lon="38.88445"></trkpt>
      <trkpt lat="46.94873" lon="38.89739"></trkpt>
      <trkpt lat="46.95174" lon="38.91125"></trkpt>
      <trkpt lat="46.95543" lon="38.93263"></trkpt>
      <trkpt lat="46.9591" lon="38.94787"></trkpt>
      <trkpt lat="46.96236" lon="38.95729"></trkpt>
      <trkpt lat="46.96578" lon="38.96697"></trkpt>
      <trkpt lat="46.9687" lon="38.97489"></trkpt>
      <trkpt lat="46.97219" lon="38.98283"></trkpt>
      <trkpt lat="46.97624" lon="38.99196"></trkpt>
      <trkpt lat="46.978" lon="38.99588"></trkpt>
      <trkpt lat="46.9852" lon="39.01195"></trkpt>
      <trkpt lat="46.9928" lon="39.02632"></trkpt>
      <trkpt lat="46.99934" lon="39.03733"></trkpt>
      <trkpt lat="47.0061" lon="39.04975"></trkpt>
      <trkpt lat="47.01015" lon="39.0636"></trkpt>
      <trkpt lat="47.01353" lon="39.07522"></trkpt>
      <trkpt lat="47.01367" lon="39.09694"></trkpt>
      <trkpt lat="47.01627" lon="39.09985"></trkpt>
      <trkpt lat="47.02247" lon="39.09977"></trkpt>
      <trkpt lat="47.02806" lon="39.10001"></trkpt>
      <trkpt lat="47.03121" lon="39.10054"></trkpt>
      <trkpt lat="47.03363" lon="39.10104"></trkpt>
      <trkpt lat="47.03408" lon="39.09933"></trkpt>
      <trkpt lat="47.03481" lon="39.09721"></trkpt>
      <trkpt lat="47.03478" lon="39.0968"></trkpt>
    </trkseg>
  </trk>
  <trk>
    <name>День 5</name>
    <trkseg>
      <trkpt lat="47.03469" lon="39.09688"></trkpt>
      <trkpt lat="47.03479" lon="39.09734"></trkpt>
      <trkpt lat="47.03434" lon="39.09866"></trkpt>
      <trkpt lat="47.03364" lon="39.10099"></trkpt>
      <trkpt lat="47.03087" lon="39.10056"></trkpt>
      <trkpt lat="47.02892" lon="39.10018"></trkpt>
      <trkpt lat="47.02543" lon="39.09996"></trkpt>
      <trkpt lat="47.02084" lon="39.10008"></trkpt>
      <trkpt lat="47.01598" lon="39.09982"></trkpt>
      <trkpt lat="47.01389" lon="39.10065"></trkpt>
      <trkpt lat="47.01446" lon="39.11059"></trkpt>
      <trkpt lat="47.01487" lon="39.11901"></trkpt>
      <trkpt lat="47.01488" lon="39.13233"></trkpt>
      <trkpt lat="47.01485" lon="39.13983"></trkpt>
      <trkpt lat="47.01481" lon="39.15069"></trkpt>
      <trkpt lat="47.01483" lon="39.15818"></trkpt>
      <trkpt lat="47.01482" lon="39.17081"></trkpt>
      <trkpt lat="47.01484" lon="39.17867"></trkpt>
      <trkpt lat="47.01491" lon="39.18767"></trkpt>
      <trkpt lat="47.01367" lon="39.2001"></trkpt>
      <trkpt lat="47.00965" lon="39.21067"></trkpt>
      <trkpt lat="47.00718" lon="39.22375"></trkpt>
      <trkpt lat="47.00627" lon="39.23203"></trkpt>
      <trkpt lat="47.00601" lon="39.23846"></trkpt>
      <trkpt lat="47.00573" lon="39.24667"></trkpt>
      <trkpt lat="47.00642" lon="39.25249"></trkpt>
      <trkpt lat="47.00927" lon="39.2581"></trkpt>
      <trkpt lat="47.01215" lon="39.26479"></trkpt>
      <trkpt lat="47.01506" lon="39.27781"></trkpt>
      <trkpt lat="47.01658" lon="39.28467"></trkpt>
      <trkpt lat="47.01772" lon="39.28992"></trkpt>
      <trkpt lat="47.01978" lon="39.29646"></trkpt>
      <trkpt lat="47.0263" lon="39.30338"></trkpt>
      <trkpt lat="47.03465" lon="39.30738"></trkpt>
      <trkpt lat="47.04462" lon="39.30999"></trkpt>
      <trkpt lat="47.05509" lon="39.31424"></trkpt>
      <trkpt lat="47.06457" lon="39.31326"></trkpt>
      <trkpt lat="47.07281" lon="39.3179"></trkpt>
      <trkpt lat="47.07301" lon="39.31875"></trkpt>
      <trkpt lat="47.07521" lon="39.32378"></trkpt>
      <trkpt lat="47.07729" lon="39.33154"></trkpt>
      <trkpt lat="47.07949" lon="39.33851"></trkpt>
      <trkpt lat="47.08239" lon="39.34859"></trkpt>
      <trkpt lat="47.0844" lon="39.36049"></trkpt>
      <trkpt lat="47.08556" lon="39.36948"></trkpt>
      <trkpt lat="47.08676" lon="39.37804"></trkpt>
      <trkpt lat="47.08764" lon="39.38407"></trkpt>
      <trkpt lat="47.08954" lon="39.38997"></trkpt>
      <trkpt lat="47.0937" lon="39.39974"></trkpt>
      <trkpt lat="47.09613" lon="39.40521"></trkpt>
      <trkpt lat="47.09797" lon="39.40949"></trkpt>
      <trkpt lat="47.09952" lon="39.41239"></trkpt>
      <trkpt lat="47.09642" lon="39.42041"></trkpt>
      <trkpt lat="47.09351" lon="39.42802"></trkpt>
      <trkpt lat="47.09251" lon="39.43049"></trkpt>
      <trkpt lat="47.09202" lon="39.432"></trkpt>
      <trkpt lat="47.09307" lon="39.43238"></trkpt>
      <trkpt lat="47.09711" lon="39.43844"></trkpt>
      <trkpt lat="47.09501" lon="39.44144"></trkpt>
      <trkpt lat="47.09437" lon="39.448"></trkpt>
      <trkpt lat="47.09196" lon="39.45147"></trkpt>
      <trkpt lat="47.08922" lon="39.45877"></trkpt>
      <trkpt lat="47.08534" lon="39.47202"></trkpt>
      <trkpt lat="47.08444" lon="39.48308"></trkpt>
      <trkpt lat="47.08427" lon="39.48965"></trkpt>
      <trkpt lat="47.08391" lon="39.4959"></trkpt>
      <trkpt lat="47.08292" lon="39.50785"></trkpt>
      <trkpt lat="47.08151" lon="39.52409"></trkpt>
      <trkpt lat="47.0819" lon="39.53046"></trkpt>
      <trkpt lat="47.08232" lon="39.53736"></trkpt>
      <trkpt lat="47.08098" lon="39.54358"></trkpt>
      <trkpt lat="47.07883" lon="39.55389"></trkpt>
      <trkpt lat="47.07835" lon="39.55961"></trkpt>
      <trkpt lat="47.07871" lon="39.56813"></trkpt>
      <trkpt lat="47.07933" lon="39.57834"></trkpt>
      <trkpt lat="47.08147" lon="39.58834"></trkpt>
      <trkpt lat="47.08463" lon="39.59578"></trkpt>
      <trkpt lat="47.087" lon="39.60123"></trkpt>
      <trkpt lat="47.09044" lon="39.60926"></trkpt>
      <trkpt lat="47.09288" lon="39.61494"></trkpt>
      <trkpt lat="47.09811" lon="39.62704"></trkpt>
      <trkpt lat="47.10238" lon="39.63684"></trkpt>
      <trkpt lat="47.10631" lon="39.64547"></trkpt>
      <trkpt lat="47.10981" lon="39.65247"></trkpt>
      <trkpt lat="47.11369" lon="39.66085"></trkpt>
      <trkpt lat="47.1141" lon="39.66429"></trkpt>
      <trkpt lat="47.11421" lon="39.6666"></trkpt>
      <trkpt lat="47.11544" lon="39.66548"></trkpt>
      <trkpt lat="47.11501" lon="39.66621"></trkpt>
      <trkpt lat="47.11657" lon="39.66602"></trkpt>
      <trkpt lat="47.11946" lon="39.66971"></trkpt>
      <trkpt lat="47.12392" lon="39.66563"></trkpt>
      <trkpt lat="47.12539" lon="39.66459"></trkpt>
      <trkpt lat="47.13003" lon="39.66236"></trkpt>
      <trkpt lat="47.1328" lon="39.66085"></trkpt>
      <trkpt lat="47.13648" lon="39.65788"></trkpt>
      <trkpt lat="47.1374" lon="39.65644"></trkpt>
      <trkpt lat="47.13947" lon="39.65758"></trkpt>
      <trkpt lat="47.14179" lon="39.66172"></trkpt>
      <trkpt lat="47.14348" lon="39.66038"></trkpt>
      <trkpt lat="47.14642" lon="39.65699"></trkpt>
      <trkpt lat="47.14855" lon="39.65473"></trkpt>
      <trkpt lat="47.15013" lon="39.65402"></trkpt>
      <trkpt lat="47.15107" lon="39.65585"></trkpt>
      <trkpt lat="47.1533" lon="39.65814"></trkpt>
      <trkpt lat="47.15486" lon="39.65989"></trkpt>
      <trkpt lat="47.15524" lon="39.6608"></trkpt>
      <trkpt lat="47.15555" lon="39.66056"></trkpt>
      <trkpt lat="47.15571" lon="39.66033"></trkpt>
      <trkpt lat="47.16031" lon="39.65511"></trkpt>
      <trkpt lat="47.16543" lon="39.64919"></trkpt>
      <trkpt lat="47.1712" lon="39.64383"></trkpt>
      <trkpt lat="47.1749" lon="39.64203"></trkpt>
      <trkpt lat="47.17807" lon="39.64043"></trkpt>
      <trkpt lat="47.18252" lon="39.63878"></trkpt>
      <trkpt lat="47.18483" lon="39.63785"></trkpt>
      <trkpt lat="47.18824" lon="39.63616"></trkpt>
      <trkpt lat="47.18911" lon="39.63512"></trkpt>
      <trkpt lat="47.18936" lon="39.63647"></trkpt>
      <trkpt lat="47.18911" lon="39.63983"></trkpt>
      <trkpt lat="47.18978" lon="39.63976"></trkpt>
      <trkpt lat="47.19047" lon="39.63977"></trkpt>
      <trkpt lat="47.19214" lon="39.63954"></trkpt>
      <trkpt lat="47.19264" lon="39.64342"></trkpt>
      <trkpt lat="47.1931" lon="39.6465"></trkpt>
      <trkpt lat="47.19396" lon="39.64982"></trkpt>
      <trkpt lat="47.19547" lon="39.65403"></trkpt>
      <trkpt lat="47.19664" lon="39.6566"></trkpt>
      <trkpt lat="47.19754" lon="39.65878"></trkpt>
      <trkpt lat="47.19845" lon="39.66091"></trkpt>
      <trkpt lat="47.19956" lon="39.66357"></trkpt>
      <trkpt lat="47.20083" lon="39.66673"></trkpt>
      <trkpt lat="47.20238" lon="39.671"></trkpt>
      <trkpt lat="47.20333" lon="39.6743"></trkpt>
      <trkpt lat="47.20505" lon="39.6795"></trkpt>
      <trkpt lat="47.20618" lon="39.68294"></trkpt>
      <trkpt lat="47.20719" lon="39.68603"></trkpt>
      <trkpt lat="47.20832" lon="39.68946"></trkpt>
      <trkpt lat="47.21167" lon="39.6954"></trkpt>
      <trkpt lat="47.21341" lon="39.69481"></trkpt>
      <trkpt lat="47.21497" lon="39.69851"></trkpt>
      <trkpt lat="47.2154" lon="39.70141"></trkpt>
      <trkpt lat="47.21605" lon="39.70395"></trkpt>
      <trkpt lat="47.21674" lon="39.7074"></trkpt>
      <trkpt lat="47.21699" lon="39.70878"></trkpt>
      <trkpt lat="47.21854" lon="39.70828"></trkpt>
      <trkpt lat="47.22008" lon="39.70796"></trkpt>
      <trkpt lat="47.22092" lon="39.71158"></trkpt>
      <trkpt lat="47.2214" lon="39.71318"></trkpt>
      <trkpt lat="47.22203" lon="39.71559"></trkpt>
      <trkpt lat="47.22233" lon="39.7178"></trkpt>
    </trkseg>
  </trk>
</gpx>
