<?xml version="1.0" encoding="UTF-8"?>
<gpx version="1.1" creator="bike-reports.velotrips" xmlns="http://www.opengis.net/gpx/1.1">
  <trk>
    <name>День 1</name>
    <trkseg>
      <trkpt lat="58.04187" lon="38.83364"></trkpt>
      <trkpt lat="58.04446" lon="38.8301"></trkpt>
      <trkpt lat="58.04695" lon="38.82206"></trkpt>
      <trkpt lat="58.05271" lon="38.82609"></trkpt>
      <trkpt lat="58.05432" lon="38.81911"></trkpt>
      <trkpt lat="58.05381" lon="38.82578"></trkpt>
      <trkpt lat="58.05178" lon="38.8375"></trkpt>
      <trkpt lat="58.04726" lon="38.83932"></trkpt>
      <trkpt lat="58.04627" lon="38.83868"></trkpt>
      <trkpt lat="58.05089" lon="38.84237"></trkpt>
      <trkpt lat="58.05059" lon="38.85083"></trkpt>
      <trkpt lat="58.04838" lon="38.85662"></trkpt>
      <trkpt lat="58.04968" lon="38.857"></trkpt>
      <trkpt lat="58.04675" lon="38.85442"></trkpt>
      <trkpt lat="58.04573" lon="38.8539"></trkpt>
      <trkpt lat="58.03997" lon="38.8561"></trkpt>
      <trkpt lat="58.03742" lon="38.85988"></trkpt>
      <trkpt lat="58.03637" lon="38.85818"></trkpt>
      <trkpt lat="58.04168" lon="38.85681"></trkpt>
      <trkpt lat="58.04773" lon="38.86024"></trkpt>
      <trkpt lat="58.04907" lon="38.85786"></trkpt>
      <trkpt lat="58.05209" lon="38.86272"></trkpt>
      <trkpt lat="58.05474" lon="38.8706"></trkpt>
      <trkpt lat="58.05071" lon="38.88023"></trkpt>
      <trkpt lat="58.04805" lon="38.89198"></trkpt>
      <trkpt lat="58.04618" lon="38.90443"></trkpt>
      <trkpt lat="58.04343" lon="38.91815"></trkpt>
      <trkpt lat="58.04371" lon="38.92884"></trkpt>
      <trkpt lat="58.04536" lon="38.94109"></trkpt>
      <trkpt lat="58.04705" lon="38.95696"></trkpt>
      <trkpt lat="58.04892" lon="38.97297"></trkpt>
      <trkpt lat="58.04802" lon="38.98857"></trkpt>
      <trkpt lat="58.04464" lon="39.00238"></trkpt>
      <trkpt lat="58.03916" lon="39.01651"></trkpt>
      <trkpt lat="58.03443" lon="39.02981"></trkpt>
      <trkpt lat="58.03567" lon="39.0421"></trkpt>
      <trkpt lat="58.03719" lon="39.05786"></trkpt>
      <trkpt lat="58.03821" lon="39.07138"></trkpt>
      <trkpt lat="58.03801" lon="39.08699"></trkpt>
      <trkpt lat="58.03992" lon="39.09736"></trkpt>
      <trkpt lat="58.03737" lon="39.11016"></trkpt>
      <trkpt lat="58.03896" lon="39.11615"></trkpt>
      <trkpt lat="58.03744" lon="39.12445"></trkpt>
      <trkpt lat="58.0341" lon="39.13219"></trkpt>
      <trkpt lat="58.03393" lon="39.14198"></trkpt>
      <trkpt lat="58.03328" lon="39.15192"></trkpt>
      <trkpt lat="58.02933" lon="39.15842"></trkpt>
      <trkpt lat="58.02572" lon="39.16503"></trkpt>
      <trkpt lat="58.02215" lon="39.16565"></trkpt>
      <trkpt lat="58.01926" lon="39.17114"></trkpt>
      <trkpt lat="58.01657" lon="39.17966"></trkpt>
      <trkpt lat="58.01287" lon="39.18553"></trkpt>
      <trkpt lat="58.00949" lon="39.19297"></trkpt>
      <trkpt lat="58.00995" lon="39.20216"></trkpt>
      <trkpt lat="58.01138" lon="39.21117"></trkpt>
      <trkpt lat="58.00736" lon="39.22405"></trkpt>
      <trkpt lat="58.00393" lon="39.23682"></trkpt>
      <trkpt lat="58.00049" lon="39.24758"></trkpt>
      <trkpt lat="57.9981" lon="39.26031"></trkpt>
      <trkpt lat="57.99465" lon="39.27626"></trkpt>
      <trkpt lat="57.99075" lon="39.29094"></trkpt>
      <trkpt lat="57.98731" lon="39.30225"></trkpt>
      <trkpt lat="57.98632" lon="39.31781"></trkpt>
      <trkpt lat="57.98599" lon="39.33163"></trkpt>
      <trkpt lat="57.98578" lon="39.3446"></trkpt>
      <trkpt lat="57.98046" lon="39.35665"></trkpt>
      <trkpt lat="57.97549" lon="39.36811"></trkpt>
      <trkpt lat="57.96848" lon="39.37389"></trkpt>
      <trkpt lat="57.96284" lon="39.37809"></trkpt>
      <trkpt lat="57.95751" lon="39.38745"></trkpt>
      <trkpt lat="57.95308" lon="39.39746"></trkpt>
      <trkpt lat="57.95219" lon="39.41083"></trkpt>
      <trkpt lat="57.95121" lon="39.42601"></trkpt>
      <trkpt lat="57.95044" lon="39.43804"></trkpt>
      <trkpt lat="57.94964" lon="39.45053"></trkpt>
      <trkpt lat="57.94876" lon="39.46464"></trkpt>
      <trkpt lat="57.94781" lon="39.47742"></trkpt>
      <trkpt lat="57.9482" lon="39.48968"></trkpt>
      <trkpt lat="57.9471" lon="39.49733"></trkpt>
      <trkpt lat="57.94" lon="39.49755"></trkpt>
      <trkpt lat="57.93408" lon="39.50159"></trkpt>
      <trkpt lat="57.92793" lon="39.50516"></trkpt>
      <trkpt lat="57.92248" lon="39.51144"></trkpt>
      <trkpt lat="57.91596" lon="39.51526"></trkpt>
      <trkpt lat="57.90972" lon="39.51881"></trkpt>
      <trkpt lat="57.90399" lon="39.52268"></trkpt>
      <trkpt lat="57.89804" lon="39.5266"></trkpt>
      <trkpt lat="57.89182" lon="39.52995"></trkpt>
      <trkpt lat="57.88764" lon="39.53891"></trkpt>
      <trkpt lat="57.88342" lon="39.54101"></trkpt>
      <trkpt lat="57.88188" lon="39.53889"></trkpt>
      <trkpt lat="57.8831" lon="39.54578"></trkpt>
      <trkpt lat="57.88092" lon="39.55399"></trkpt>
      <trkpt lat="57.87803" lon="39.56295"></trkpt>
      <trkpt lat="57.87734" lon="39.57456"></trkpt>
      <trkpt lat="57.87515" lon="39.58593"></trkpt>
      <trkpt lat="57.87112" lon="39.59532"></trkpt>
      <trkpt lat="57.86707" lon="39.60398"></trkpt>
      <trkpt lat="57.86206" lon="39.61213"></trkpt>
      <trkpt lat="57.8571" lon="39.6195"></trkpt>
      <trkpt lat="57.85566" lon="39.62054"></trkpt>
      <trkpt lat="57.85052" lon="39.62842"></trkpt>
      <trkpt lat="57.84674" lon="39.63929"></trkpt>
      <trkpt lat="57.84304" lon="39.64834"></trkpt>
      <trkpt lat="57.83771" lon="39.65671"></trkpt>
      <trkpt lat="57.83198" lon="39.66586"></trkpt>
      <trkpt lat="57.82654" lon="39.67599"></trkpt>
      <trkpt lat="57.82194" lon="39.68638"></trkpt>
      <trkpt lat="57.82032" lon="39.69825"></trkpt>
      <trkpt lat="57.81721" lon="39.70975"></trkpt>
      <trkpt lat="57.81309" lon="39.724"></trkpt>
      <trkpt lat="57.80969" lon="39.73562"></trkpt>
      <trkpt lat="57.80787" lon="39.74719"></trkpt>
      <trkpt lat="57.80603" lon="39.75944"></trkpt>
      <trkpt lat="57.8045" lon="39.7701"></trkpt>
      <trkpt lat="57.8046" lon="39.7808"></trkpt>
      <trkpt lat="57.80174" lon="39.79123"></trkpt>
      <trkpt lat="57.79952" lon="39.80196"></trkpt>
      <trkpt lat="57.80131" lon="39.81332"></trkpt>
      <trkpt lat="57.80141" lon="39.82511"></trkpt>
      <trkpt lat="57.7948" lon="39.82826"></trkpt>
      <trkpt lat="57.78934" lon="39.83255"></trkpt>
      <trkpt lat="57.7836" lon="39.84107"></trkpt>
      <trkpt lat="57.77835" lon="39.84716"></trkpt>
      <trkpt lat="57.77349" lon="39.85226"></trkpt>
      <trkpt lat="57.76819" lon="39.85784"></trkpt>
      <trkpt lat="57.76295" lon="39.86346"></trkpt>
      <trkpt lat="57.75751" lon="39.86938"></trkpt>
      <trkpt lat="57.75224" lon="39.87554"></trkpt>
      <trkpt lat="57.74715" lon="39.88196"></trkpt>
      <trkpt lat="57.74208" lon="39.88876"></trkpt>
      <trkpt lat="57.73719" lon="39.89542"></trkpt>
      <trkpt lat="57.73126" lon="39.8977"></trkpt>
      <trkpt lat="57.72533" lon="39.89984"></trkpt>
      <trkpt lat="57.7191" lon="39.90223"></trkpt>
      <trkpt lat="57.71227" lon="39.9031"></trkpt>
      <trkpt lat="57.70562" lon="39.9007"></trkpt>
      <trkpt lat="57.6987" lon="39.89879"></trkpt>
      <trkpt lat="57.6923" lon="39.89831"></trkpt>
      <trkpt lat="57.68604" lon="39.89756"></trkpt>
      <trkpt lat="57.67953" lon="39.89914"></trkpt>
      <trkpt lat="57.67508" lon="39.90619"></trkpt>
      <trkpt lat="57.66923" lon="39.90846"></trkpt>
      <trkpt lat="57.66302" lon="39.90936"></trkpt>
      <trkpt lat="57.65685" lon="39.90945"></trkpt>
      <trkpt lat="57.65106" lon="39.9061"></trkpt>
      <trkpt lat="57.64545" lon="39.9078"></trkpt>
      <trkpt lat="57.64213" lon="39.89922"></trkpt>
      <trkpt lat="57.63972" lon="39.88932"></trkpt>
      <trkpt lat="57.63643" lon="39.88199"></trkpt>
      <trkpt lat="57.6326" lon="39.88282"></trkpt>
    </trkseg>
  </trk>
  <trk>
    <name>День 2</name>
    <trkseg>
      <trkpt lat="57.6303" lon="39.88683"></trkpt>
      <trkpt lat="57.62791" lon="39.88513"></trkpt>
      <trkpt lat="57.62564" lon="39.88639"></trkpt>
      <trkpt lat="57.62425" lon="39.88763"></trkpt>
      <trkpt lat="57.62227" lon="39.88589"></trkpt>
      <trkpt lat="57.62036" lon="39.88834"></trkpt>
      <trkpt lat="57.62093" lon="39.88922"></trkpt>
      <trkpt lat="57.62091" lon="39.8894"></trkpt>
      <trkpt lat="57.62156" lon="39.8903"></trkpt>
      <trkpt lat="57.62179" lon="39.8923"></trkpt>
      <trkpt lat="57.62386" lon="39.89083"></trkpt>
      <trkpt lat="57.62654" lon="39.88925"></trkpt>
      <trkpt lat="57.62923" lon="39.88698"></trkpt>
      <trkpt lat="57.63101" lon="39.88675"></trkpt>
      <trkpt lat="57.62823" lon="39.8856"></trkpt>
      <trkpt lat="57.6264" lon="39.88638"></trkpt>
      <trkpt lat="57.62924" lon="39.88987"></trkpt>
      <trkpt lat="57.63182" lon="39.89086"></trkpt>
      <trkpt lat="57.63277" lon="39.89399"></trkpt>
      <trkpt lat="57.62967" lon="39.8964"></trkpt>
      <trkpt lat="57.62676" lon="39.89955"></trkpt>
      <trkpt lat="57.62388" lon="39.90247"></trkpt>
      <trkpt lat="57.62138" lon="39.90407"></trkpt>
      <trkpt lat="57.61829" lon="39.90329"></trkpt>
      <trkpt lat="57.6187" lon="39.90548"></trkpt>
      <trkpt lat="57.62113" lon="39.9026"></trkpt>
      <trkpt lat="57.62172" lon="39.89697"></trkpt>
      <trkpt lat="57.61963" lon="39.89889"></trkpt>
      <trkpt lat="57.62269" lon="39.89613"></trkpt>
      <trkpt lat="57.62532" lon="39.89708"></trkpt>
      <trkpt lat="57.62798" lon="39.89822"></trkpt>
      <trkpt lat="57.63114" lon="39.89495"></trkpt>
      <trkpt lat="57.63442" lon="39.89198"></trkpt>
      <trkpt lat="57.63804" lon="39.8894"></trkpt>
      <trkpt lat="57.63997" lon="39.89104"></trkpt>
      <trkpt lat="57.64149" lon="39.89726"></trkpt>
      <trkpt lat="57.64313" lon="39.90345"></trkpt>
      <trkpt lat="57.64426" lon="39.91121"></trkpt>
      <trkpt lat="57.6438" lon="39.91818"></trkpt>
      <trkpt lat="57.6458" lon="39.92182"></trkpt>
      <trkpt lat="57.64863" lon="39.92682"></trkpt>
      <trkpt lat="57.6499" lon="39.93174"></trkpt>
      <trkpt lat="57.64941" lon="39.93764"></trkpt>
      <trkpt lat="57.65124" lon="39.94131"></trkpt>
      <trkpt lat="57.65353" lon="39.94666"></trkpt>
      <trkpt lat="57.65584" lon="39.95216"></trkpt>
      <trkpt lat="57.65824" lon="39.95547"></trkpt>
      <trkpt lat="57.65934" lon="39.96091"></trkpt>
      <trkpt lat="57.65943" lon="39.9684"></trkpt>
      <trkpt lat="57.65964" lon="39.97544"></trkpt>
      <trkpt lat="57.66036" lon="39.98293"></trkpt>
      <trkpt lat="57.6619" lon="39.98976"></trkpt>
      <trkpt lat="57.66434" lon="39.99567"></trkpt>
      <trkpt lat="57.66663" lon="40.00142"></trkpt>
      <trkpt lat="57.66823" lon="40.00816"></trkpt>
      <trkpt lat="57.66882" lon="40.01492"></trkpt>
      <trkpt lat="57.66937" lon="40.02151"></trkpt>
      <trkpt lat="57.67027" lon="40.02779"></trkpt>
      <trkpt lat="57.67239" lon="40.03411"></trkpt>
      <trkpt lat="57.67531" lon="40.04158"></trkpt>
      <trkpt lat="57.67827" lon="40.04636"></trkpt>
      <trkpt lat="57.68083" lon="40.05063"></trkpt>
      <trkpt lat="57.68211" lon="40.05718"></trkpt>
      <trkpt lat="57.68328" lon="40.06361"></trkpt>
      <trkpt lat="57.68505" lon="40.06929"></trkpt>
      <trkpt lat="57.6874" lon="40.07451"></trkpt>
      <trkpt lat="57.6903" lon="40.07849"></trkpt>
      <trkpt lat="57.69276" lon="40.08341"></trkpt>
      <trkpt lat="57.69426" lon="40.08971"></trkpt>
      <trkpt lat="57.69662" lon="40.09684"></trkpt>
      <trkpt lat="57.6974" lon="40.10366"></trkpt>
      <trkpt lat="57.69873" lon="40.11034"></trkpt>
      <trkpt lat="57.7006" lon="40.11624"></trkpt>
      <trkpt lat="57.70233" lon="40.12243"></trkpt>
      <trkpt lat="57.7043" lon="40.12766"></trkpt>
      <trkpt lat="57.70622" lon="40.13318"></trkpt>
      <trkpt lat="57.70719" lon="40.13926"></trkpt>
      <trkpt lat="57.70799" lon="40.14553"></trkpt>
      <trkpt lat="57.70762" lon="40.15197"></trkpt>
      <trkpt lat="57.70708" lon="40.15851"></trkpt>
      <trkpt lat="57.70641" lon="40.16569"></trkpt>
      <trkpt lat="57.70612" lon="40.17288"></trkpt>
      <trkpt lat="57.70701" lon="40.18054"></trkpt>
      <trkpt lat="57.70781" lon="40.18795"></trkpt>
      <trkpt lat="57.70846" lon="40.19486"></trkpt>
      <trkpt lat="57.70869" lon="40.20213"></trkpt>
      <trkpt lat="57.70889" lon="40.20886"></trkpt>
      <trkpt lat="57.70772" lon="40.21529"></trkpt>
      <trkpt lat="57.70713" lon="40.22305"></trkpt>
      <trkpt lat="57.70803" lon="40.23007"></trkpt>
      <trkpt lat="57.70962" lon="40.23621"></trkpt>
      <trkpt lat="57.70952" lon="40.24266"></trkpt>
      <trkpt lat="57.70944" lon="40.24962"></trkpt>
      <trkpt lat="57.70925" lon="40.25637"></trkpt>
      <trkpt lat="57.70917" lon="40.26296"></trkpt>
      <trkpt lat="57.70913" lon="40.26962"></trkpt>
      <trkpt lat="57.71021" lon="40.27558"></trkpt>
      <trkpt lat="57.71303" lon="40.28061"></trkpt>
      <trkpt lat="57.7158" lon="40.28577"></trkpt>
      <trkpt lat="57.71822" lon="40.29025"></trkpt>
      <trkpt lat="57.72024" lon="40.29573"></trkpt>
      <trkpt lat="57.72217" lon="40.30113"></trkpt>
      <trkpt lat="57.72443" lon="40.30603"></trkpt>
      <trkpt lat="57.72497" lon="40.31233"></trkpt>
      <trkpt lat="57.72398" lon="40.31899"></trkpt>
      <trkpt lat="57.72459" lon="40.32567"></trkpt>
      <trkpt lat="57.7256" lon="40.33213"></trkpt>
      <trkpt lat="57.72703" lon="40.33821"></trkpt>
      <trkpt lat="57.72747" lon="40.34491"></trkpt>
      <trkpt lat="57.72856" lon="40.35108"></trkpt>
      <trkpt lat="57.72967" lon="40.35741"></trkpt>
      <trkpt lat="57.72979" lon="40.36379"></trkpt>
      <trkpt lat="57.72881" lon="40.3686"></trkpt>
      <trkpt lat="57.73045" lon="40.37483"></trkpt>
      <trkpt lat="57.73153" lon="40.3807"></trkpt>
      <trkpt lat="57.73157" lon="40.38703"></trkpt>
      <trkpt lat="57.73192" lon="40.3935"></trkpt>
      <trkpt lat="57.73317" lon="40.39956"></trkpt>
      <trkpt lat="57.73446" lon="40.40541"></trkpt>
      <trkpt lat="57.7361" lon="40.41133"></trkpt>
      <trkpt lat="57.73789" lon="40.41682"></trkpt>
      <trkpt lat="57.73904" lon="40.42323"></trkpt>
      <trkpt lat="57.74023" lon="40.42624"></trkpt>
      <trkpt lat="57.7424" lon="40.43181"></trkpt>
      <trkpt lat="57.7445" lon="40.43654"></trkpt>
      <trkpt lat="57.74291" lon="40.43476"></trkpt>
      <trkpt lat="57.74012" lon="40.4384"></trkpt>
      <trkpt lat="57.7372" lon="40.43619"></trkpt>
      <trkpt lat="57.73459" lon="40.43208"></trkpt>
      <trkpt lat="57.73182" lon="40.42946"></trkpt>
      <trkpt lat="57.72893" lon="40.43402"></trkpt>
      <trkpt lat="57.72575" lon="40.43395"></trkpt>
      <trkpt lat="57.7243" lon="40.4268"></trkpt>
      <trkpt lat="57.72283" lon="40.42015"></trkpt>
      <trkpt lat="57.72164" lon="40.41371"></trkpt>
      <trkpt lat="57.71903" lon="40.40866"></trkpt>
      <trkpt lat="57.71659" lon="40.40294"></trkpt>
      <trkpt lat="57.71371" lon="40.39776"></trkpt>
      <trkpt lat="57.71251" lon="40.39162"></trkpt>
      <trkpt lat="57.71174" lon="40.38515"></trkpt>
      <trkpt lat="57.71104" lon="40.3783"></trkpt>
      <trkpt lat="57.71013" lon="40.37119"></trkpt>
      <trkpt lat="57.70732" lon="40.36635"></trkpt>
      <trkpt lat="57.70369" lon="40.36476"></trkpt>
      <trkpt lat="57.70035" lon="40.36213"></trkpt>
      <trkpt lat="57.69641" lon="40.36149"></trkpt>
      <trkpt lat="57.69256" lon="40.36095"></trkpt>
      <trkpt lat="57.68884" lon="40.36273"></trkpt>
      <trkpt lat="57.68615" lon="40.36512"></trkpt>
      <trkpt lat="57.68275" lon="40.36837"></trkpt>
      <trkpt lat="57.68053" lon="40.36812"></trkpt>
    </trkseg>
  </trk>
</gpx>
